{
  "type": "FeatureCollection",
  "features": [
    {
      "type": "Feature",
      "geometry": {
        "type": "Point",
        "coordinates": [
          104.500497222,
          -4.862591667
        ]
      },
      "properties": {
        "location_name": "PLTM Besai Kemu",
        "slug": "pltm_besai_kemu",
        "date": "Senin, 14 September 2026",
        "date_iso": "2026-09-14",
        "relative": "Hari ini",
        "hour": "00:00",
        "rain_probability": 0,
        "risk_score": 23,
        "risk_class": "safe",
        "risk_label": "Aman",
        "condition": "Cerah",
        "temp_c": 21.8,
        "humidity_pct": 82.0,
        "heat_index_c": 21.8,
        "wind_kmh": 6.2,
        "wind_dir": 0.0,
        "cloud_pct": 15.0
      }
    },
    {
      "type": "Feature",
      "geometry": {
        "type": "Point",
        "coordinates": [
          104.500497222,
          -4.862591667
        ]
      },
      "properties": {
        "location_name": "PLTM Besai Kemu",
        "slug": "pltm_besai_kemu",
        "date": "Senin, 14 September 2026",
        "date_iso": "2026-09-14",
        "relative": "Hari ini",
        "hour": "01:00",
        "rain_probability": 0,
        "risk_score": 21,
        "risk_class": "safe",
        "risk_label": "Aman",
        "condition": "Cerah",
        "temp_c": 21.9,
        "humidity_pct": 76.0,
        "heat_index_c": 21.9,
        "wind_kmh": 6.8,
        "wind_dir": 0.0,
        "cloud_pct": 15.0
      }
    },
    {
      "type": "Feature",
      "geometry": {
        "type": "Point",
        "coordinates": [
          104.500497222,
          -4.862591667
        ]
      },
      "properties": {
        "location_name": "PLTM Besai Kemu",
        "slug": "pltm_besai_kemu",
        "date": "Senin, 14 September 2026",
        "date_iso": "2026-09-14",
        "relative": "Hari ini",
        "hour": "02:00",
        "rain_probability": 0,
        "risk_score": 24,
        "risk_class": "safe",
        "risk_label": "Aman",
        "condition": "Berawan",
        "temp_c": 21.6,
        "humidity_pct": 75.0,
        "heat_index_c": 21.6,
        "wind_kmh": 6.8,
        "wind_dir": 0.0,
        "cloud_pct": 45.0
      }
    },
    {
      "type": "Feature",
      "geometry": {
        "type": "Point",
        "coordinates": [
          104.500497222,
          -4.862591667
        ]
      },
      "properties": {
        "location_name": "PLTM Besai Kemu",
        "slug": "pltm_besai_kemu",
        "date": "Senin, 14 September 2026",
        "date_iso": "2026-09-14",
        "relative": "Hari ini",
        "hour": "03:00",
        "rain_probability": 0,
        "risk_score": 25,
        "risk_class": "safe",
        "risk_label": "Aman",
        "condition": "Berawan",
        "temp_c": 21.3,
        "humidity_pct": 77.0,
        "heat_index_c": 21.3,
        "wind_kmh": 7.6,
        "wind_dir": 0.0,
        "cloud_pct": 45.0
      }
    },
    {
      "type": "Feature",
      "geometry": {
        "type": "Point",
        "coordinates": [
          104.500497222,
          -4.862591667
        ]
      },
      "properties": {
        "location_name": "PLTM Besai Kemu",
        "slug": "pltm_besai_kemu",
        "date": "Senin, 14 September 2026",
        "date_iso": "2026-09-14",
        "relative": "Hari ini",
        "hour": "04:00",
        "rain_probability": 0,
        "risk_score": 20,
        "risk_class": "safe",
        "risk_label": "Aman",
        "condition": "Berawan",
        "temp_c": 21.1,
        "humidity_pct": 79.0,
        "heat_index_c": 21.1,
        "wind_kmh": 7.6,
        "wind_dir": 0.0,
        "cloud_pct": 45.0
      }
    },
    {
      "type": "Feature",
      "geometry": {
        "type": "Point",
        "coordinates": [
          104.500497222,
          -4.862591667
        ]
      },
      "properties": {
        "location_name": "PLTM Besai Kemu",
        "slug": "pltm_besai_kemu",
        "date": "Senin, 14 September 2026",
        "date_iso": "2026-09-14",
        "relative": "Hari ini",
        "hour": "05:00",
        "rain_probability": 0,
        "risk_score": 20,
        "risk_class": "safe",
        "risk_label": "Aman",
        "condition": "Cerah",
        "temp_c": 21.0,
        "humidity_pct": 79.0,
        "heat_index_c": 21.0,
        "wind_kmh": 7.6,
        "wind_dir": 0.0,
        "cloud_pct": 45.0
      }
    },
    {
      "type": "Feature",
      "geometry": {
        "type": "Point",
        "coordinates": [
          104.500497222,
          -4.862591667
        ]
      },
      "properties": {
        "location_name": "PLTM Besai Kemu",
        "slug": "pltm_besai_kemu",
        "date": "Senin, 14 September 2026",
        "date_iso": "2026-09-14",
        "relative": "Hari ini",
        "hour": "06:00",
        "rain_probability": 0,
        "risk_score": 24,
        "risk_class": "safe",
        "risk_label": "Aman",
        "condition": "Cerah",
        "temp_c": 20.8,
        "humidity_pct": 80.0,
        "heat_index_c": 20.8,
        "wind_kmh": 7.6,
        "wind_dir": 0.0,
        "cloud_pct": 15.0
      }
    },
    {
      "type": "Feature",
      "geometry": {
        "type": "Point",
        "coordinates": [
          104.500497222,
          -4.862591667
        ]
      },
      "properties": {
        "location_name": "PLTM Besai Kemu",
        "slug": "pltm_besai_kemu",
        "date": "Senin, 14 September 2026",
        "date_iso": "2026-09-14",
        "relative": "Hari ini",
        "hour": "07:00",
        "rain_probability": 0,
        "risk_score": 25,
        "risk_class": "safe",
        "risk_label": "Aman",
        "condition": "Cerah",
        "temp_c": 23.6,
        "humidity_pct": 72.0,
        "heat_index_c": 23.6,
        "wind_kmh": 7.6,
        "wind_dir": 0.0,
        "cloud_pct": 15.0
      }
    },
    {
      "type": "Feature",
      "geometry": {
        "type": "Point",
        "coordinates": [
          104.500497222,
          -4.862591667
        ]
      },
      "properties": {
        "location_name": "PLTM Besai Kemu",
        "slug": "pltm_besai_kemu",
        "date": "Senin, 14 September 2026",
        "date_iso": "2026-09-14",
        "relative": "Hari ini",
        "hour": "08:00",
        "rain_probability": 0,
        "risk_score": 27,
        "risk_class": "watch",
        "risk_label": "Perlu diperhatikan",
        "condition": "Cerah",
        "temp_c": 25.5,
        "humidity_pct": 65.0,
        "heat_index_c": 25.5,
        "wind_kmh": 8.7,
        "wind_dir": 0.0,
        "cloud_pct": 15.0
      }
    },
    {
      "type": "Feature",
      "geometry": {
        "type": "Point",
        "coordinates": [
          104.500497222,
          -4.862591667
        ]
      },
      "properties": {
        "location_name": "PLTM Besai Kemu",
        "slug": "pltm_besai_kemu",
        "date": "Senin, 14 September 2026",
        "date_iso": "2026-09-14",
        "relative": "Hari ini",
        "hour": "09:00",
        "rain_probability": 0,
        "risk_score": 41,
        "risk_class": "watch",
        "risk_label": "Perlu diperhatikan",
        "condition": "Cerah Berawan",
        "temp_c": 28.0,
        "humidity_pct": 58.0,
        "heat_index_c": 29.91,
        "wind_kmh": 13.7,
        "wind_dir": 0.0,
        "cloud_pct": 45.0
      }
    },
    {
      "type": "Feature",
      "geometry": {
        "type": "Point",
        "coordinates": [
          104.500497222,
          -4.862591667
        ]
      },
      "properties": {
        "location_name": "PLTM Besai Kemu",
        "slug": "pltm_besai_kemu",
        "date": "Senin, 14 September 2026",
        "date_iso": "2026-09-14",
        "relative": "Hari ini",
        "hour": "10:00",
        "rain_probability": 0,
        "risk_score": 65,
        "risk_class": "rain",
        "risk_label": "Waspada",
        "condition": "Cerah",
        "temp_c": 29.0,
        "humidity_pct": 52.0,
        "heat_index_c": 31.06,
        "wind_kmh": 15.8,
        "wind_dir": 0.0,
        "cloud_pct": 45.0
      }
    },
    {
      "type": "Feature",
      "geometry": {
        "type": "Point",
        "coordinates": [
          104.500497222,
          -4.862591667
        ]
      },
      "properties": {
        "location_name": "PLTM Besai Kemu",
        "slug": "pltm_besai_kemu",
        "date": "Senin, 14 September 2026",
        "date_iso": "2026-09-14",
        "relative": "Hari ini",
        "hour": "11:00",
        "rain_probability": 0,
        "risk_score": 81,
        "risk_class": "danger",
        "risk_label": "Berpotensi signifikan",
        "condition": "Cerah Berawan",
        "temp_c": 31.0,
        "humidity_pct": 47.0,
        "heat_index_c": 32.58,
        "wind_kmh": 14.1,
        "wind_dir": 0.0,
        "cloud_pct": 45.0
      }
    },
    {
      "type": "Feature",
      "geometry": {
        "type": "Point",
        "coordinates": [
          104.500497222,
          -4.862591667
        ]
      },
      "properties": {
        "location_name": "PLTM Besai Kemu",
        "slug": "pltm_besai_kemu",
        "date": "Senin, 14 September 2026",
        "date_iso": "2026-09-14",
        "relative": "Hari ini",
        "hour": "12:00",
        "rain_probability": 0,
        "risk_score": 90,
        "risk_class": "danger",
        "risk_label": "Berpotensi signifikan",
        "condition": "Cerah Berawan",
        "temp_c": 32.2,
        "humidity_pct": 44.0,
        "heat_index_c": 33.36,
        "wind_kmh": 14.8,
        "wind_dir": 0.0,
        "cloud_pct": 45.0
      }
    },
    {
      "type": "Feature",
      "geometry": {
        "type": "Point",
        "coordinates": [
          104.500497222,
          -4.862591667
        ]
      },
      "properties": {
        "location_name": "PLTM Besai Kemu",
        "slug": "pltm_besai_kemu",
        "date": "Senin, 14 September 2026",
        "date_iso": "2026-09-14",
        "relative": "Hari ini",
        "hour": "13:00",
        "rain_probability": 14.4,
        "risk_score": 93,
        "risk_class": "danger",
        "risk_label": "Berpotensi signifikan",
        "condition": "Cerah",
        "temp_c": 32.2,
        "humidity_pct": 40.0,
        "heat_index_c": 33.45,
        "wind_kmh": 14.4,
        "wind_dir": 0.0,
        "cloud_pct": 45.0
      }
    },
    {
      "type": "Feature",
      "geometry": {
        "type": "Point",
        "coordinates": [
          104.500497222,
          -4.862591667
        ]
      },
      "properties": {
        "location_name": "PLTM Besai Kemu",
        "slug": "pltm_besai_kemu",
        "date": "Senin, 14 September 2026",
        "date_iso": "2026-09-14",
        "relative": "Hari ini",
        "hour": "14:00",
        "rain_probability": 0,
        "risk_score": 99,
        "risk_class": "danger",
        "risk_label": "Berpotensi signifikan",
        "condition": "Berawan",
        "temp_c": 33.0,
        "humidity_pct": 41.0,
        "heat_index_c": 34.0,
        "wind_kmh": 15.8,
        "wind_dir": 0.0,
        "cloud_pct": 45.0
      }
    },
    {
      "type": "Feature",
      "geometry": {
        "type": "Point",
        "coordinates": [
          104.500497222,
          -4.862591667
        ]
      },
      "properties": {
        "location_name": "PLTM Besai Kemu",
        "slug": "pltm_besai_kemu",
        "date": "Senin, 14 September 2026",
        "date_iso": "2026-09-14",
        "relative": "Hari ini",
        "hour": "15:00",
        "rain_probability": 14.4,
        "risk_score": 99,
        "risk_class": "danger",
        "risk_label": "Berpotensi signifikan",
        "condition": "Cerah Berawan",
        "temp_c": 32.4,
        "humidity_pct": 40.0,
        "heat_index_c": 33.58,
        "wind_kmh": 15.5,
        "wind_dir": 0.0,
        "cloud_pct": 45.0
      }
    },
    {
      "type": "Feature",
      "geometry": {
        "type": "Point",
        "coordinates": [
          104.500497222,
          -4.862591667
        ]
      },
      "properties": {
        "location_name": "PLTM Besai Kemu",
        "slug": "pltm_besai_kemu",
        "date": "Senin, 14 September 2026",
        "date_iso": "2026-09-14",
        "relative": "Hari ini",
        "hour": "16:00",
        "rain_probability": 14.4,
        "risk_score": 91,
        "risk_class": "danger",
        "risk_label": "Berpotensi signifikan",
        "condition": "Berawan",
        "temp_c": 31.8,
        "humidity_pct": 43.0,
        "heat_index_c": 32.84,
        "wind_kmh": 16.9,
        "wind_dir": 0.0,
        "cloud_pct": 75.0
      }
    },
    {
      "type": "Feature",
      "geometry": {
        "type": "Point",
        "coordinates": [
          104.500497222,
          -4.862591667
        ]
      },
      "properties": {
        "location_name": "PLTM Besai Kemu",
        "slug": "pltm_besai_kemu",
        "date": "Senin, 14 September 2026",
        "date_iso": "2026-09-14",
        "relative": "Hari ini",
        "hour": "17:00",
        "rain_probability": 13.8,
        "risk_score": 79,
        "risk_class": "danger",
        "risk_label": "Berpotensi signifikan",
        "condition": "Berawan",
        "temp_c": 30.5,
        "humidity_pct": 47.0,
        "heat_index_c": 31.9,
        "wind_kmh": 13.3,
        "wind_dir": 0.0,
        "cloud_pct": 75.0
      }
    },
    {
      "type": "Feature",
      "geometry": {
        "type": "Point",
        "coordinates": [
          104.500497222,
          -4.862591667
        ]
      },
      "properties": {
        "location_name": "PLTM Besai Kemu",
        "slug": "pltm_besai_kemu",
        "date": "Senin, 14 September 2026",
        "date_iso": "2026-09-14",
        "relative": "Hari ini",
        "hour": "18:00",
        "rain_probability": 0,
        "risk_score": 62,
        "risk_class": "rain",
        "risk_label": "Waspada",
        "condition": "Berawan",
        "temp_c": 28.5,
        "humidity_pct": 50.0,
        "heat_index_c": 28.86,
        "wind_kmh": 11.4,
        "wind_dir": 0.0,
        "cloud_pct": 45.0
      }
    },
    {
      "type": "Feature",
      "geometry": {
        "type": "Point",
        "coordinates": [
          104.500497222,
          -4.862591667
        ]
      },
      "properties": {
        "location_name": "PLTM Besai Kemu",
        "slug": "pltm_besai_kemu",
        "date": "Senin, 14 September 2026",
        "date_iso": "2026-09-14",
        "relative": "Hari ini",
        "hour": "19:00",
        "rain_probability": 0,
        "risk_score": 47,
        "risk_class": "watch",
        "risk_label": "Perlu diperhatikan",
        "condition": "Berawan",
        "temp_c": 25.6,
        "humidity_pct": 60.0,
        "heat_index_c": 25.6,
        "wind_kmh": 7.6,
        "wind_dir": 0.0,
        "cloud_pct": 75.0
      }
    },
    {
      "type": "Feature",
      "geometry": {
        "type": "Point",
        "coordinates": [
          104.500497222,
          -4.862591667
        ]
      },
      "properties": {
        "location_name": "PLTM Besai Kemu",
        "slug": "pltm_besai_kemu",
        "date": "Senin, 14 September 2026",
        "date_iso": "2026-09-14",
        "relative": "Hari ini",
        "hour": "20:00",
        "rain_probability": 0,
        "risk_score": 40,
        "risk_class": "watch",
        "risk_label": "Perlu diperhatikan",
        "condition": "Berawan",
        "temp_c": 24.6,
        "humidity_pct": 67.0,
        "heat_index_c": 24.6,
        "wind_kmh": 7.6,
        "wind_dir": 0.0,
        "cloud_pct": 75.0
      }
    },
    {
      "type": "Feature",
      "geometry": {
        "type": "Point",
        "coordinates": [
          104.500497222,
          -4.862591667
        ]
      },
      "properties": {
        "location_name": "PLTM Besai Kemu",
        "slug": "pltm_besai_kemu",
        "date": "Senin, 14 September 2026",
        "date_iso": "2026-09-14",
        "relative": "Hari ini",
        "hour": "21:00",
        "rain_probability": 0,
        "risk_score": 34,
        "risk_class": "watch",
        "risk_label": "Perlu diperhatikan",
        "condition": "Berawan",
        "temp_c": 23.0,
        "humidity_pct": 67.0,
        "heat_index_c": 23.0,
        "wind_kmh": 6.7,
        "wind_dir": 0.0,
        "cloud_pct": 75.0
      }
    },
    {
      "type": "Feature",
      "geometry": {
        "type": "Point",
        "coordinates": [
          104.500497222,
          -4.862591667
        ]
      },
      "properties": {
        "location_name": "PLTM Besai Kemu",
        "slug": "pltm_besai_kemu",
        "date": "Senin, 14 September 2026",
        "date_iso": "2026-09-14",
        "relative": "Hari ini",
        "hour": "22:00",
        "rain_probability": 0,
        "risk_score": 30,
        "risk_class": "watch",
        "risk_label": "Perlu diperhatikan",
        "condition": "Berawan",
        "temp_c": 22.1,
        "humidity_pct": 77.0,
        "heat_index_c": 22.1,
        "wind_kmh": 6.4,
        "wind_dir": 0.0,
        "cloud_pct": 75.0
      }
    },
    {
      "type": "Feature",
      "geometry": {
        "type": "Point",
        "coordinates": [
          104.500497222,
          -4.862591667
        ]
      },
      "properties": {
        "location_name": "PLTM Besai Kemu",
        "slug": "pltm_besai_kemu",
        "date": "Senin, 14 September 2026",
        "date_iso": "2026-09-14",
        "relative": "Hari ini",
        "hour": "23:00",
        "rain_probability": 0,
        "risk_score": 27,
        "risk_class": "watch",
        "risk_label": "Perlu diperhatikan",
        "condition": "Berawan",
        "temp_c": 21.6,
        "humidity_pct": 77.0,
        "heat_index_c": 21.6,
        "wind_kmh": 5.8,
        "wind_dir": 0.0,
        "cloud_pct": 75.0
      }
    },
    {
      "type": "Feature",
      "geometry": {
        "type": "Point",
        "coordinates": [
          104.500497222,
          -4.862591667
        ]
      },
      "properties": {
        "location_name": "PLTM Besai Kemu",
        "slug": "pltm_besai_kemu",
        "date": "Selasa, 15 September 2026",
        "date_iso": "2026-09-15",
        "relative": "Besok",
        "hour": "00:00",
        "rain_probability": 0,
        "risk_score": 22,
        "risk_class": "safe",
        "risk_label": "Aman",
        "condition": "Berawan",
        "temp_c": 21.3,
        "humidity_pct": 73.0,
        "heat_index_c": 21.3,
        "wind_kmh": 6.4,
        "wind_dir": 0.0,
        "cloud_pct": 75.0
      }
    },
    {
      "type": "Feature",
      "geometry": {
        "type": "Point",
        "coordinates": [
          104.500497222,
          -4.862591667
        ]
      },
      "properties": {
        "location_name": "PLTM Besai Kemu",
        "slug": "pltm_besai_kemu",
        "date": "Selasa, 15 September 2026",
        "date_iso": "2026-09-15",
        "relative": "Besok",
        "hour": "01:00",
        "rain_probability": 0,
        "risk_score": 22,
        "risk_class": "safe",
        "risk_label": "Aman",
        "condition": "Berawan",
        "temp_c": 21.0,
        "humidity_pct": 74.0,
        "heat_index_c": 21.0,
        "wind_kmh": 6.6,
        "wind_dir": 0.0,
        "cloud_pct": 75.0
      }
    },
    {
      "type": "Feature",
      "geometry": {
        "type": "Point",
        "coordinates": [
          104.500497222,
          -4.862591667
        ]
      },
      "properties": {
        "location_name": "PLTM Besai Kemu",
        "slug": "pltm_besai_kemu",
        "date": "Selasa, 15 September 2026",
        "date_iso": "2026-09-15",
        "relative": "Besok",
        "hour": "02:00",
        "rain_probability": 0,
        "risk_score": 20,
        "risk_class": "safe",
        "risk_label": "Aman",
        "condition": "Berawan",
        "temp_c": 20.7,
        "humidity_pct": 76.0,
        "heat_index_c": 20.7,
        "wind_kmh": 6.3,
        "wind_dir": 0.0,
        "cloud_pct": 45.0
      }
    },
    {
      "type": "Feature",
      "geometry": {
        "type": "Point",
        "coordinates": [
          104.500497222,
          -4.862591667
        ]
      },
      "properties": {
        "location_name": "PLTM Besai Kemu",
        "slug": "pltm_besai_kemu",
        "date": "Selasa, 15 September 2026",
        "date_iso": "2026-09-15",
        "relative": "Besok",
        "hour": "03:00",
        "rain_probability": 0,
        "risk_score": 20,
        "risk_class": "safe",
        "risk_label": "Aman",
        "condition": "Berawan",
        "temp_c": 20.3,
        "humidity_pct": 77.0,
        "heat_index_c": 20.3,
        "wind_kmh": 5.8,
        "wind_dir": 0.0,
        "cloud_pct": 45.0
      }
    },
    {
      "type": "Feature",
      "geometry": {
        "type": "Point",
        "coordinates": [
          104.500497222,
          -4.862591667
        ]
      },
      "properties": {
        "location_name": "PLTM Besai Kemu",
        "slug": "pltm_besai_kemu",
        "date": "Selasa, 15 September 2026",
        "date_iso": "2026-09-15",
        "relative": "Besok",
        "hour": "04:00",
        "rain_probability": 0,
        "risk_score": 20,
        "risk_class": "safe",
        "risk_label": "Aman",
        "condition": "Berawan",
        "temp_c": 20.2,
        "humidity_pct": 72.0,
        "heat_index_c": 20.2,
        "wind_kmh": 5.7,
        "wind_dir": 0.0,
        "cloud_pct": 45.0
      }
    },
    {
      "type": "Feature",
      "geometry": {
        "type": "Point",
        "coordinates": [
          104.500497222,
          -4.862591667
        ]
      },
      "properties": {
        "location_name": "PLTM Besai Kemu",
        "slug": "pltm_besai_kemu",
        "date": "Selasa, 15 September 2026",
        "date_iso": "2026-09-15",
        "relative": "Besok",
        "hour": "05:00",
        "rain_probability": 0,
        "risk_score": 20,
        "risk_class": "safe",
        "risk_label": "Aman",
        "condition": "Cerah",
        "temp_c": 20.6,
        "humidity_pct": 72.0,
        "heat_index_c": 20.6,
        "wind_kmh": 5.9,
        "wind_dir": 0.0,
        "cloud_pct": 45.0
      }
    },
    {
      "type": "Feature",
      "geometry": {
        "type": "Point",
        "coordinates": [
          104.500497222,
          -4.862591667
        ]
      },
      "properties": {
        "location_name": "PLTM Besai Kemu",
        "slug": "pltm_besai_kemu",
        "date": "Selasa, 15 September 2026",
        "date_iso": "2026-09-15",
        "relative": "Besok",
        "hour": "06:00",
        "rain_probability": 0,
        "risk_score": 21,
        "risk_class": "safe",
        "risk_label": "Aman",
        "condition": "Cerah",
        "temp_c": 20.6,
        "humidity_pct": 72.0,
        "heat_index_c": 20.6,
        "wind_kmh": 6.1,
        "wind_dir": 0.0,
        "cloud_pct": 45.0
      }
    },
    {
      "type": "Feature",
      "geometry": {
        "type": "Point",
        "coordinates": [
          104.500497222,
          -4.862591667
        ]
      },
      "properties": {
        "location_name": "PLTM Besai Kemu",
        "slug": "pltm_besai_kemu",
        "date": "Selasa, 15 September 2026",
        "date_iso": "2026-09-15",
        "relative": "Besok",
        "hour": "07:00",
        "rain_probability": 0,
        "risk_score": 19,
        "risk_class": "safe",
        "risk_label": "Aman",
        "condition": "Cerah",
        "temp_c": 22.7,
        "humidity_pct": 66.0,
        "heat_index_c": 22.7,
        "wind_kmh": 5.4,
        "wind_dir": 0.0,
        "cloud_pct": 15.0
      }
    },
    {
      "type": "Feature",
      "geometry": {
        "type": "Point",
        "coordinates": [
          104.500497222,
          -4.862591667
        ]
      },
      "properties": {
        "location_name": "PLTM Besai Kemu",
        "slug": "pltm_besai_kemu",
        "date": "Selasa, 15 September 2026",
        "date_iso": "2026-09-15",
        "relative": "Besok",
        "hour": "08:00",
        "rain_probability": 13.9,
        "risk_score": 22,
        "risk_class": "safe",
        "risk_label": "Aman",
        "condition": "Cerah",
        "temp_c": 27.0,
        "humidity_pct": 57.0,
        "heat_index_c": 27.48,
        "wind_kmh": 3.9,
        "wind_dir": 0.0,
        "cloud_pct": 45.0
      }
    },
    {
      "type": "Feature",
      "geometry": {
        "type": "Point",
        "coordinates": [
          104.500497222,
          -4.862591667
        ]
      },
      "properties": {
        "location_name": "PLTM Besai Kemu",
        "slug": "pltm_besai_kemu",
        "date": "Selasa, 15 September 2026",
        "date_iso": "2026-09-15",
        "relative": "Besok",
        "hour": "09:00",
        "rain_probability": 14.5,
        "risk_score": 38,
        "risk_class": "watch",
        "risk_label": "Perlu diperhatikan",
        "condition": "Cerah Berawan",
        "temp_c": 27.4,
        "humidity_pct": 57.0,
        "heat_index_c": 28.52,
        "wind_kmh": 7.8,
        "wind_dir": 0.0,
        "cloud_pct": 45.0
      }
    },
    {
      "type": "Feature",
      "geometry": {
        "type": "Point",
        "coordinates": [
          104.500497222,
          -4.862591667
        ]
      },
      "properties": {
        "location_name": "PLTM Besai Kemu",
        "slug": "pltm_besai_kemu",
        "date": "Selasa, 15 September 2026",
        "date_iso": "2026-09-15",
        "relative": "Besok",
        "hour": "10:00",
        "rain_probability": 14.5,
        "risk_score": 61,
        "risk_class": "rain",
        "risk_label": "Waspada",
        "condition": "Cerah Berawan",
        "temp_c": 30.7,
        "humidity_pct": 51.0,
        "heat_index_c": 32.1,
        "wind_kmh": 9.5,
        "wind_dir": 0.0,
        "cloud_pct": 45.0
      }
    },
    {
      "type": "Feature",
      "geometry": {
        "type": "Point",
        "coordinates": [
          104.500497222,
          -4.862591667
        ]
      },
      "properties": {
        "location_name": "PLTM Besai Kemu",
        "slug": "pltm_besai_kemu",
        "date": "Selasa, 15 September 2026",
        "date_iso": "2026-09-15",
        "relative": "Besok",
        "hour": "11:00",
        "rain_probability": 0,
        "risk_score": 80,
        "risk_class": "danger",
        "risk_label": "Berpotensi signifikan",
        "condition": "Cerah Berawan",
        "temp_c": 31.2,
        "humidity_pct": 47.0,
        "heat_index_c": 32.65,
        "wind_kmh": 13.0,
        "wind_dir": 0.0,
        "cloud_pct": 45.0
      }
    },
    {
      "type": "Feature",
      "geometry": {
        "type": "Point",
        "coordinates": [
          104.500497222,
          -4.862591667
        ]
      },
      "properties": {
        "location_name": "PLTM Besai Kemu",
        "slug": "pltm_besai_kemu",
        "date": "Selasa, 15 September 2026",
        "date_iso": "2026-09-15",
        "relative": "Besok",
        "hour": "12:00",
        "rain_probability": 14.5,
        "risk_score": 93,
        "risk_class": "danger",
        "risk_label": "Berpotensi signifikan",
        "condition": "Cerah Berawan",
        "temp_c": 31.8,
        "humidity_pct": 45.0,
        "heat_index_c": 33.55,
        "wind_kmh": 10.8,
        "wind_dir": 0.0,
        "cloud_pct": 45.0
      }
    },
    {
      "type": "Feature",
      "geometry": {
        "type": "Point",
        "coordinates": [
          104.500497222,
          -4.862591667
        ]
      },
      "properties": {
        "location_name": "PLTM Besai Kemu",
        "slug": "pltm_besai_kemu",
        "date": "Selasa, 15 September 2026",
        "date_iso": "2026-09-15",
        "relative": "Besok",
        "hour": "13:00",
        "rain_probability": 0,
        "risk_score": 100,
        "risk_class": "danger",
        "risk_label": "Berpotensi signifikan",
        "condition": "Berawan",
        "temp_c": 33.0,
        "humidity_pct": 39.0,
        "heat_index_c": 33.7,
        "wind_kmh": 11.5,
        "wind_dir": 0.0,
        "cloud_pct": 45.0
      }
    },
    {
      "type": "Feature",
      "geometry": {
        "type": "Point",
        "coordinates": [
          104.500497222,
          -4.862591667
        ]
      },
      "properties": {
        "location_name": "PLTM Besai Kemu",
        "slug": "pltm_besai_kemu",
        "date": "Selasa, 15 September 2026",
        "date_iso": "2026-09-15",
        "relative": "Besok",
        "hour": "14:00",
        "rain_probability": 0,
        "risk_score": 100,
        "risk_class": "danger",
        "risk_label": "Berpotensi signifikan",
        "condition": "Cerah Berawan",
        "temp_c": 33.2,
        "humidity_pct": 37.0,
        "heat_index_c": 34.02,
        "wind_kmh": 11.9,
        "wind_dir": 0.0,
        "cloud_pct": 45.0
      }
    },
    {
      "type": "Feature",
      "geometry": {
        "type": "Point",
        "coordinates": [
          104.500497222,
          -4.862591667
        ]
      },
      "properties": {
        "location_name": "PLTM Besai Kemu",
        "slug": "pltm_besai_kemu",
        "date": "Selasa, 15 September 2026",
        "date_iso": "2026-09-15",
        "relative": "Besok",
        "hour": "15:00",
        "rain_probability": 0,
        "risk_score": 100,
        "risk_class": "danger",
        "risk_label": "Berpotensi signifikan",
        "condition": "Cerah Berawan",
        "temp_c": 33.5,
        "humidity_pct": 36.0,
        "heat_index_c": 33.58,
        "wind_kmh": 12.2,
        "wind_dir": 0.0,
        "cloud_pct": 45.0
      }
    },
    {
      "type": "Feature",
      "geometry": {
        "type": "Point",
        "coordinates": [
          104.500497222,
          -4.862591667
        ]
      },
      "properties": {
        "location_name": "PLTM Besai Kemu",
        "slug": "pltm_besai_kemu",
        "date": "Selasa, 15 September 2026",
        "date_iso": "2026-09-15",
        "relative": "Besok",
        "hour": "16:00",
        "rain_probability": 0,
        "risk_score": 96,
        "risk_class": "danger",
        "risk_label": "Berpotensi signifikan",
        "condition": "Cerah",
        "temp_c": 32.5,
        "humidity_pct": 41.0,
        "heat_index_c": 33.21,
        "wind_kmh": 12.4,
        "wind_dir": 0.0,
        "cloud_pct": 15.0
      }
    },
    {
      "type": "Feature",
      "geometry": {
        "type": "Point",
        "coordinates": [
          104.500497222,
          -4.862591667
        ]
      },
      "properties": {
        "location_name": "PLTM Besai Kemu",
        "slug": "pltm_besai_kemu",
        "date": "Selasa, 15 September 2026",
        "date_iso": "2026-09-15",
        "relative": "Besok",
        "hour": "17:00",
        "rain_probability": 0,
        "risk_score": 91,
        "risk_class": "danger",
        "risk_label": "Berpotensi signifikan",
        "condition": "Cerah",
        "temp_c": 31.2,
        "humidity_pct": 47.0,
        "heat_index_c": 32.36,
        "wind_kmh": 13.3,
        "wind_dir": 0.0,
        "cloud_pct": 15.0
      }
    },
    {
      "type": "Feature",
      "geometry": {
        "type": "Point",
        "coordinates": [
          104.500497222,
          -4.862591667
        ]
      },
      "properties": {
        "location_name": "PLTM Besai Kemu",
        "slug": "pltm_besai_kemu",
        "date": "Selasa, 15 September 2026",
        "date_iso": "2026-09-15",
        "relative": "Besok",
        "hour": "18:00",
        "rain_probability": 0,
        "risk_score": 79,
        "risk_class": "danger",
        "risk_label": "Berpotensi signifikan",
        "condition": "Cerah Berawan",
        "temp_c": 29.0,
        "humidity_pct": 54.0,
        "heat_index_c": 30.17,
        "wind_kmh": 12.3,
        "wind_dir": 0.0,
        "cloud_pct": 45.0
      }
    },
    {
      "type": "Feature",
      "geometry": {
        "type": "Point",
        "coordinates": [
          104.500497222,
          -4.862591667
        ]
      },
      "properties": {
        "location_name": "PLTM Besai Kemu",
        "slug": "pltm_besai_kemu",
        "date": "Selasa, 15 September 2026",
        "date_iso": "2026-09-15",
        "relative": "Besok",
        "hour": "19:00",
        "rain_probability": 14.5,
        "risk_score": 59,
        "risk_class": "rain",
        "risk_label": "Waspada",
        "condition": "Cerah Berawan",
        "temp_c": 27.6,
        "humidity_pct": 60.0,
        "heat_index_c": 28.88,
        "wind_kmh": 10.5,
        "wind_dir": 0.0,
        "cloud_pct": 45.0
      }
    },
    {
      "type": "Feature",
      "geometry": {
        "type": "Point",
        "coordinates": [
          104.500497222,
          -4.862591667
        ]
      },
      "properties": {
        "location_name": "PLTM Besai Kemu",
        "slug": "pltm_besai_kemu",
        "date": "Selasa, 15 September 2026",
        "date_iso": "2026-09-15",
        "relative": "Besok",
        "hour": "20:00",
        "rain_probability": 0,
        "risk_score": 54,
        "risk_class": "watch",
        "risk_label": "Perlu diperhatikan",
        "condition": "Cerah Berawan",
        "temp_c": 25.1,
        "humidity_pct": 74.0,
        "heat_index_c": 25.1,
        "wind_kmh": 7.3,
        "wind_dir": 0.0,
        "cloud_pct": 45.0
      }
    },
    {
      "type": "Feature",
      "geometry": {
        "type": "Point",
        "coordinates": [
          104.500497222,
          -4.862591667
        ]
      },
      "properties": {
        "location_name": "PLTM Besai Kemu",
        "slug": "pltm_besai_kemu",
        "date": "Selasa, 15 September 2026",
        "date_iso": "2026-09-15",
        "relative": "Besok",
        "hour": "21:00",
        "rain_probability": 0,
        "risk_score": 47,
        "risk_class": "watch",
        "risk_label": "Perlu diperhatikan",
        "condition": "Cerah Berawan",
        "temp_c": 24.5,
        "humidity_pct": 78.0,
        "heat_index_c": 24.5,
        "wind_kmh": 6.1,
        "wind_dir": 0.0,
        "cloud_pct": 45.0
      }
    },
    {
      "type": "Feature",
      "geometry": {
        "type": "Point",
        "coordinates": [
          104.500497222,
          -4.862591667
        ]
      },
      "properties": {
        "location_name": "PLTM Besai Kemu",
        "slug": "pltm_besai_kemu",
        "date": "Selasa, 15 September 2026",
        "date_iso": "2026-09-15",
        "relative": "Besok",
        "hour": "22:00",
        "rain_probability": 0,
        "risk_score": 44,
        "risk_class": "watch",
        "risk_label": "Perlu diperhatikan",
        "condition": "Cerah",
        "temp_c": 24.0,
        "humidity_pct": 83.0,
        "heat_index_c": 24.0,
        "wind_kmh": 6.7,
        "wind_dir": 0.0,
        "cloud_pct": 45.0
      }
    },
    {
      "type": "Feature",
      "geometry": {
        "type": "Point",
        "coordinates": [
          104.500497222,
          -4.862591667
        ]
      },
      "properties": {
        "location_name": "PLTM Besai Kemu",
        "slug": "pltm_besai_kemu",
        "date": "Selasa, 15 September 2026",
        "date_iso": "2026-09-15",
        "relative": "Besok",
        "hour": "23:00",
        "rain_probability": 0,
        "risk_score": 38,
        "risk_class": "watch",
        "risk_label": "Perlu diperhatikan",
        "condition": "Cerah Berawan",
        "temp_c": 23.5,
        "humidity_pct": 85.0,
        "heat_index_c": 23.5,
        "wind_kmh": 6.8,
        "wind_dir": 0.0,
        "cloud_pct": 45.0
      }
    },
    {
      "type": "Feature",
      "geometry": {
        "type": "Point",
        "coordinates": [
          104.500497222,
          -4.862591667
        ]
      },
      "properties": {
        "location_name": "PLTM Besai Kemu",
        "slug": "pltm_besai_kemu",
        "date": "Rabu, 16 September 2026",
        "date_iso": "2026-09-16",
        "relative": "Lusa",
        "hour": "00:00",
        "rain_probability": 0,
        "risk_score": 36,
        "risk_class": "watch",
        "risk_label": "Perlu diperhatikan",
        "condition": "Cerah Berawan",
        "temp_c": 23.0,
        "humidity_pct": 85.0,
        "heat_index_c": 23.0,
        "wind_kmh": 5.0,
        "wind_dir": 0.0,
        "cloud_pct": 45.0
      }
    },
    {
      "type": "Feature",
      "geometry": {
        "type": "Point",
        "coordinates": [
          104.500497222,
          -4.862591667
        ]
      },
      "properties": {
        "location_name": "PLTM Besai Kemu",
        "slug": "pltm_besai_kemu",
        "date": "Rabu, 16 September 2026",
        "date_iso": "2026-09-16",
        "relative": "Lusa",
        "hour": "01:00",
        "rain_probability": 0,
        "risk_score": 34,
        "risk_class": "watch",
        "risk_label": "Perlu diperhatikan",
        "condition": "Cerah Berawan",
        "temp_c": 22.6,
        "humidity_pct": 85.0,
        "heat_index_c": 22.6,
        "wind_kmh": 5.0,
        "wind_dir": 0.0,
        "cloud_pct": 45.0
      }
    },
    {
      "type": "Feature",
      "geometry": {
        "type": "Point",
        "coordinates": [
          104.500497222,
          -4.862591667
        ]
      },
      "properties": {
        "location_name": "PLTM Besai Kemu",
        "slug": "pltm_besai_kemu",
        "date": "Rabu, 16 September 2026",
        "date_iso": "2026-09-16",
        "relative": "Lusa",
        "hour": "02:00",
        "rain_probability": 0,
        "risk_score": 31,
        "risk_class": "watch",
        "risk_label": "Perlu diperhatikan",
        "condition": "Cerah Berawan",
        "temp_c": 22.3,
        "humidity_pct": 84.0,
        "heat_index_c": 22.3,
        "wind_kmh": 5.9,
        "wind_dir": 0.0,
        "cloud_pct": 45.0
      }
    },
    {
      "type": "Feature",
      "geometry": {
        "type": "Point",
        "coordinates": [
          104.500497222,
          -4.862591667
        ]
      },
      "properties": {
        "location_name": "PLTM Besai Kemu",
        "slug": "pltm_besai_kemu",
        "date": "Rabu, 16 September 2026",
        "date_iso": "2026-09-16",
        "relative": "Lusa",
        "hour": "03:00",
        "rain_probability": 0,
        "risk_score": 31,
        "risk_class": "watch",
        "risk_label": "Perlu diperhatikan",
        "condition": "Cerah",
        "temp_c": 22.2,
        "humidity_pct": 84.0,
        "heat_index_c": 22.2,
        "wind_kmh": 5.5,
        "wind_dir": 0.0,
        "cloud_pct": 45.0
      }
    },
    {
      "type": "Feature",
      "geometry": {
        "type": "Point",
        "coordinates": [
          104.500497222,
          -4.862591667
        ]
      },
      "properties": {
        "location_name": "PLTM Besai Kemu",
        "slug": "pltm_besai_kemu",
        "date": "Rabu, 16 September 2026",
        "date_iso": "2026-09-16",
        "relative": "Lusa",
        "hour": "04:00",
        "rain_probability": 0,
        "risk_score": 30,
        "risk_class": "watch",
        "risk_label": "Perlu diperhatikan",
        "condition": "Cerah",
        "temp_c": 22.1,
        "humidity_pct": 85.0,
        "heat_index_c": 22.1,
        "wind_kmh": 6.2,
        "wind_dir": 0.0,
        "cloud_pct": 15.0
      }
    },
    {
      "type": "Feature",
      "geometry": {
        "type": "Point",
        "coordinates": [
          104.500497222,
          -4.862591667
        ]
      },
      "properties": {
        "location_name": "PLTM Besai Kemu",
        "slug": "pltm_besai_kemu",
        "date": "Rabu, 16 September 2026",
        "date_iso": "2026-09-16",
        "relative": "Lusa",
        "hour": "05:00",
        "rain_probability": 0,
        "risk_score": 25,
        "risk_class": "watch",
        "risk_label": "Perlu diperhatikan",
        "condition": "Cerah",
        "temp_c": 21.9,
        "humidity_pct": 83.0,
        "heat_index_c": 21.9,
        "wind_kmh": 6.7,
        "wind_dir": 0.0,
        "cloud_pct": 15.0
      }
    },
    {
      "type": "Feature",
      "geometry": {
        "type": "Point",
        "coordinates": [
          104.500497222,
          -4.862591667
        ]
      },
      "properties": {
        "location_name": "PLTM Besai Kemu",
        "slug": "pltm_besai_kemu",
        "date": "Rabu, 16 September 2026",
        "date_iso": "2026-09-16",
        "relative": "Lusa",
        "hour": "06:00",
        "rain_probability": 0,
        "risk_score": 21,
        "risk_class": "safe",
        "risk_label": "Aman",
        "condition": "Cerah Berawan",
        "temp_c": 21.9,
        "humidity_pct": 82.0,
        "heat_index_c": 21.9,
        "wind_kmh": 6.7,
        "wind_dir": 0.0,
        "cloud_pct": 45.0
      }
    },
    {
      "type": "Feature",
      "geometry": {
        "type": "Point",
        "coordinates": [
          104.500497222,
          -4.862591667
        ]
      },
      "properties": {
        "location_name": "PLTM Besai Kemu",
        "slug": "pltm_besai_kemu",
        "date": "Rabu, 16 September 2026",
        "date_iso": "2026-09-16",
        "relative": "Lusa",
        "hour": "07:00",
        "rain_probability": 0,
        "risk_score": 20,
        "risk_class": "safe",
        "risk_label": "Aman",
        "condition": "Cerah Berawan",
        "temp_c": 23.7,
        "humidity_pct": 69.0,
        "heat_index_c": 23.7,
        "wind_kmh": 5.2,
        "wind_dir": 0.0,
        "cloud_pct": 45.0
      }
    },
    {
      "type": "Feature",
      "geometry": {
        "type": "Point",
        "coordinates": [
          104.500497222,
          -4.862591667
        ]
      },
      "properties": {
        "location_name": "PLTM Besai Kemu",
        "slug": "pltm_besai_kemu",
        "date": "Rabu, 16 September 2026",
        "date_iso": "2026-09-16",
        "relative": "Lusa",
        "hour": "08:00",
        "rain_probability": 0,
        "risk_score": 27,
        "risk_class": "watch",
        "risk_label": "Perlu diperhatikan",
        "condition": "Cerah",
        "temp_c": 27.9,
        "humidity_pct": 57.0,
        "heat_index_c": 28.81,
        "wind_kmh": 4.5,
        "wind_dir": 0.0,
        "cloud_pct": 45.0
      }
    },
    {
      "type": "Feature",
      "geometry": {
        "type": "Point",
        "coordinates": [
          104.500497222,
          -4.862591667
        ]
      },
      "properties": {
        "location_name": "PLTM Besai Kemu",
        "slug": "pltm_besai_kemu",
        "date": "Rabu, 16 September 2026",
        "date_iso": "2026-09-16",
        "relative": "Lusa",
        "hour": "09:00",
        "rain_probability": 0,
        "risk_score": 47,
        "risk_class": "watch",
        "risk_label": "Perlu diperhatikan",
        "condition": "Cerah",
        "temp_c": 28.2,
        "humidity_pct": 52.0,
        "heat_index_c": 29.18,
        "wind_kmh": 5.4,
        "wind_dir": 0.0,
        "cloud_pct": 15.0
      }
    },
    {
      "type": "Feature",
      "geometry": {
        "type": "Point",
        "coordinates": [
          104.500497222,
          -4.862591667
        ]
      },
      "properties": {
        "location_name": "PLTM Besai Kemu",
        "slug": "pltm_besai_kemu",
        "date": "Rabu, 16 September 2026",
        "date_iso": "2026-09-16",
        "relative": "Lusa",
        "hour": "10:00",
        "rain_probability": 0,
        "risk_score": 62,
        "risk_class": "rain",
        "risk_label": "Waspada",
        "condition": "Cerah Berawan",
        "temp_c": 31.0,
        "humidity_pct": 43.0,
        "heat_index_c": 31.37,
        "wind_kmh": 10.3,
        "wind_dir": 0.0,
        "cloud_pct": 45.0
      }
    },
    {
      "type": "Feature",
      "geometry": {
        "type": "Point",
        "coordinates": [
          104.500497222,
          -4.862591667
        ]
      },
      "properties": {
        "location_name": "PLTM Besai Kemu",
        "slug": "pltm_besai_kemu",
        "date": "Rabu, 16 September 2026",
        "date_iso": "2026-09-16",
        "relative": "Lusa",
        "hour": "11:00",
        "rain_probability": 0,
        "risk_score": 77,
        "risk_class": "rain",
        "risk_label": "Waspada",
        "condition": "Cerah Berawan",
        "temp_c": 31.6,
        "humidity_pct": 39.0,
        "heat_index_c": 31.88,
        "wind_kmh": 10.7,
        "wind_dir": 0.0,
        "cloud_pct": 45.0
      }
    },
    {
      "type": "Feature",
      "geometry": {
        "type": "Point",
        "coordinates": [
          104.500497222,
          -4.862591667
        ]
      },
      "properties": {
        "location_name": "PLTM Besai Kemu",
        "slug": "pltm_besai_kemu",
        "date": "Rabu, 16 September 2026",
        "date_iso": "2026-09-16",
        "relative": "Lusa",
        "hour": "12:00",
        "rain_probability": 0,
        "risk_score": 88,
        "risk_class": "danger",
        "risk_label": "Berpotensi signifikan",
        "condition": "Cerah Berawan",
        "temp_c": 33.1,
        "humidity_pct": 36.0,
        "heat_index_c": 33.1,
        "wind_kmh": 11.3,
        "wind_dir": 0.0,
        "cloud_pct": 45.0
      }
    },
    {
      "type": "Feature",
      "geometry": {
        "type": "Point",
        "coordinates": [
          104.500497222,
          -4.862591667
        ]
      },
      "properties": {
        "location_name": "PLTM Besai Kemu",
        "slug": "pltm_besai_kemu",
        "date": "Rabu, 16 September 2026",
        "date_iso": "2026-09-16",
        "relative": "Lusa",
        "hour": "13:00",
        "rain_probability": 0,
        "risk_score": 98,
        "risk_class": "danger",
        "risk_label": "Berpotensi signifikan",
        "condition": "Cerah Berawan",
        "temp_c": 33.8,
        "humidity_pct": 35.0,
        "heat_index_c": 33.8,
        "wind_kmh": 11.9,
        "wind_dir": 0.0,
        "cloud_pct": 45.0
      }
    },
    {
      "type": "Feature",
      "geometry": {
        "type": "Point",
        "coordinates": [
          104.500497222,
          -4.862591667
        ]
      },
      "properties": {
        "location_name": "PLTM Besai Kemu",
        "slug": "pltm_besai_kemu",
        "date": "Rabu, 16 September 2026",
        "date_iso": "2026-09-16",
        "relative": "Lusa",
        "hour": "14:00",
        "rain_probability": 0,
        "risk_score": 100,
        "risk_class": "danger",
        "risk_label": "Berpotensi signifikan",
        "condition": "Cerah Berawan",
        "temp_c": 33.5,
        "humidity_pct": 37.0,
        "heat_index_c": 33.5,
        "wind_kmh": 12.2,
        "wind_dir": 0.0,
        "cloud_pct": 45.0
      }
    },
    {
      "type": "Feature",
      "geometry": {
        "type": "Point",
        "coordinates": [
          104.500497222,
          -4.862591667
        ]
      },
      "properties": {
        "location_name": "PLTM Besai Kemu",
        "slug": "pltm_besai_kemu",
        "date": "Rabu, 16 September 2026",
        "date_iso": "2026-09-16",
        "relative": "Lusa",
        "hour": "15:00",
        "rain_probability": 0,
        "risk_score": 94,
        "risk_class": "danger",
        "risk_label": "Berpotensi signifikan",
        "condition": "Cerah Berawan",
        "temp_c": 33.3,
        "humidity_pct": 37.0,
        "heat_index_c": 33.47,
        "wind_kmh": 10.5,
        "wind_dir": 0.0,
        "cloud_pct": 45.0
      }
    },
    {
      "type": "Feature",
      "geometry": {
        "type": "Point",
        "coordinates": [
          104.500497222,
          -4.862591667
        ]
      },
      "properties": {
        "location_name": "PLTM Besai Kemu",
        "slug": "pltm_besai_kemu",
        "date": "Rabu, 16 September 2026",
        "date_iso": "2026-09-16",
        "relative": "Lusa",
        "hour": "16:00",
        "rain_probability": 0,
        "risk_score": 92,
        "risk_class": "danger",
        "risk_label": "Berpotensi signifikan",
        "condition": "Cerah Berawan",
        "temp_c": 32.9,
        "humidity_pct": 38.0,
        "heat_index_c": 33.04,
        "wind_kmh": 10.1,
        "wind_dir": 0.0,
        "cloud_pct": 45.0
      }
    },
    {
      "type": "Feature",
      "geometry": {
        "type": "Point",
        "coordinates": [
          104.500497222,
          -4.862591667
        ]
      },
      "properties": {
        "location_name": "PLTM Besai Kemu",
        "slug": "pltm_besai_kemu",
        "date": "Rabu, 16 September 2026",
        "date_iso": "2026-09-16",
        "relative": "Lusa",
        "hour": "17:00",
        "rain_probability": 0,
        "risk_score": 86,
        "risk_class": "danger",
        "risk_label": "Berpotensi signifikan",
        "condition": "Cerah Berawan",
        "temp_c": 30.9,
        "humidity_pct": 46.0,
        "heat_index_c": 31.9,
        "wind_kmh": 12.7,
        "wind_dir": 0.0,
        "cloud_pct": 45.0
      }
    },
    {
      "type": "Feature",
      "geometry": {
        "type": "Point",
        "coordinates": [
          104.500497222,
          -4.862591667
        ]
      },
      "properties": {
        "location_name": "PLTM Besai Kemu",
        "slug": "pltm_besai_kemu",
        "date": "Rabu, 16 September 2026",
        "date_iso": "2026-09-16",
        "relative": "Lusa",
        "hour": "18:00",
        "rain_probability": 14.4,
        "risk_score": 76,
        "risk_class": "rain",
        "risk_label": "Waspada",
        "condition": "Cerah Berawan",
        "temp_c": 29.6,
        "humidity_pct": 47.0,
        "heat_index_c": 30.08,
        "wind_kmh": 8.6,
        "wind_dir": 0.0,
        "cloud_pct": 45.0
      }
    },
    {
      "type": "Feature",
      "geometry": {
        "type": "Point",
        "coordinates": [
          104.500497222,
          -4.862591667
        ]
      },
      "properties": {
        "location_name": "PLTM Besai Kemu",
        "slug": "pltm_besai_kemu",
        "date": "Rabu, 16 September 2026",
        "date_iso": "2026-09-16",
        "relative": "Lusa",
        "hour": "19:00",
        "rain_probability": 14.4,
        "risk_score": 63,
        "risk_class": "rain",
        "risk_label": "Waspada",
        "condition": "Cerah Berawan",
        "temp_c": 28.3,
        "humidity_pct": 53.0,
        "heat_index_c": 29.1,
        "wind_kmh": 10.6,
        "wind_dir": 0.0,
        "cloud_pct": 45.0
      }
    },
    {
      "type": "Feature",
      "geometry": {
        "type": "Point",
        "coordinates": [
          104.500497222,
          -4.862591667
        ]
      },
      "properties": {
        "location_name": "PLTM Besai Kemu",
        "slug": "pltm_besai_kemu",
        "date": "Rabu, 16 September 2026",
        "date_iso": "2026-09-16",
        "relative": "Lusa",
        "hour": "20:00",
        "rain_probability": 27.7,
        "risk_score": 59,
        "risk_class": "rain",
        "risk_label": "Waspada",
        "condition": "Cerah Berawan",
        "temp_c": 26.7,
        "humidity_pct": 67.0,
        "heat_index_c": 28.16,
        "wind_kmh": 8.5,
        "wind_dir": 0.0,
        "cloud_pct": 45.0
      }
    },
    {
      "type": "Feature",
      "geometry": {
        "type": "Point",
        "coordinates": [
          104.500497222,
          -4.862591667
        ]
      },
      "properties": {
        "location_name": "PLTM Besai Kemu",
        "slug": "pltm_besai_kemu",
        "date": "Rabu, 16 September 2026",
        "date_iso": "2026-09-16",
        "relative": "Lusa",
        "hour": "21:00",
        "rain_probability": 14.4,
        "risk_score": 52,
        "risk_class": "watch",
        "risk_label": "Perlu diperhatikan",
        "condition": "Cerah Berawan",
        "temp_c": 25.1,
        "humidity_pct": 68.0,
        "heat_index_c": 25.1,
        "wind_kmh": 6.0,
        "wind_dir": 0.0,
        "cloud_pct": 45.0
      }
    },
    {
      "type": "Feature",
      "geometry": {
        "type": "Point",
        "coordinates": [
          104.500497222,
          -4.862591667
        ]
      },
      "properties": {
        "location_name": "PLTM Besai Kemu",
        "slug": "pltm_besai_kemu",
        "date": "Rabu, 16 September 2026",
        "date_iso": "2026-09-16",
        "relative": "Lusa",
        "hour": "22:00",
        "rain_probability": 14.4,
        "risk_score": 48,
        "risk_class": "watch",
        "risk_label": "Perlu diperhatikan",
        "condition": "Cerah",
        "temp_c": 23.9,
        "humidity_pct": 81.0,
        "heat_index_c": 23.9,
        "wind_kmh": 7.1,
        "wind_dir": 0.0,
        "cloud_pct": 15.0
      }
    },
    {
      "type": "Feature",
      "geometry": {
        "type": "Point",
        "coordinates": [
          104.500497222,
          -4.862591667
        ]
      },
      "properties": {
        "location_name": "PLTM Besai Kemu",
        "slug": "pltm_besai_kemu",
        "date": "Rabu, 16 September 2026",
        "date_iso": "2026-09-16",
        "relative": "Lusa",
        "hour": "23:00",
        "rain_probability": 0,
        "risk_score": 42,
        "risk_class": "watch",
        "risk_label": "Perlu diperhatikan",
        "condition": "Cerah",
        "temp_c": 24.0,
        "humidity_pct": 81.0,
        "heat_index_c": 24.0,
        "wind_kmh": 5.9,
        "wind_dir": 0.0,
        "cloud_pct": 15.0
      }
    }
  ]
}