{
  "type": "FeatureCollection",
  "features": [
    {
      "type": "Feature",
      "geometry": {
        "type": "Point",
        "coordinates": [
          96.877105410688,
          4.81572033808049
        ]
      },
      "properties": {
        "location_name": "GPM1",
        "slug": "gpm1",
        "date": "Kamis, 27 Agustus 2026",
        "date_iso": "2026-08-27",
        "relative": "Hari ini",
        "hour": "00:00",
        "rain_probability": 0,
        "risk_score": 22,
        "risk_class": "safe",
        "risk_label": "Aman",
        "condition": "Berawan",
        "temp_c": 11.6,
        "humidity_pct": 90.0,
        "heat_index_c": 11.6,
        "wind_kmh": 5.4,
        "wind_dir": 0.0,
        "cloud_pct": 45.0
      }
    },
    {
      "type": "Feature",
      "geometry": {
        "type": "Point",
        "coordinates": [
          96.877105410688,
          4.81572033808049
        ]
      },
      "properties": {
        "location_name": "GPM1",
        "slug": "gpm1",
        "date": "Kamis, 27 Agustus 2026",
        "date_iso": "2026-08-27",
        "relative": "Hari ini",
        "hour": "01:00",
        "rain_probability": 0,
        "risk_score": 24,
        "risk_class": "safe",
        "risk_label": "Aman",
        "condition": "Berawan",
        "temp_c": 11.4,
        "humidity_pct": 84.0,
        "heat_index_c": 11.4,
        "wind_kmh": 6.4,
        "wind_dir": 0.0,
        "cloud_pct": 75.0
      }
    },
    {
      "type": "Feature",
      "geometry": {
        "type": "Point",
        "coordinates": [
          96.877105410688,
          4.81572033808049
        ]
      },
      "properties": {
        "location_name": "GPM1",
        "slug": "gpm1",
        "date": "Kamis, 27 Agustus 2026",
        "date_iso": "2026-08-27",
        "relative": "Hari ini",
        "hour": "02:00",
        "rain_probability": 0,
        "risk_score": 23,
        "risk_class": "safe",
        "risk_label": "Aman",
        "condition": "Berawan",
        "temp_c": 11.5,
        "humidity_pct": 78.0,
        "heat_index_c": 11.5,
        "wind_kmh": 5.8,
        "wind_dir": 0.0,
        "cloud_pct": 75.0
      }
    },
    {
      "type": "Feature",
      "geometry": {
        "type": "Point",
        "coordinates": [
          96.877105410688,
          4.81572033808049
        ]
      },
      "properties": {
        "location_name": "GPM1",
        "slug": "gpm1",
        "date": "Kamis, 27 Agustus 2026",
        "date_iso": "2026-08-27",
        "relative": "Hari ini",
        "hour": "03:00",
        "rain_probability": 0,
        "risk_score": 20,
        "risk_class": "safe",
        "risk_label": "Aman",
        "condition": "Berawan",
        "temp_c": 11.2,
        "humidity_pct": 77.0,
        "heat_index_c": 11.2,
        "wind_kmh": 6.7,
        "wind_dir": 0.0,
        "cloud_pct": 45.0
      }
    },
    {
      "type": "Feature",
      "geometry": {
        "type": "Point",
        "coordinates": [
          96.877105410688,
          4.81572033808049
        ]
      },
      "properties": {
        "location_name": "GPM1",
        "slug": "gpm1",
        "date": "Kamis, 27 Agustus 2026",
        "date_iso": "2026-08-27",
        "relative": "Hari ini",
        "hour": "04:00",
        "rain_probability": 0,
        "risk_score": 20,
        "risk_class": "safe",
        "risk_label": "Aman",
        "condition": "Cerah Berawan",
        "temp_c": 10.6,
        "humidity_pct": 75.0,
        "heat_index_c": 10.6,
        "wind_kmh": 6.8,
        "wind_dir": 0.0,
        "cloud_pct": 45.0
      }
    },
    {
      "type": "Feature",
      "geometry": {
        "type": "Point",
        "coordinates": [
          96.877105410688,
          4.81572033808049
        ]
      },
      "properties": {
        "location_name": "GPM1",
        "slug": "gpm1",
        "date": "Kamis, 27 Agustus 2026",
        "date_iso": "2026-08-27",
        "relative": "Hari ini",
        "hour": "05:00",
        "rain_probability": 0,
        "risk_score": 20,
        "risk_class": "safe",
        "risk_label": "Aman",
        "condition": "Cerah Berawan",
        "temp_c": 9.9,
        "humidity_pct": 73.0,
        "heat_index_c": 9.9,
        "wind_kmh": 6.5,
        "wind_dir": 0.0,
        "cloud_pct": 45.0
      }
    },
    {
      "type": "Feature",
      "geometry": {
        "type": "Point",
        "coordinates": [
          96.877105410688,
          4.81572033808049
        ]
      },
      "properties": {
        "location_name": "GPM1",
        "slug": "gpm1",
        "date": "Kamis, 27 Agustus 2026",
        "date_iso": "2026-08-27",
        "relative": "Hari ini",
        "hour": "06:00",
        "rain_probability": 0,
        "risk_score": 22,
        "risk_class": "safe",
        "risk_label": "Aman",
        "condition": "Cerah Berawan",
        "temp_c": 9.7,
        "humidity_pct": 70.0,
        "heat_index_c": 9.7,
        "wind_kmh": 6.8,
        "wind_dir": 0.0,
        "cloud_pct": 45.0
      }
    },
    {
      "type": "Feature",
      "geometry": {
        "type": "Point",
        "coordinates": [
          96.877105410688,
          4.81572033808049
        ]
      },
      "properties": {
        "location_name": "GPM1",
        "slug": "gpm1",
        "date": "Kamis, 27 Agustus 2026",
        "date_iso": "2026-08-27",
        "relative": "Hari ini",
        "hour": "07:00",
        "rain_probability": 0,
        "risk_score": 21,
        "risk_class": "safe",
        "risk_label": "Aman",
        "condition": "Cerah Berawan",
        "temp_c": 10.4,
        "humidity_pct": 69.0,
        "heat_index_c": 10.4,
        "wind_kmh": 6.5,
        "wind_dir": 0.0,
        "cloud_pct": 45.0
      }
    },
    {
      "type": "Feature",
      "geometry": {
        "type": "Point",
        "coordinates": [
          96.877105410688,
          4.81572033808049
        ]
      },
      "properties": {
        "location_name": "GPM1",
        "slug": "gpm1",
        "date": "Kamis, 27 Agustus 2026",
        "date_iso": "2026-08-27",
        "relative": "Hari ini",
        "hour": "08:00",
        "rain_probability": 0,
        "risk_score": 20,
        "risk_class": "safe",
        "risk_label": "Aman",
        "condition": "Cerah",
        "temp_c": 13.5,
        "humidity_pct": 72.0,
        "heat_index_c": 13.5,
        "wind_kmh": 4.9,
        "wind_dir": 0.0,
        "cloud_pct": 15.0
      }
    },
    {
      "type": "Feature",
      "geometry": {
        "type": "Point",
        "coordinates": [
          96.877105410688,
          4.81572033808049
        ]
      },
      "properties": {
        "location_name": "GPM1",
        "slug": "gpm1",
        "date": "Kamis, 27 Agustus 2026",
        "date_iso": "2026-08-27",
        "relative": "Hari ini",
        "hour": "09:00",
        "rain_probability": 0,
        "risk_score": 29,
        "risk_class": "watch",
        "risk_label": "Perlu diperhatikan",
        "condition": "Cerah",
        "temp_c": 17.5,
        "humidity_pct": 57.0,
        "heat_index_c": 17.5,
        "wind_kmh": 3.9,
        "wind_dir": 0.0,
        "cloud_pct": 15.0
      }
    },
    {
      "type": "Feature",
      "geometry": {
        "type": "Point",
        "coordinates": [
          96.877105410688,
          4.81572033808049
        ]
      },
      "properties": {
        "location_name": "GPM1",
        "slug": "gpm1",
        "date": "Kamis, 27 Agustus 2026",
        "date_iso": "2026-08-27",
        "relative": "Hari ini",
        "hour": "10:00",
        "rain_probability": 0,
        "risk_score": 29,
        "risk_class": "watch",
        "risk_label": "Perlu diperhatikan",
        "condition": "Cerah",
        "temp_c": 19.8,
        "humidity_pct": 53.0,
        "heat_index_c": 19.8,
        "wind_kmh": 3.3,
        "wind_dir": 0.0,
        "cloud_pct": 15.0
      }
    },
    {
      "type": "Feature",
      "geometry": {
        "type": "Point",
        "coordinates": [
          96.877105410688,
          4.81572033808049
        ]
      },
      "properties": {
        "location_name": "GPM1",
        "slug": "gpm1",
        "date": "Kamis, 27 Agustus 2026",
        "date_iso": "2026-08-27",
        "relative": "Hari ini",
        "hour": "11:00",
        "rain_probability": 0,
        "risk_score": 29,
        "risk_class": "watch",
        "risk_label": "Perlu diperhatikan",
        "condition": "Cerah",
        "temp_c": 21.5,
        "humidity_pct": 50.0,
        "heat_index_c": 21.5,
        "wind_kmh": 3.6,
        "wind_dir": 0.0,
        "cloud_pct": 15.0
      }
    },
    {
      "type": "Feature",
      "geometry": {
        "type": "Point",
        "coordinates": [
          96.877105410688,
          4.81572033808049
        ]
      },
      "properties": {
        "location_name": "GPM1",
        "slug": "gpm1",
        "date": "Kamis, 27 Agustus 2026",
        "date_iso": "2026-08-27",
        "relative": "Hari ini",
        "hour": "12:00",
        "rain_probability": 0,
        "risk_score": 29,
        "risk_class": "watch",
        "risk_label": "Perlu diperhatikan",
        "condition": "Cerah",
        "temp_c": 22.4,
        "humidity_pct": 48.0,
        "heat_index_c": 22.4,
        "wind_kmh": 6.1,
        "wind_dir": 0.0,
        "cloud_pct": 15.0
      }
    },
    {
      "type": "Feature",
      "geometry": {
        "type": "Point",
        "coordinates": [
          96.877105410688,
          4.81572033808049
        ]
      },
      "properties": {
        "location_name": "GPM1",
        "slug": "gpm1",
        "date": "Kamis, 27 Agustus 2026",
        "date_iso": "2026-08-27",
        "relative": "Hari ini",
        "hour": "13:00",
        "rain_probability": 0,
        "risk_score": 29,
        "risk_class": "watch",
        "risk_label": "Perlu diperhatikan",
        "condition": "Cerah",
        "temp_c": 22.7,
        "humidity_pct": 48.0,
        "heat_index_c": 22.7,
        "wind_kmh": 6.5,
        "wind_dir": 0.0,
        "cloud_pct": 15.0
      }
    },
    {
      "type": "Feature",
      "geometry": {
        "type": "Point",
        "coordinates": [
          96.877105410688,
          4.81572033808049
        ]
      },
      "properties": {
        "location_name": "GPM1",
        "slug": "gpm1",
        "date": "Kamis, 27 Agustus 2026",
        "date_iso": "2026-08-27",
        "relative": "Hari ini",
        "hour": "14:00",
        "rain_probability": 27.9,
        "risk_score": 32,
        "risk_class": "watch",
        "risk_label": "Perlu diperhatikan",
        "condition": "Cerah Berawan",
        "temp_c": 22.3,
        "humidity_pct": 52.0,
        "heat_index_c": 22.3,
        "wind_kmh": 5.8,
        "wind_dir": 0.0,
        "cloud_pct": 45.0
      }
    },
    {
      "type": "Feature",
      "geometry": {
        "type": "Point",
        "coordinates": [
          96.877105410688,
          4.81572033808049
        ]
      },
      "properties": {
        "location_name": "GPM1",
        "slug": "gpm1",
        "date": "Kamis, 27 Agustus 2026",
        "date_iso": "2026-08-27",
        "relative": "Hari ini",
        "hour": "15:00",
        "rain_probability": 31.0,
        "risk_score": 35,
        "risk_class": "watch",
        "risk_label": "Perlu diperhatikan",
        "condition": "Cerah Berawan",
        "temp_c": 21.5,
        "humidity_pct": 58.0,
        "heat_index_c": 21.5,
        "wind_kmh": 7.9,
        "wind_dir": 0.0,
        "cloud_pct": 45.0
      }
    },
    {
      "type": "Feature",
      "geometry": {
        "type": "Point",
        "coordinates": [
          96.877105410688,
          4.81572033808049
        ]
      },
      "properties": {
        "location_name": "GPM1",
        "slug": "gpm1",
        "date": "Kamis, 27 Agustus 2026",
        "date_iso": "2026-08-27",
        "relative": "Hari ini",
        "hour": "16:00",
        "rain_probability": 42.3,
        "risk_score": 42,
        "risk_class": "watch",
        "risk_label": "Perlu diperhatikan",
        "condition": "Cerah Berawan",
        "temp_c": 20.1,
        "humidity_pct": 65.0,
        "heat_index_c": 20.1,
        "wind_kmh": 9.7,
        "wind_dir": 0.0,
        "cloud_pct": 45.0
      }
    },
    {
      "type": "Feature",
      "geometry": {
        "type": "Point",
        "coordinates": [
          96.877105410688,
          4.81572033808049
        ]
      },
      "properties": {
        "location_name": "GPM1",
        "slug": "gpm1",
        "date": "Kamis, 27 Agustus 2026",
        "date_iso": "2026-08-27",
        "relative": "Hari ini",
        "hour": "17:00",
        "rain_probability": 28.8,
        "risk_score": 32,
        "risk_class": "watch",
        "risk_label": "Perlu diperhatikan",
        "condition": "Cerah Berawan",
        "temp_c": 18.0,
        "humidity_pct": 72.0,
        "heat_index_c": 18.0,
        "wind_kmh": 7.6,
        "wind_dir": 0.0,
        "cloud_pct": 45.0
      }
    },
    {
      "type": "Feature",
      "geometry": {
        "type": "Point",
        "coordinates": [
          96.877105410688,
          4.81572033808049
        ]
      },
      "properties": {
        "location_name": "GPM1",
        "slug": "gpm1",
        "date": "Kamis, 27 Agustus 2026",
        "date_iso": "2026-08-27",
        "relative": "Hari ini",
        "hour": "18:00",
        "rain_probability": 27.6,
        "risk_score": 34,
        "risk_class": "watch",
        "risk_label": "Perlu diperhatikan",
        "condition": "Cerah",
        "temp_c": 16.2,
        "humidity_pct": 82.0,
        "heat_index_c": 16.2,
        "wind_kmh": 4.4,
        "wind_dir": 0.0,
        "cloud_pct": 45.0
      }
    },
    {
      "type": "Feature",
      "geometry": {
        "type": "Point",
        "coordinates": [
          96.877105410688,
          4.81572033808049
        ]
      },
      "properties": {
        "location_name": "GPM1",
        "slug": "gpm1",
        "date": "Kamis, 27 Agustus 2026",
        "date_iso": "2026-08-27",
        "relative": "Hari ini",
        "hour": "19:00",
        "rain_probability": 28.8,
        "risk_score": 37,
        "risk_class": "watch",
        "risk_label": "Perlu diperhatikan",
        "condition": "Hujan Ringan",
        "temp_c": 14.7,
        "humidity_pct": 92.0,
        "heat_index_c": 14.7,
        "wind_kmh": 4.0,
        "wind_dir": 0.0,
        "cloud_pct": 75.0
      }
    },
    {
      "type": "Feature",
      "geometry": {
        "type": "Point",
        "coordinates": [
          96.877105410688,
          4.81572033808049
        ]
      },
      "properties": {
        "location_name": "GPM1",
        "slug": "gpm1",
        "date": "Kamis, 27 Agustus 2026",
        "date_iso": "2026-08-27",
        "relative": "Hari ini",
        "hour": "20:00",
        "rain_probability": 14.4,
        "risk_score": 28,
        "risk_class": "watch",
        "risk_label": "Perlu diperhatikan",
        "condition": "Cerah Berawan",
        "temp_c": 13.7,
        "humidity_pct": 93.0,
        "heat_index_c": 13.7,
        "wind_kmh": 5.5,
        "wind_dir": 0.0,
        "cloud_pct": 45.0
      }
    },
    {
      "type": "Feature",
      "geometry": {
        "type": "Point",
        "coordinates": [
          96.877105410688,
          4.81572033808049
        ]
      },
      "properties": {
        "location_name": "GPM1",
        "slug": "gpm1",
        "date": "Kamis, 27 Agustus 2026",
        "date_iso": "2026-08-27",
        "relative": "Hari ini",
        "hour": "21:00",
        "rain_probability": 0,
        "risk_score": 23,
        "risk_class": "safe",
        "risk_label": "Aman",
        "condition": "Cerah Berawan",
        "temp_c": 12.9,
        "humidity_pct": 93.0,
        "heat_index_c": 12.9,
        "wind_kmh": 5.9,
        "wind_dir": 0.0,
        "cloud_pct": 45.0
      }
    },
    {
      "type": "Feature",
      "geometry": {
        "type": "Point",
        "coordinates": [
          96.877105410688,
          4.81572033808049
        ]
      },
      "properties": {
        "location_name": "GPM1",
        "slug": "gpm1",
        "date": "Kamis, 27 Agustus 2026",
        "date_iso": "2026-08-27",
        "relative": "Hari ini",
        "hour": "22:00",
        "rain_probability": 0,
        "risk_score": 23,
        "risk_class": "safe",
        "risk_label": "Aman",
        "condition": "Cerah Berawan",
        "temp_c": 12.3,
        "humidity_pct": 93.0,
        "heat_index_c": 12.3,
        "wind_kmh": 6.0,
        "wind_dir": 0.0,
        "cloud_pct": 45.0
      }
    },
    {
      "type": "Feature",
      "geometry": {
        "type": "Point",
        "coordinates": [
          96.877105410688,
          4.81572033808049
        ]
      },
      "properties": {
        "location_name": "GPM1",
        "slug": "gpm1",
        "date": "Kamis, 27 Agustus 2026",
        "date_iso": "2026-08-27",
        "relative": "Hari ini",
        "hour": "23:00",
        "rain_probability": 0,
        "risk_score": 22,
        "risk_class": "safe",
        "risk_label": "Aman",
        "condition": "Berawan",
        "temp_c": 12.0,
        "humidity_pct": 89.0,
        "heat_index_c": 12.0,
        "wind_kmh": 6.7,
        "wind_dir": 0.0,
        "cloud_pct": 45.0
      }
    },
    {
      "type": "Feature",
      "geometry": {
        "type": "Point",
        "coordinates": [
          96.877105410688,
          4.81572033808049
        ]
      },
      "properties": {
        "location_name": "GPM1",
        "slug": "gpm1",
        "date": "Jumat, 28 Agustus 2026",
        "date_iso": "2026-08-28",
        "relative": "Besok",
        "hour": "00:00",
        "rain_probability": 0,
        "risk_score": 21,
        "risk_class": "safe",
        "risk_label": "Aman",
        "condition": "Cerah",
        "temp_c": 12.0,
        "humidity_pct": 83.0,
        "heat_index_c": 12.0,
        "wind_kmh": 6.7,
        "wind_dir": 0.0,
        "cloud_pct": 45.0
      }
    },
    {
      "type": "Feature",
      "geometry": {
        "type": "Point",
        "coordinates": [
          96.877105410688,
          4.81572033808049
        ]
      },
      "properties": {
        "location_name": "GPM1",
        "slug": "gpm1",
        "date": "Jumat, 28 Agustus 2026",
        "date_iso": "2026-08-28",
        "relative": "Besok",
        "hour": "01:00",
        "rain_probability": 0,
        "risk_score": 21,
        "risk_class": "safe",
        "risk_label": "Aman",
        "condition": "Cerah",
        "temp_c": 11.8,
        "humidity_pct": 82.0,
        "heat_index_c": 11.8,
        "wind_kmh": 6.9,
        "wind_dir": 0.0,
        "cloud_pct": 45.0
      }
    },
    {
      "type": "Feature",
      "geometry": {
        "type": "Point",
        "coordinates": [
          96.877105410688,
          4.81572033808049
        ]
      },
      "properties": {
        "location_name": "GPM1",
        "slug": "gpm1",
        "date": "Jumat, 28 Agustus 2026",
        "date_iso": "2026-08-28",
        "relative": "Besok",
        "hour": "02:00",
        "rain_probability": 0,
        "risk_score": 22,
        "risk_class": "safe",
        "risk_label": "Aman",
        "condition": "Cerah Berawan",
        "temp_c": 11.5,
        "humidity_pct": 81.0,
        "heat_index_c": 11.5,
        "wind_kmh": 6.9,
        "wind_dir": 0.0,
        "cloud_pct": 45.0
      }
    },
    {
      "type": "Feature",
      "geometry": {
        "type": "Point",
        "coordinates": [
          96.877105410688,
          4.81572033808049
        ]
      },
      "properties": {
        "location_name": "GPM1",
        "slug": "gpm1",
        "date": "Jumat, 28 Agustus 2026",
        "date_iso": "2026-08-28",
        "relative": "Besok",
        "hour": "03:00",
        "rain_probability": 0,
        "risk_score": 24,
        "risk_class": "safe",
        "risk_label": "Aman",
        "condition": "Berawan",
        "temp_c": 11.2,
        "humidity_pct": 81.0,
        "heat_index_c": 11.2,
        "wind_kmh": 6.6,
        "wind_dir": 0.0,
        "cloud_pct": 75.0
      }
    },
    {
      "type": "Feature",
      "geometry": {
        "type": "Point",
        "coordinates": [
          96.877105410688,
          4.81572033808049
        ]
      },
      "properties": {
        "location_name": "GPM1",
        "slug": "gpm1",
        "date": "Jumat, 28 Agustus 2026",
        "date_iso": "2026-08-28",
        "relative": "Besok",
        "hour": "04:00",
        "rain_probability": 0,
        "risk_score": 24,
        "risk_class": "safe",
        "risk_label": "Aman",
        "condition": "Berawan",
        "temp_c": 11.1,
        "humidity_pct": 80.0,
        "heat_index_c": 11.1,
        "wind_kmh": 5.8,
        "wind_dir": 0.0,
        "cloud_pct": 75.0
      }
    },
    {
      "type": "Feature",
      "geometry": {
        "type": "Point",
        "coordinates": [
          96.877105410688,
          4.81572033808049
        ]
      },
      "properties": {
        "location_name": "GPM1",
        "slug": "gpm1",
        "date": "Jumat, 28 Agustus 2026",
        "date_iso": "2026-08-28",
        "relative": "Besok",
        "hour": "05:00",
        "rain_probability": 0,
        "risk_score": 23,
        "risk_class": "safe",
        "risk_label": "Aman",
        "condition": "Berawan",
        "temp_c": 11.0,
        "humidity_pct": 78.0,
        "heat_index_c": 11.0,
        "wind_kmh": 6.1,
        "wind_dir": 0.0,
        "cloud_pct": 75.0
      }
    },
    {
      "type": "Feature",
      "geometry": {
        "type": "Point",
        "coordinates": [
          96.877105410688,
          4.81572033808049
        ]
      },
      "properties": {
        "location_name": "GPM1",
        "slug": "gpm1",
        "date": "Jumat, 28 Agustus 2026",
        "date_iso": "2026-08-28",
        "relative": "Besok",
        "hour": "06:00",
        "rain_probability": 0,
        "risk_score": 23,
        "risk_class": "safe",
        "risk_label": "Aman",
        "condition": "Berawan",
        "temp_c": 10.9,
        "humidity_pct": 78.0,
        "heat_index_c": 10.9,
        "wind_kmh": 6.6,
        "wind_dir": 0.0,
        "cloud_pct": 75.0
      }
    },
    {
      "type": "Feature",
      "geometry": {
        "type": "Point",
        "coordinates": [
          96.877105410688,
          4.81572033808049
        ]
      },
      "properties": {
        "location_name": "GPM1",
        "slug": "gpm1",
        "date": "Jumat, 28 Agustus 2026",
        "date_iso": "2026-08-28",
        "relative": "Besok",
        "hour": "07:00",
        "rain_probability": 0,
        "risk_score": 23,
        "risk_class": "safe",
        "risk_label": "Aman",
        "condition": "Berawan",
        "temp_c": 11.7,
        "humidity_pct": 79.0,
        "heat_index_c": 11.7,
        "wind_kmh": 6.5,
        "wind_dir": 0.0,
        "cloud_pct": 75.0
      }
    },
    {
      "type": "Feature",
      "geometry": {
        "type": "Point",
        "coordinates": [
          96.877105410688,
          4.81572033808049
        ]
      },
      "properties": {
        "location_name": "GPM1",
        "slug": "gpm1",
        "date": "Jumat, 28 Agustus 2026",
        "date_iso": "2026-08-28",
        "relative": "Besok",
        "hour": "08:00",
        "rain_probability": 0,
        "risk_score": 22,
        "risk_class": "safe",
        "risk_label": "Aman",
        "condition": "Berawan",
        "temp_c": 14.5,
        "humidity_pct": 72.0,
        "heat_index_c": 14.5,
        "wind_kmh": 6.4,
        "wind_dir": 0.0,
        "cloud_pct": 45.0
      }
    },
    {
      "type": "Feature",
      "geometry": {
        "type": "Point",
        "coordinates": [
          96.877105410688,
          4.81572033808049
        ]
      },
      "properties": {
        "location_name": "GPM1",
        "slug": "gpm1",
        "date": "Jumat, 28 Agustus 2026",
        "date_iso": "2026-08-28",
        "relative": "Besok",
        "hour": "09:00",
        "rain_probability": 0,
        "risk_score": 22,
        "risk_class": "safe",
        "risk_label": "Aman",
        "condition": "Berawan",
        "temp_c": 18.0,
        "humidity_pct": 63.0,
        "heat_index_c": 18.0,
        "wind_kmh": 4.4,
        "wind_dir": 0.0,
        "cloud_pct": 45.0
      }
    },
    {
      "type": "Feature",
      "geometry": {
        "type": "Point",
        "coordinates": [
          96.877105410688,
          4.81572033808049
        ]
      },
      "properties": {
        "location_name": "GPM1",
        "slug": "gpm1",
        "date": "Jumat, 28 Agustus 2026",
        "date_iso": "2026-08-28",
        "relative": "Besok",
        "hour": "10:00",
        "rain_probability": 0,
        "risk_score": 22,
        "risk_class": "safe",
        "risk_label": "Aman",
        "condition": "Berawan",
        "temp_c": 20.0,
        "humidity_pct": 54.0,
        "heat_index_c": 20.0,
        "wind_kmh": 4.8,
        "wind_dir": 0.0,
        "cloud_pct": 75.0
      }
    },
    {
      "type": "Feature",
      "geometry": {
        "type": "Point",
        "coordinates": [
          96.877105410688,
          4.81572033808049
        ]
      },
      "properties": {
        "location_name": "GPM1",
        "slug": "gpm1",
        "date": "Jumat, 28 Agustus 2026",
        "date_iso": "2026-08-28",
        "relative": "Besok",
        "hour": "11:00",
        "rain_probability": 0,
        "risk_score": 28,
        "risk_class": "watch",
        "risk_label": "Perlu diperhatikan",
        "condition": "Cerah Berawan",
        "temp_c": 21.7,
        "humidity_pct": 50.0,
        "heat_index_c": 21.7,
        "wind_kmh": 5.0,
        "wind_dir": 0.0,
        "cloud_pct": 45.0
      }
    },
    {
      "type": "Feature",
      "geometry": {
        "type": "Point",
        "coordinates": [
          96.877105410688,
          4.81572033808049
        ]
      },
      "properties": {
        "location_name": "GPM1",
        "slug": "gpm1",
        "date": "Jumat, 28 Agustus 2026",
        "date_iso": "2026-08-28",
        "relative": "Besok",
        "hour": "12:00",
        "rain_probability": 0,
        "risk_score": 28,
        "risk_class": "watch",
        "risk_label": "Perlu diperhatikan",
        "condition": "Berawan",
        "temp_c": 22.6,
        "humidity_pct": 50.0,
        "heat_index_c": 22.6,
        "wind_kmh": 5.9,
        "wind_dir": 0.0,
        "cloud_pct": 75.0
      }
    },
    {
      "type": "Feature",
      "geometry": {
        "type": "Point",
        "coordinates": [
          96.877105410688,
          4.81572033808049
        ]
      },
      "properties": {
        "location_name": "GPM1",
        "slug": "gpm1",
        "date": "Jumat, 28 Agustus 2026",
        "date_iso": "2026-08-28",
        "relative": "Besok",
        "hour": "13:00",
        "rain_probability": 0,
        "risk_score": 30,
        "risk_class": "watch",
        "risk_label": "Perlu diperhatikan",
        "condition": "Berawan",
        "temp_c": 23.0,
        "humidity_pct": 49.0,
        "heat_index_c": 23.0,
        "wind_kmh": 6.8,
        "wind_dir": 0.0,
        "cloud_pct": 75.0
      }
    },
    {
      "type": "Feature",
      "geometry": {
        "type": "Point",
        "coordinates": [
          96.877105410688,
          4.81572033808049
        ]
      },
      "properties": {
        "location_name": "GPM1",
        "slug": "gpm1",
        "date": "Jumat, 28 Agustus 2026",
        "date_iso": "2026-08-28",
        "relative": "Besok",
        "hour": "14:00",
        "rain_probability": 0,
        "risk_score": 34,
        "risk_class": "watch",
        "risk_label": "Perlu diperhatikan",
        "condition": "Berawan",
        "temp_c": 22.0,
        "humidity_pct": 49.0,
        "heat_index_c": 22.0,
        "wind_kmh": 8.3,
        "wind_dir": 0.0,
        "cloud_pct": 75.0
      }
    },
    {
      "type": "Feature",
      "geometry": {
        "type": "Point",
        "coordinates": [
          96.877105410688,
          4.81572033808049
        ]
      },
      "properties": {
        "location_name": "GPM1",
        "slug": "gpm1",
        "date": "Jumat, 28 Agustus 2026",
        "date_iso": "2026-08-28",
        "relative": "Besok",
        "hour": "15:00",
        "rain_probability": 13.8,
        "risk_score": 38,
        "risk_class": "watch",
        "risk_label": "Perlu diperhatikan",
        "condition": "Berawan",
        "temp_c": 22.0,
        "humidity_pct": 57.0,
        "heat_index_c": 22.0,
        "wind_kmh": 8.5,
        "wind_dir": 0.0,
        "cloud_pct": 75.0
      }
    },
    {
      "type": "Feature",
      "geometry": {
        "type": "Point",
        "coordinates": [
          96.877105410688,
          4.81572033808049
        ]
      },
      "properties": {
        "location_name": "GPM1",
        "slug": "gpm1",
        "date": "Jumat, 28 Agustus 2026",
        "date_iso": "2026-08-28",
        "relative": "Besok",
        "hour": "16:00",
        "rain_probability": 28.9,
        "risk_score": 42,
        "risk_class": "watch",
        "risk_label": "Perlu diperhatikan",
        "condition": "Berawan",
        "temp_c": 20.9,
        "humidity_pct": 63.0,
        "heat_index_c": 20.9,
        "wind_kmh": 8.4,
        "wind_dir": 0.0,
        "cloud_pct": 75.0
      }
    },
    {
      "type": "Feature",
      "geometry": {
        "type": "Point",
        "coordinates": [
          96.877105410688,
          4.81572033808049
        ]
      },
      "properties": {
        "location_name": "GPM1",
        "slug": "gpm1",
        "date": "Jumat, 28 Agustus 2026",
        "date_iso": "2026-08-28",
        "relative": "Besok",
        "hour": "17:00",
        "rain_probability": 28.9,
        "risk_score": 36,
        "risk_class": "watch",
        "risk_label": "Perlu diperhatikan",
        "condition": "Berawan",
        "temp_c": 18.0,
        "humidity_pct": 72.0,
        "heat_index_c": 18.0,
        "wind_kmh": 6.7,
        "wind_dir": 0.0,
        "cloud_pct": 75.0
      }
    },
    {
      "type": "Feature",
      "geometry": {
        "type": "Point",
        "coordinates": [
          96.877105410688,
          4.81572033808049
        ]
      },
      "properties": {
        "location_name": "GPM1",
        "slug": "gpm1",
        "date": "Jumat, 28 Agustus 2026",
        "date_iso": "2026-08-28",
        "relative": "Besok",
        "hour": "18:00",
        "rain_probability": 27.7,
        "risk_score": 33,
        "risk_class": "watch",
        "risk_label": "Perlu diperhatikan",
        "condition": "Berawan",
        "temp_c": 17.2,
        "humidity_pct": 81.0,
        "heat_index_c": 17.2,
        "wind_kmh": 4.8,
        "wind_dir": 0.0,
        "cloud_pct": 75.0
      }
    },
    {
      "type": "Feature",
      "geometry": {
        "type": "Point",
        "coordinates": [
          96.877105410688,
          4.81572033808049
        ]
      },
      "properties": {
        "location_name": "GPM1",
        "slug": "gpm1",
        "date": "Jumat, 28 Agustus 2026",
        "date_iso": "2026-08-28",
        "relative": "Besok",
        "hour": "19:00",
        "rain_probability": 14.5,
        "risk_score": 26,
        "risk_class": "watch",
        "risk_label": "Perlu diperhatikan",
        "condition": "Berawan",
        "temp_c": 14.8,
        "humidity_pct": 88.0,
        "heat_index_c": 14.8,
        "wind_kmh": 2.9,
        "wind_dir": 0.0,
        "cloud_pct": 75.0
      }
    },
    {
      "type": "Feature",
      "geometry": {
        "type": "Point",
        "coordinates": [
          96.877105410688,
          4.81572033808049
        ]
      },
      "properties": {
        "location_name": "GPM1",
        "slug": "gpm1",
        "date": "Jumat, 28 Agustus 2026",
        "date_iso": "2026-08-28",
        "relative": "Besok",
        "hour": "20:00",
        "rain_probability": 0,
        "risk_score": 26,
        "risk_class": "watch",
        "risk_label": "Perlu diperhatikan",
        "condition": "Berawan",
        "temp_c": 13.8,
        "humidity_pct": 90.0,
        "heat_index_c": 13.8,
        "wind_kmh": 5.2,
        "wind_dir": 0.0,
        "cloud_pct": 75.0
      }
    },
    {
      "type": "Feature",
      "geometry": {
        "type": "Point",
        "coordinates": [
          96.877105410688,
          4.81572033808049
        ]
      },
      "properties": {
        "location_name": "GPM1",
        "slug": "gpm1",
        "date": "Jumat, 28 Agustus 2026",
        "date_iso": "2026-08-28",
        "relative": "Besok",
        "hour": "21:00",
        "rain_probability": 0,
        "risk_score": 25,
        "risk_class": "watch",
        "risk_label": "Perlu diperhatikan",
        "condition": "Berawan",
        "temp_c": 12.9,
        "humidity_pct": 88.0,
        "heat_index_c": 12.9,
        "wind_kmh": 4.7,
        "wind_dir": 0.0,
        "cloud_pct": 75.0
      }
    },
    {
      "type": "Feature",
      "geometry": {
        "type": "Point",
        "coordinates": [
          96.877105410688,
          4.81572033808049
        ]
      },
      "properties": {
        "location_name": "GPM1",
        "slug": "gpm1",
        "date": "Jumat, 28 Agustus 2026",
        "date_iso": "2026-08-28",
        "relative": "Besok",
        "hour": "22:00",
        "rain_probability": 0,
        "risk_score": 24,
        "risk_class": "safe",
        "risk_label": "Aman",
        "condition": "Berawan",
        "temp_c": 12.3,
        "humidity_pct": 85.0,
        "heat_index_c": 12.3,
        "wind_kmh": 5.9,
        "wind_dir": 0.0,
        "cloud_pct": 75.0
      }
    },
    {
      "type": "Feature",
      "geometry": {
        "type": "Point",
        "coordinates": [
          96.877105410688,
          4.81572033808049
        ]
      },
      "properties": {
        "location_name": "GPM1",
        "slug": "gpm1",
        "date": "Jumat, 28 Agustus 2026",
        "date_iso": "2026-08-28",
        "relative": "Besok",
        "hour": "23:00",
        "rain_probability": 0,
        "risk_score": 21,
        "risk_class": "safe",
        "risk_label": "Aman",
        "condition": "Berawan",
        "temp_c": 12.1,
        "humidity_pct": 81.0,
        "heat_index_c": 12.1,
        "wind_kmh": 6.2,
        "wind_dir": 0.0,
        "cloud_pct": 45.0
      }
    },
    {
      "type": "Feature",
      "geometry": {
        "type": "Point",
        "coordinates": [
          96.877105410688,
          4.81572033808049
        ]
      },
      "properties": {
        "location_name": "GPM1",
        "slug": "gpm1",
        "date": "Sabtu, 29 Agustus 2026",
        "date_iso": "2026-08-29",
        "relative": "Lusa",
        "hour": "00:00",
        "rain_probability": 0,
        "risk_score": 23,
        "risk_class": "safe",
        "risk_label": "Aman",
        "condition": "Berawan",
        "temp_c": 12.1,
        "humidity_pct": 79.0,
        "heat_index_c": 12.1,
        "wind_kmh": 6.4,
        "wind_dir": 0.0,
        "cloud_pct": 75.0
      }
    },
    {
      "type": "Feature",
      "geometry": {
        "type": "Point",
        "coordinates": [
          96.877105410688,
          4.81572033808049
        ]
      },
      "properties": {
        "location_name": "GPM1",
        "slug": "gpm1",
        "date": "Sabtu, 29 Agustus 2026",
        "date_iso": "2026-08-29",
        "relative": "Lusa",
        "hour": "01:00",
        "rain_probability": 0,
        "risk_score": 23,
        "risk_class": "safe",
        "risk_label": "Aman",
        "condition": "Berawan",
        "temp_c": 12.0,
        "humidity_pct": 76.0,
        "heat_index_c": 12.0,
        "wind_kmh": 7.4,
        "wind_dir": 0.0,
        "cloud_pct": 75.0
      }
    },
    {
      "type": "Feature",
      "geometry": {
        "type": "Point",
        "coordinates": [
          96.877105410688,
          4.81572033808049
        ]
      },
      "properties": {
        "location_name": "GPM1",
        "slug": "gpm1",
        "date": "Sabtu, 29 Agustus 2026",
        "date_iso": "2026-08-29",
        "relative": "Lusa",
        "hour": "02:00",
        "rain_probability": 0,
        "risk_score": 22,
        "risk_class": "safe",
        "risk_label": "Aman",
        "condition": "Berawan",
        "temp_c": 11.8,
        "humidity_pct": 73.0,
        "heat_index_c": 11.8,
        "wind_kmh": 7.3,
        "wind_dir": 0.0,
        "cloud_pct": 75.0
      }
    },
    {
      "type": "Feature",
      "geometry": {
        "type": "Point",
        "coordinates": [
          96.877105410688,
          4.81572033808049
        ]
      },
      "properties": {
        "location_name": "GPM1",
        "slug": "gpm1",
        "date": "Sabtu, 29 Agustus 2026",
        "date_iso": "2026-08-29",
        "relative": "Lusa",
        "hour": "03:00",
        "rain_probability": 0,
        "risk_score": 22,
        "risk_class": "safe",
        "risk_label": "Aman",
        "condition": "Berawan",
        "temp_c": 11.6,
        "humidity_pct": 70.0,
        "heat_index_c": 11.6,
        "wind_kmh": 6.8,
        "wind_dir": 0.0,
        "cloud_pct": 75.0
      }
    },
    {
      "type": "Feature",
      "geometry": {
        "type": "Point",
        "coordinates": [
          96.877105410688,
          4.81572033808049
        ]
      },
      "properties": {
        "location_name": "GPM1",
        "slug": "gpm1",
        "date": "Sabtu, 29 Agustus 2026",
        "date_iso": "2026-08-29",
        "relative": "Lusa",
        "hour": "04:00",
        "rain_probability": 0,
        "risk_score": 22,
        "risk_class": "safe",
        "risk_label": "Aman",
        "condition": "Berawan",
        "temp_c": 11.5,
        "humidity_pct": 69.0,
        "heat_index_c": 11.5,
        "wind_kmh": 7.5,
        "wind_dir": 0.0,
        "cloud_pct": 75.0
      }
    },
    {
      "type": "Feature",
      "geometry": {
        "type": "Point",
        "coordinates": [
          96.877105410688,
          4.81572033808049
        ]
      },
      "properties": {
        "location_name": "GPM1",
        "slug": "gpm1",
        "date": "Sabtu, 29 Agustus 2026",
        "date_iso": "2026-08-29",
        "relative": "Lusa",
        "hour": "05:00",
        "rain_probability": 0,
        "risk_score": 22,
        "risk_class": "safe",
        "risk_label": "Aman",
        "condition": "Berawan",
        "temp_c": 11.2,
        "humidity_pct": 70.0,
        "heat_index_c": 11.2,
        "wind_kmh": 7.4,
        "wind_dir": 0.0,
        "cloud_pct": 75.0
      }
    },
    {
      "type": "Feature",
      "geometry": {
        "type": "Point",
        "coordinates": [
          96.877105410688,
          4.81572033808049
        ]
      },
      "properties": {
        "location_name": "GPM1",
        "slug": "gpm1",
        "date": "Sabtu, 29 Agustus 2026",
        "date_iso": "2026-08-29",
        "relative": "Lusa",
        "hour": "06:00",
        "rain_probability": 0,
        "risk_score": 24,
        "risk_class": "safe",
        "risk_label": "Aman",
        "condition": "Berawan",
        "temp_c": 11.1,
        "humidity_pct": 70.0,
        "heat_index_c": 11.1,
        "wind_kmh": 6.6,
        "wind_dir": 0.0,
        "cloud_pct": 75.0
      }
    },
    {
      "type": "Feature",
      "geometry": {
        "type": "Point",
        "coordinates": [
          96.877105410688,
          4.81572033808049
        ]
      },
      "properties": {
        "location_name": "GPM1",
        "slug": "gpm1",
        "date": "Sabtu, 29 Agustus 2026",
        "date_iso": "2026-08-29",
        "relative": "Lusa",
        "hour": "07:00",
        "rain_probability": 0,
        "risk_score": 23,
        "risk_class": "safe",
        "risk_label": "Aman",
        "condition": "Berawan",
        "temp_c": 11.6,
        "humidity_pct": 72.0,
        "heat_index_c": 11.6,
        "wind_kmh": 6.8,
        "wind_dir": 0.0,
        "cloud_pct": 75.0
      }
    },
    {
      "type": "Feature",
      "geometry": {
        "type": "Point",
        "coordinates": [
          96.877105410688,
          4.81572033808049
        ]
      },
      "properties": {
        "location_name": "GPM1",
        "slug": "gpm1",
        "date": "Sabtu, 29 Agustus 2026",
        "date_iso": "2026-08-29",
        "relative": "Lusa",
        "hour": "08:00",
        "rain_probability": 0,
        "risk_score": 21,
        "risk_class": "safe",
        "risk_label": "Aman",
        "condition": "Berawan",
        "temp_c": 13.5,
        "humidity_pct": 67.0,
        "heat_index_c": 13.5,
        "wind_kmh": 5.0,
        "wind_dir": 0.0,
        "cloud_pct": 75.0
      }
    },
    {
      "type": "Feature",
      "geometry": {
        "type": "Point",
        "coordinates": [
          96.877105410688,
          4.81572033808049
        ]
      },
      "properties": {
        "location_name": "GPM1",
        "slug": "gpm1",
        "date": "Sabtu, 29 Agustus 2026",
        "date_iso": "2026-08-29",
        "relative": "Lusa",
        "hour": "09:00",
        "rain_probability": 0,
        "risk_score": 21,
        "risk_class": "safe",
        "risk_label": "Aman",
        "condition": "Berawan",
        "temp_c": 16.3,
        "humidity_pct": 59.0,
        "heat_index_c": 16.3,
        "wind_kmh": 4.4,
        "wind_dir": 0.0,
        "cloud_pct": 75.0
      }
    },
    {
      "type": "Feature",
      "geometry": {
        "type": "Point",
        "coordinates": [
          96.877105410688,
          4.81572033808049
        ]
      },
      "properties": {
        "location_name": "GPM1",
        "slug": "gpm1",
        "date": "Sabtu, 29 Agustus 2026",
        "date_iso": "2026-08-29",
        "relative": "Lusa",
        "hour": "10:00",
        "rain_probability": 0,
        "risk_score": 25,
        "risk_class": "watch",
        "risk_label": "Perlu diperhatikan",
        "condition": "Berawan",
        "temp_c": 18.8,
        "humidity_pct": 49.0,
        "heat_index_c": 18.8,
        "wind_kmh": 3.9,
        "wind_dir": 0.0,
        "cloud_pct": 75.0
      }
    },
    {
      "type": "Feature",
      "geometry": {
        "type": "Point",
        "coordinates": [
          96.877105410688,
          4.81572033808049
        ]
      },
      "properties": {
        "location_name": "GPM1",
        "slug": "gpm1",
        "date": "Sabtu, 29 Agustus 2026",
        "date_iso": "2026-08-29",
        "relative": "Lusa",
        "hour": "11:00",
        "rain_probability": 0,
        "risk_score": 28,
        "risk_class": "watch",
        "risk_label": "Perlu diperhatikan",
        "condition": "Berawan",
        "temp_c": 20.6,
        "humidity_pct": 47.0,
        "heat_index_c": 20.6,
        "wind_kmh": 4.7,
        "wind_dir": 0.0,
        "cloud_pct": 75.0
      }
    },
    {
      "type": "Feature",
      "geometry": {
        "type": "Point",
        "coordinates": [
          96.877105410688,
          4.81572033808049
        ]
      },
      "properties": {
        "location_name": "GPM1",
        "slug": "gpm1",
        "date": "Sabtu, 29 Agustus 2026",
        "date_iso": "2026-08-29",
        "relative": "Lusa",
        "hour": "12:00",
        "rain_probability": 0,
        "risk_score": 31,
        "risk_class": "watch",
        "risk_label": "Perlu diperhatikan",
        "condition": "Berawan",
        "temp_c": 22.0,
        "humidity_pct": 48.0,
        "heat_index_c": 22.0,
        "wind_kmh": 6.5,
        "wind_dir": 0.0,
        "cloud_pct": 75.0
      }
    },
    {
      "type": "Feature",
      "geometry": {
        "type": "Point",
        "coordinates": [
          96.877105410688,
          4.81572033808049
        ]
      },
      "properties": {
        "location_name": "GPM1",
        "slug": "gpm1",
        "date": "Sabtu, 29 Agustus 2026",
        "date_iso": "2026-08-29",
        "relative": "Lusa",
        "hour": "13:00",
        "rain_probability": 0,
        "risk_score": 41,
        "risk_class": "watch",
        "risk_label": "Perlu diperhatikan",
        "condition": "Berawan",
        "temp_c": 22.7,
        "humidity_pct": 47.0,
        "heat_index_c": 22.7,
        "wind_kmh": 7.9,
        "wind_dir": 0.0,
        "cloud_pct": 75.0
      }
    },
    {
      "type": "Feature",
      "geometry": {
        "type": "Point",
        "coordinates": [
          96.877105410688,
          4.81572033808049
        ]
      },
      "properties": {
        "location_name": "GPM1",
        "slug": "gpm1",
        "date": "Sabtu, 29 Agustus 2026",
        "date_iso": "2026-08-29",
        "relative": "Lusa",
        "hour": "14:00",
        "rain_probability": 0,
        "risk_score": 44,
        "risk_class": "watch",
        "risk_label": "Perlu diperhatikan",
        "condition": "Berawan",
        "temp_c": 22.0,
        "humidity_pct": 48.0,
        "heat_index_c": 22.0,
        "wind_kmh": 7.9,
        "wind_dir": 0.0,
        "cloud_pct": 75.0
      }
    },
    {
      "type": "Feature",
      "geometry": {
        "type": "Point",
        "coordinates": [
          96.877105410688,
          4.81572033808049
        ]
      },
      "properties": {
        "location_name": "GPM1",
        "slug": "gpm1",
        "date": "Sabtu, 29 Agustus 2026",
        "date_iso": "2026-08-29",
        "relative": "Lusa",
        "hour": "15:00",
        "rain_probability": 0,
        "risk_score": 40,
        "risk_class": "watch",
        "risk_label": "Perlu diperhatikan",
        "condition": "Berawan",
        "temp_c": 22.0,
        "humidity_pct": 50.0,
        "heat_index_c": 22.0,
        "wind_kmh": 7.1,
        "wind_dir": 0.0,
        "cloud_pct": 75.0
      }
    },
    {
      "type": "Feature",
      "geometry": {
        "type": "Point",
        "coordinates": [
          96.877105410688,
          4.81572033808049
        ]
      },
      "properties": {
        "location_name": "GPM1",
        "slug": "gpm1",
        "date": "Sabtu, 29 Agustus 2026",
        "date_iso": "2026-08-29",
        "relative": "Lusa",
        "hour": "16:00",
        "rain_probability": 0,
        "risk_score": 37,
        "risk_class": "watch",
        "risk_label": "Perlu diperhatikan",
        "condition": "Berawan",
        "temp_c": 20.6,
        "humidity_pct": 56.0,
        "heat_index_c": 20.6,
        "wind_kmh": 7.3,
        "wind_dir": 0.0,
        "cloud_pct": 75.0
      }
    },
    {
      "type": "Feature",
      "geometry": {
        "type": "Point",
        "coordinates": [
          96.877105410688,
          4.81572033808049
        ]
      },
      "properties": {
        "location_name": "GPM1",
        "slug": "gpm1",
        "date": "Sabtu, 29 Agustus 2026",
        "date_iso": "2026-08-29",
        "relative": "Lusa",
        "hour": "17:00",
        "rain_probability": 28.9,
        "risk_score": 31,
        "risk_class": "watch",
        "risk_label": "Perlu diperhatikan",
        "condition": "Berawan",
        "temp_c": 18.3,
        "humidity_pct": 66.0,
        "heat_index_c": 18.3,
        "wind_kmh": 6.3,
        "wind_dir": 0.0,
        "cloud_pct": 75.0
      }
    },
    {
      "type": "Feature",
      "geometry": {
        "type": "Point",
        "coordinates": [
          96.877105410688,
          4.81572033808049
        ]
      },
      "properties": {
        "location_name": "GPM1",
        "slug": "gpm1",
        "date": "Sabtu, 29 Agustus 2026",
        "date_iso": "2026-08-29",
        "relative": "Lusa",
        "hour": "18:00",
        "rain_probability": 13.8,
        "risk_score": 25,
        "risk_class": "watch",
        "risk_label": "Perlu diperhatikan",
        "condition": "Berawan",
        "temp_c": 16.3,
        "humidity_pct": 77.0,
        "heat_index_c": 16.3,
        "wind_kmh": 5.4,
        "wind_dir": 0.0,
        "cloud_pct": 75.0
      }
    },
    {
      "type": "Feature",
      "geometry": {
        "type": "Point",
        "coordinates": [
          96.877105410688,
          4.81572033808049
        ]
      },
      "properties": {
        "location_name": "GPM1",
        "slug": "gpm1",
        "date": "Sabtu, 29 Agustus 2026",
        "date_iso": "2026-08-29",
        "relative": "Lusa",
        "hour": "19:00",
        "rain_probability": 14.4,
        "risk_score": 25,
        "risk_class": "watch",
        "risk_label": "Perlu diperhatikan",
        "condition": "Berawan",
        "temp_c": 15.2,
        "humidity_pct": 84.0,
        "heat_index_c": 15.2,
        "wind_kmh": 5.4,
        "wind_dir": 0.0,
        "cloud_pct": 75.0
      }
    },
    {
      "type": "Feature",
      "geometry": {
        "type": "Point",
        "coordinates": [
          96.877105410688,
          4.81572033808049
        ]
      },
      "properties": {
        "location_name": "GPM1",
        "slug": "gpm1",
        "date": "Sabtu, 29 Agustus 2026",
        "date_iso": "2026-08-29",
        "relative": "Lusa",
        "hour": "20:00",
        "rain_probability": 0,
        "risk_score": 25,
        "risk_class": "safe",
        "risk_label": "Aman",
        "condition": "Berawan",
        "temp_c": 14.6,
        "humidity_pct": 87.0,
        "heat_index_c": 14.6,
        "wind_kmh": 5.0,
        "wind_dir": 0.0,
        "cloud_pct": 75.0
      }
    },
    {
      "type": "Feature",
      "geometry": {
        "type": "Point",
        "coordinates": [
          96.877105410688,
          4.81572033808049
        ]
      },
      "properties": {
        "location_name": "GPM1",
        "slug": "gpm1",
        "date": "Sabtu, 29 Agustus 2026",
        "date_iso": "2026-08-29",
        "relative": "Lusa",
        "hour": "21:00",
        "rain_probability": 0,
        "risk_score": 25,
        "risk_class": "watch",
        "risk_label": "Perlu diperhatikan",
        "condition": "Berawan",
        "temp_c": 14.1,
        "humidity_pct": 89.0,
        "heat_index_c": 14.1,
        "wind_kmh": 5.0,
        "wind_dir": 0.0,
        "cloud_pct": 75.0
      }
    },
    {
      "type": "Feature",
      "geometry": {
        "type": "Point",
        "coordinates": [
          96.877105410688,
          4.81572033808049
        ]
      },
      "properties": {
        "location_name": "GPM1",
        "slug": "gpm1",
        "date": "Sabtu, 29 Agustus 2026",
        "date_iso": "2026-08-29",
        "relative": "Lusa",
        "hour": "22:00",
        "rain_probability": 0,
        "risk_score": 25,
        "risk_class": "safe",
        "risk_label": "Aman",
        "condition": "Berawan",
        "temp_c": 13.7,
        "humidity_pct": 87.0,
        "heat_index_c": 13.7,
        "wind_kmh": 6.3,
        "wind_dir": 0.0,
        "cloud_pct": 75.0
      }
    },
    {
      "type": "Feature",
      "geometry": {
        "type": "Point",
        "coordinates": [
          96.877105410688,
          4.81572033808049
        ]
      },
      "properties": {
        "location_name": "GPM1",
        "slug": "gpm1",
        "date": "Sabtu, 29 Agustus 2026",
        "date_iso": "2026-08-29",
        "relative": "Lusa",
        "hour": "23:00",
        "rain_probability": 0,
        "risk_score": 25,
        "risk_class": "safe",
        "risk_label": "Aman",
        "condition": "Berawan",
        "temp_c": 13.1,
        "humidity_pct": 86.0,
        "heat_index_c": 13.1,
        "wind_kmh": 7.3,
        "wind_dir": 0.0,
        "cloud_pct": 75.0
      }
    }
  ]
}