{
  "type": "FeatureCollection",
  "features": [
    {
      "type": "Feature",
      "geometry": {
        "type": "Point",
        "coordinates": [
          97.009911990332,
          4.815409756944025
        ]
      },
      "properties": {
        "location_name": "GPM3",
        "slug": "gpm3",
        "date": "Kamis, 6 Agustus 2026",
        "date_iso": "2026-08-06",
        "relative": "Hari ini",
        "hour": "00:00",
        "rain_probability": 16.7,
        "risk_score": 28,
        "risk_class": "watch",
        "risk_label": "Perlu diperhatikan",
        "condition": "Berawan",
        "temp_c": 15.5,
        "humidity_pct": 92.0,
        "heat_index_c": 15.5,
        "wind_kmh": 7.1,
        "wind_dir": 0.0,
        "cloud_pct": 75.0
      }
    },
    {
      "type": "Feature",
      "geometry": {
        "type": "Point",
        "coordinates": [
          97.009911990332,
          4.815409756944025
        ]
      },
      "properties": {
        "location_name": "GPM3",
        "slug": "gpm3",
        "date": "Kamis, 6 Agustus 2026",
        "date_iso": "2026-08-06",
        "relative": "Hari ini",
        "hour": "01:00",
        "rain_probability": 16.7,
        "risk_score": 28,
        "risk_class": "watch",
        "risk_label": "Perlu diperhatikan",
        "condition": "Berawan",
        "temp_c": 15.6,
        "humidity_pct": 92.0,
        "heat_index_c": 15.6,
        "wind_kmh": 6.7,
        "wind_dir": 0.0,
        "cloud_pct": 75.0
      }
    },
    {
      "type": "Feature",
      "geometry": {
        "type": "Point",
        "coordinates": [
          97.009911990332,
          4.815409756944025
        ]
      },
      "properties": {
        "location_name": "GPM3",
        "slug": "gpm3",
        "date": "Kamis, 6 Agustus 2026",
        "date_iso": "2026-08-06",
        "relative": "Hari ini",
        "hour": "02:00",
        "rain_probability": 16.7,
        "risk_score": 28,
        "risk_class": "watch",
        "risk_label": "Perlu diperhatikan",
        "condition": "Berawan",
        "temp_c": 15.6,
        "humidity_pct": 92.0,
        "heat_index_c": 15.6,
        "wind_kmh": 6.9,
        "wind_dir": 0.0,
        "cloud_pct": 75.0
      }
    },
    {
      "type": "Feature",
      "geometry": {
        "type": "Point",
        "coordinates": [
          97.009911990332,
          4.815409756944025
        ]
      },
      "properties": {
        "location_name": "GPM3",
        "slug": "gpm3",
        "date": "Kamis, 6 Agustus 2026",
        "date_iso": "2026-08-06",
        "relative": "Hari ini",
        "hour": "03:00",
        "rain_probability": 0,
        "risk_score": 26,
        "risk_class": "watch",
        "risk_label": "Perlu diperhatikan",
        "condition": "Berawan",
        "temp_c": 15.6,
        "humidity_pct": 91.0,
        "heat_index_c": 15.6,
        "wind_kmh": 7.7,
        "wind_dir": 0.0,
        "cloud_pct": 75.0
      }
    },
    {
      "type": "Feature",
      "geometry": {
        "type": "Point",
        "coordinates": [
          97.009911990332,
          4.815409756944025
        ]
      },
      "properties": {
        "location_name": "GPM3",
        "slug": "gpm3",
        "date": "Kamis, 6 Agustus 2026",
        "date_iso": "2026-08-06",
        "relative": "Hari ini",
        "hour": "04:00",
        "rain_probability": 0,
        "risk_score": 23,
        "risk_class": "safe",
        "risk_label": "Aman",
        "condition": "Cerah Berawan",
        "temp_c": 15.8,
        "humidity_pct": 91.0,
        "heat_index_c": 15.8,
        "wind_kmh": 7.9,
        "wind_dir": 0.0,
        "cloud_pct": 45.0
      }
    },
    {
      "type": "Feature",
      "geometry": {
        "type": "Point",
        "coordinates": [
          97.009911990332,
          4.815409756944025
        ]
      },
      "properties": {
        "location_name": "GPM3",
        "slug": "gpm3",
        "date": "Kamis, 6 Agustus 2026",
        "date_iso": "2026-08-06",
        "relative": "Hari ini",
        "hour": "05:00",
        "rain_probability": 0,
        "risk_score": 25,
        "risk_class": "watch",
        "risk_label": "Perlu diperhatikan",
        "condition": "Berawan",
        "temp_c": 15.8,
        "humidity_pct": 88.0,
        "heat_index_c": 15.8,
        "wind_kmh": 8.1,
        "wind_dir": 0.0,
        "cloud_pct": 75.0
      }
    },
    {
      "type": "Feature",
      "geometry": {
        "type": "Point",
        "coordinates": [
          97.009911990332,
          4.815409756944025
        ]
      },
      "properties": {
        "location_name": "GPM3",
        "slug": "gpm3",
        "date": "Kamis, 6 Agustus 2026",
        "date_iso": "2026-08-06",
        "relative": "Hari ini",
        "hour": "06:00",
        "rain_probability": 0,
        "risk_score": 24,
        "risk_class": "safe",
        "risk_label": "Aman",
        "condition": "Berawan",
        "temp_c": 15.8,
        "humidity_pct": 84.0,
        "heat_index_c": 15.8,
        "wind_kmh": 8.3,
        "wind_dir": 0.0,
        "cloud_pct": 75.0
      }
    },
    {
      "type": "Feature",
      "geometry": {
        "type": "Point",
        "coordinates": [
          97.009911990332,
          4.815409756944025
        ]
      },
      "properties": {
        "location_name": "GPM3",
        "slug": "gpm3",
        "date": "Kamis, 6 Agustus 2026",
        "date_iso": "2026-08-06",
        "relative": "Hari ini",
        "hour": "07:00",
        "rain_probability": 0,
        "risk_score": 24,
        "risk_class": "safe",
        "risk_label": "Aman",
        "condition": "Berawan",
        "temp_c": 16.4,
        "humidity_pct": 83.0,
        "heat_index_c": 16.4,
        "wind_kmh": 7.6,
        "wind_dir": 0.0,
        "cloud_pct": 75.0
      }
    },
    {
      "type": "Feature",
      "geometry": {
        "type": "Point",
        "coordinates": [
          97.009911990332,
          4.815409756944025
        ]
      },
      "properties": {
        "location_name": "GPM3",
        "slug": "gpm3",
        "date": "Kamis, 6 Agustus 2026",
        "date_iso": "2026-08-06",
        "relative": "Hari ini",
        "hour": "08:00",
        "rain_probability": 0,
        "risk_score": 24,
        "risk_class": "safe",
        "risk_label": "Aman",
        "condition": "Berawan",
        "temp_c": 18.0,
        "humidity_pct": 83.0,
        "heat_index_c": 18.0,
        "wind_kmh": 7.8,
        "wind_dir": 0.0,
        "cloud_pct": 75.0
      }
    },
    {
      "type": "Feature",
      "geometry": {
        "type": "Point",
        "coordinates": [
          97.009911990332,
          4.815409756944025
        ]
      },
      "properties": {
        "location_name": "GPM3",
        "slug": "gpm3",
        "date": "Kamis, 6 Agustus 2026",
        "date_iso": "2026-08-06",
        "relative": "Hari ini",
        "hour": "09:00",
        "rain_probability": 0,
        "risk_score": 28,
        "risk_class": "watch",
        "risk_label": "Perlu diperhatikan",
        "condition": "Berawan",
        "temp_c": 20.0,
        "humidity_pct": 73.0,
        "heat_index_c": 20.0,
        "wind_kmh": 8.5,
        "wind_dir": 0.0,
        "cloud_pct": 75.0
      }
    },
    {
      "type": "Feature",
      "geometry": {
        "type": "Point",
        "coordinates": [
          97.009911990332,
          4.815409756944025
        ]
      },
      "properties": {
        "location_name": "GPM3",
        "slug": "gpm3",
        "date": "Kamis, 6 Agustus 2026",
        "date_iso": "2026-08-06",
        "relative": "Hari ini",
        "hour": "10:00",
        "rain_probability": 0,
        "risk_score": 34,
        "risk_class": "watch",
        "risk_label": "Perlu diperhatikan",
        "condition": "Berawan",
        "temp_c": 21.1,
        "humidity_pct": 68.0,
        "heat_index_c": 21.1,
        "wind_kmh": 9.4,
        "wind_dir": 0.0,
        "cloud_pct": 75.0
      }
    },
    {
      "type": "Feature",
      "geometry": {
        "type": "Point",
        "coordinates": [
          97.009911990332,
          4.815409756944025
        ]
      },
      "properties": {
        "location_name": "GPM3",
        "slug": "gpm3",
        "date": "Kamis, 6 Agustus 2026",
        "date_iso": "2026-08-06",
        "relative": "Hari ini",
        "hour": "11:00",
        "rain_probability": 0,
        "risk_score": 38,
        "risk_class": "watch",
        "risk_label": "Perlu diperhatikan",
        "condition": "Berawan",
        "temp_c": 21.9,
        "humidity_pct": 64.0,
        "heat_index_c": 21.9,
        "wind_kmh": 10.3,
        "wind_dir": 0.0,
        "cloud_pct": 75.0
      }
    },
    {
      "type": "Feature",
      "geometry": {
        "type": "Point",
        "coordinates": [
          97.009911990332,
          4.815409756944025
        ]
      },
      "properties": {
        "location_name": "GPM3",
        "slug": "gpm3",
        "date": "Kamis, 6 Agustus 2026",
        "date_iso": "2026-08-06",
        "relative": "Hari ini",
        "hour": "12:00",
        "rain_probability": 0,
        "risk_score": 36,
        "risk_class": "watch",
        "risk_label": "Perlu diperhatikan",
        "condition": "Berawan",
        "temp_c": 22.4,
        "humidity_pct": 62.0,
        "heat_index_c": 22.4,
        "wind_kmh": 10.0,
        "wind_dir": 0.0,
        "cloud_pct": 75.0
      }
    },
    {
      "type": "Feature",
      "geometry": {
        "type": "Point",
        "coordinates": [
          97.009911990332,
          4.815409756944025
        ]
      },
      "properties": {
        "location_name": "GPM3",
        "slug": "gpm3",
        "date": "Kamis, 6 Agustus 2026",
        "date_iso": "2026-08-06",
        "relative": "Hari ini",
        "hour": "13:00",
        "rain_probability": 0,
        "risk_score": 39,
        "risk_class": "watch",
        "risk_label": "Perlu diperhatikan",
        "condition": "Berawan",
        "temp_c": 22.6,
        "humidity_pct": 58.0,
        "heat_index_c": 22.6,
        "wind_kmh": 10.9,
        "wind_dir": 0.0,
        "cloud_pct": 75.0
      }
    },
    {
      "type": "Feature",
      "geometry": {
        "type": "Point",
        "coordinates": [
          97.009911990332,
          4.815409756944025
        ]
      },
      "properties": {
        "location_name": "GPM3",
        "slug": "gpm3",
        "date": "Kamis, 6 Agustus 2026",
        "date_iso": "2026-08-06",
        "relative": "Hari ini",
        "hour": "14:00",
        "rain_probability": 0,
        "risk_score": 46,
        "risk_class": "watch",
        "risk_label": "Perlu diperhatikan",
        "condition": "Berawan",
        "temp_c": 22.7,
        "humidity_pct": 56.0,
        "heat_index_c": 22.7,
        "wind_kmh": 10.3,
        "wind_dir": 0.0,
        "cloud_pct": 75.0
      }
    },
    {
      "type": "Feature",
      "geometry": {
        "type": "Point",
        "coordinates": [
          97.009911990332,
          4.815409756944025
        ]
      },
      "properties": {
        "location_name": "GPM3",
        "slug": "gpm3",
        "date": "Kamis, 6 Agustus 2026",
        "date_iso": "2026-08-06",
        "relative": "Hari ini",
        "hour": "15:00",
        "rain_probability": 0,
        "risk_score": 46,
        "risk_class": "watch",
        "risk_label": "Perlu diperhatikan",
        "condition": "Berawan",
        "temp_c": 22.6,
        "humidity_pct": 58.0,
        "heat_index_c": 22.6,
        "wind_kmh": 8.4,
        "wind_dir": 0.0,
        "cloud_pct": 75.0
      }
    },
    {
      "type": "Feature",
      "geometry": {
        "type": "Point",
        "coordinates": [
          97.009911990332,
          4.815409756944025
        ]
      },
      "properties": {
        "location_name": "GPM3",
        "slug": "gpm3",
        "date": "Kamis, 6 Agustus 2026",
        "date_iso": "2026-08-06",
        "relative": "Hari ini",
        "hour": "16:00",
        "rain_probability": 0,
        "risk_score": 46,
        "risk_class": "watch",
        "risk_label": "Perlu diperhatikan",
        "condition": "Berawan",
        "temp_c": 22.2,
        "humidity_pct": 60.0,
        "heat_index_c": 22.2,
        "wind_kmh": 7.6,
        "wind_dir": 0.0,
        "cloud_pct": 75.0
      }
    },
    {
      "type": "Feature",
      "geometry": {
        "type": "Point",
        "coordinates": [
          97.009911990332,
          4.815409756944025
        ]
      },
      "properties": {
        "location_name": "GPM3",
        "slug": "gpm3",
        "date": "Kamis, 6 Agustus 2026",
        "date_iso": "2026-08-06",
        "relative": "Hari ini",
        "hour": "17:00",
        "rain_probability": 0,
        "risk_score": 38,
        "risk_class": "watch",
        "risk_label": "Perlu diperhatikan",
        "condition": "Berawan",
        "temp_c": 20.9,
        "humidity_pct": 66.0,
        "heat_index_c": 20.9,
        "wind_kmh": 6.9,
        "wind_dir": 0.0,
        "cloud_pct": 75.0
      }
    },
    {
      "type": "Feature",
      "geometry": {
        "type": "Point",
        "coordinates": [
          97.009911990332,
          4.815409756944025
        ]
      },
      "properties": {
        "location_name": "GPM3",
        "slug": "gpm3",
        "date": "Kamis, 6 Agustus 2026",
        "date_iso": "2026-08-06",
        "relative": "Hari ini",
        "hour": "18:00",
        "rain_probability": 0,
        "risk_score": 33,
        "risk_class": "watch",
        "risk_label": "Perlu diperhatikan",
        "condition": "Berawan",
        "temp_c": 19.2,
        "humidity_pct": 74.0,
        "heat_index_c": 19.2,
        "wind_kmh": 6.1,
        "wind_dir": 0.0,
        "cloud_pct": 75.0
      }
    },
    {
      "type": "Feature",
      "geometry": {
        "type": "Point",
        "coordinates": [
          97.009911990332,
          4.815409756944025
        ]
      },
      "properties": {
        "location_name": "GPM3",
        "slug": "gpm3",
        "date": "Kamis, 6 Agustus 2026",
        "date_iso": "2026-08-06",
        "relative": "Hari ini",
        "hour": "19:00",
        "rain_probability": 0,
        "risk_score": 29,
        "risk_class": "watch",
        "risk_label": "Perlu diperhatikan",
        "condition": "Berawan",
        "temp_c": 18.4,
        "humidity_pct": 81.0,
        "heat_index_c": 18.4,
        "wind_kmh": 6.1,
        "wind_dir": 0.0,
        "cloud_pct": 75.0
      }
    },
    {
      "type": "Feature",
      "geometry": {
        "type": "Point",
        "coordinates": [
          97.009911990332,
          4.815409756944025
        ]
      },
      "properties": {
        "location_name": "GPM3",
        "slug": "gpm3",
        "date": "Kamis, 6 Agustus 2026",
        "date_iso": "2026-08-06",
        "relative": "Hari ini",
        "hour": "20:00",
        "rain_probability": 0,
        "risk_score": 24,
        "risk_class": "safe",
        "risk_label": "Aman",
        "condition": "Berawan",
        "temp_c": 17.6,
        "humidity_pct": 84.0,
        "heat_index_c": 17.6,
        "wind_kmh": 7.1,
        "wind_dir": 0.0,
        "cloud_pct": 75.0
      }
    },
    {
      "type": "Feature",
      "geometry": {
        "type": "Point",
        "coordinates": [
          97.009911990332,
          4.815409756944025
        ]
      },
      "properties": {
        "location_name": "GPM3",
        "slug": "gpm3",
        "date": "Kamis, 6 Agustus 2026",
        "date_iso": "2026-08-06",
        "relative": "Hari ini",
        "hour": "21:00",
        "rain_probability": 0,
        "risk_score": 24,
        "risk_class": "safe",
        "risk_label": "Aman",
        "condition": "Berawan",
        "temp_c": 17.0,
        "humidity_pct": 85.0,
        "heat_index_c": 17.0,
        "wind_kmh": 7.7,
        "wind_dir": 0.0,
        "cloud_pct": 75.0
      }
    },
    {
      "type": "Feature",
      "geometry": {
        "type": "Point",
        "coordinates": [
          97.009911990332,
          4.815409756944025
        ]
      },
      "properties": {
        "location_name": "GPM3",
        "slug": "gpm3",
        "date": "Kamis, 6 Agustus 2026",
        "date_iso": "2026-08-06",
        "relative": "Hari ini",
        "hour": "22:00",
        "rain_probability": 0,
        "risk_score": 25,
        "risk_class": "safe",
        "risk_label": "Aman",
        "condition": "Berawan",
        "temp_c": 16.6,
        "humidity_pct": 86.0,
        "heat_index_c": 16.6,
        "wind_kmh": 7.6,
        "wind_dir": 0.0,
        "cloud_pct": 75.0
      }
    },
    {
      "type": "Feature",
      "geometry": {
        "type": "Point",
        "coordinates": [
          97.009911990332,
          4.815409756944025
        ]
      },
      "properties": {
        "location_name": "GPM3",
        "slug": "gpm3",
        "date": "Kamis, 6 Agustus 2026",
        "date_iso": "2026-08-06",
        "relative": "Hari ini",
        "hour": "23:00",
        "rain_probability": 0,
        "risk_score": 26,
        "risk_class": "watch",
        "risk_label": "Perlu diperhatikan",
        "condition": "Berawan",
        "temp_c": 16.5,
        "humidity_pct": 91.0,
        "heat_index_c": 16.5,
        "wind_kmh": 7.8,
        "wind_dir": 0.0,
        "cloud_pct": 75.0
      }
    },
    {
      "type": "Feature",
      "geometry": {
        "type": "Point",
        "coordinates": [
          97.009911990332,
          4.815409756944025
        ]
      },
      "properties": {
        "location_name": "GPM3",
        "slug": "gpm3",
        "date": "Jumat, 7 Agustus 2026",
        "date_iso": "2026-08-07",
        "relative": "Besok",
        "hour": "00:00",
        "rain_probability": 0,
        "risk_score": 26,
        "risk_class": "watch",
        "risk_label": "Perlu diperhatikan",
        "condition": "Berawan",
        "temp_c": 16.0,
        "humidity_pct": 91.0,
        "heat_index_c": 16.0,
        "wind_kmh": 7.7,
        "wind_dir": 0.0,
        "cloud_pct": 75.0
      }
    },
    {
      "type": "Feature",
      "geometry": {
        "type": "Point",
        "coordinates": [
          97.009911990332,
          4.815409756944025
        ]
      },
      "properties": {
        "location_name": "GPM3",
        "slug": "gpm3",
        "date": "Jumat, 7 Agustus 2026",
        "date_iso": "2026-08-07",
        "relative": "Besok",
        "hour": "01:00",
        "rain_probability": 0,
        "risk_score": 26,
        "risk_class": "watch",
        "risk_label": "Perlu diperhatikan",
        "condition": "Berawan",
        "temp_c": 16.0,
        "humidity_pct": 91.0,
        "heat_index_c": 16.0,
        "wind_kmh": 7.6,
        "wind_dir": 0.0,
        "cloud_pct": 75.0
      }
    },
    {
      "type": "Feature",
      "geometry": {
        "type": "Point",
        "coordinates": [
          97.009911990332,
          4.815409756944025
        ]
      },
      "properties": {
        "location_name": "GPM3",
        "slug": "gpm3",
        "date": "Jumat, 7 Agustus 2026",
        "date_iso": "2026-08-07",
        "relative": "Besok",
        "hour": "02:00",
        "rain_probability": 0,
        "risk_score": 26,
        "risk_class": "watch",
        "risk_label": "Perlu diperhatikan",
        "condition": "Berawan",
        "temp_c": 16.0,
        "humidity_pct": 90.0,
        "heat_index_c": 16.0,
        "wind_kmh": 7.9,
        "wind_dir": 0.0,
        "cloud_pct": 75.0
      }
    },
    {
      "type": "Feature",
      "geometry": {
        "type": "Point",
        "coordinates": [
          97.009911990332,
          4.815409756944025
        ]
      },
      "properties": {
        "location_name": "GPM3",
        "slug": "gpm3",
        "date": "Jumat, 7 Agustus 2026",
        "date_iso": "2026-08-07",
        "relative": "Besok",
        "hour": "03:00",
        "rain_probability": 0,
        "risk_score": 26,
        "risk_class": "watch",
        "risk_label": "Perlu diperhatikan",
        "condition": "Berawan",
        "temp_c": 15.9,
        "humidity_pct": 92.0,
        "heat_index_c": 15.9,
        "wind_kmh": 7.6,
        "wind_dir": 0.0,
        "cloud_pct": 75.0
      }
    },
    {
      "type": "Feature",
      "geometry": {
        "type": "Point",
        "coordinates": [
          97.009911990332,
          4.815409756944025
        ]
      },
      "properties": {
        "location_name": "GPM3",
        "slug": "gpm3",
        "date": "Jumat, 7 Agustus 2026",
        "date_iso": "2026-08-07",
        "relative": "Besok",
        "hour": "04:00",
        "rain_probability": 0,
        "risk_score": 26,
        "risk_class": "watch",
        "risk_label": "Perlu diperhatikan",
        "condition": "Berawan",
        "temp_c": 15.6,
        "humidity_pct": 91.0,
        "heat_index_c": 15.6,
        "wind_kmh": 8.0,
        "wind_dir": 0.0,
        "cloud_pct": 75.0
      }
    },
    {
      "type": "Feature",
      "geometry": {
        "type": "Point",
        "coordinates": [
          97.009911990332,
          4.815409756944025
        ]
      },
      "properties": {
        "location_name": "GPM3",
        "slug": "gpm3",
        "date": "Jumat, 7 Agustus 2026",
        "date_iso": "2026-08-07",
        "relative": "Besok",
        "hour": "05:00",
        "rain_probability": 0,
        "risk_score": 26,
        "risk_class": "watch",
        "risk_label": "Perlu diperhatikan",
        "condition": "Berawan",
        "temp_c": 15.4,
        "humidity_pct": 91.0,
        "heat_index_c": 15.4,
        "wind_kmh": 7.7,
        "wind_dir": 0.0,
        "cloud_pct": 75.0
      }
    },
    {
      "type": "Feature",
      "geometry": {
        "type": "Point",
        "coordinates": [
          97.009911990332,
          4.815409756944025
        ]
      },
      "properties": {
        "location_name": "GPM3",
        "slug": "gpm3",
        "date": "Jumat, 7 Agustus 2026",
        "date_iso": "2026-08-07",
        "relative": "Besok",
        "hour": "06:00",
        "rain_probability": 0,
        "risk_score": 26,
        "risk_class": "watch",
        "risk_label": "Perlu diperhatikan",
        "condition": "Berawan",
        "temp_c": 15.2,
        "humidity_pct": 92.0,
        "heat_index_c": 15.2,
        "wind_kmh": 8.3,
        "wind_dir": 0.0,
        "cloud_pct": 75.0
      }
    },
    {
      "type": "Feature",
      "geometry": {
        "type": "Point",
        "coordinates": [
          97.009911990332,
          4.815409756944025
        ]
      },
      "properties": {
        "location_name": "GPM3",
        "slug": "gpm3",
        "date": "Jumat, 7 Agustus 2026",
        "date_iso": "2026-08-07",
        "relative": "Besok",
        "hour": "07:00",
        "rain_probability": 0,
        "risk_score": 25,
        "risk_class": "watch",
        "risk_label": "Perlu diperhatikan",
        "condition": "Berawan",
        "temp_c": 16.0,
        "humidity_pct": 89.0,
        "heat_index_c": 16.0,
        "wind_kmh": 8.3,
        "wind_dir": 0.0,
        "cloud_pct": 75.0
      }
    },
    {
      "type": "Feature",
      "geometry": {
        "type": "Point",
        "coordinates": [
          97.009911990332,
          4.815409756944025
        ]
      },
      "properties": {
        "location_name": "GPM3",
        "slug": "gpm3",
        "date": "Jumat, 7 Agustus 2026",
        "date_iso": "2026-08-07",
        "relative": "Besok",
        "hour": "08:00",
        "rain_probability": 0,
        "risk_score": 24,
        "risk_class": "safe",
        "risk_label": "Aman",
        "condition": "Berawan",
        "temp_c": 17.4,
        "humidity_pct": 84.0,
        "heat_index_c": 17.4,
        "wind_kmh": 7.1,
        "wind_dir": 0.0,
        "cloud_pct": 75.0
      }
    },
    {
      "type": "Feature",
      "geometry": {
        "type": "Point",
        "coordinates": [
          97.009911990332,
          4.815409756944025
        ]
      },
      "properties": {
        "location_name": "GPM3",
        "slug": "gpm3",
        "date": "Jumat, 7 Agustus 2026",
        "date_iso": "2026-08-07",
        "relative": "Besok",
        "hour": "09:00",
        "rain_probability": 0,
        "risk_score": 25,
        "risk_class": "safe",
        "risk_label": "Aman",
        "condition": "Berawan",
        "temp_c": 20.0,
        "humidity_pct": 76.0,
        "heat_index_c": 20.0,
        "wind_kmh": 6.9,
        "wind_dir": 0.0,
        "cloud_pct": 75.0
      }
    },
    {
      "type": "Feature",
      "geometry": {
        "type": "Point",
        "coordinates": [
          97.009911990332,
          4.815409756944025
        ]
      },
      "properties": {
        "location_name": "GPM3",
        "slug": "gpm3",
        "date": "Jumat, 7 Agustus 2026",
        "date_iso": "2026-08-07",
        "relative": "Besok",
        "hour": "10:00",
        "rain_probability": 0,
        "risk_score": 29,
        "risk_class": "watch",
        "risk_label": "Perlu diperhatikan",
        "condition": "Berawan",
        "temp_c": 21.3,
        "humidity_pct": 70.0,
        "heat_index_c": 21.3,
        "wind_kmh": 6.6,
        "wind_dir": 0.0,
        "cloud_pct": 75.0
      }
    },
    {
      "type": "Feature",
      "geometry": {
        "type": "Point",
        "coordinates": [
          97.009911990332,
          4.815409756944025
        ]
      },
      "properties": {
        "location_name": "GPM3",
        "slug": "gpm3",
        "date": "Jumat, 7 Agustus 2026",
        "date_iso": "2026-08-07",
        "relative": "Besok",
        "hour": "11:00",
        "rain_probability": 0,
        "risk_score": 39,
        "risk_class": "watch",
        "risk_label": "Perlu diperhatikan",
        "condition": "Berawan",
        "temp_c": 22.1,
        "humidity_pct": 63.0,
        "heat_index_c": 22.1,
        "wind_kmh": 7.7,
        "wind_dir": 0.0,
        "cloud_pct": 75.0
      }
    },
    {
      "type": "Feature",
      "geometry": {
        "type": "Point",
        "coordinates": [
          97.009911990332,
          4.815409756944025
        ]
      },
      "properties": {
        "location_name": "GPM3",
        "slug": "gpm3",
        "date": "Jumat, 7 Agustus 2026",
        "date_iso": "2026-08-07",
        "relative": "Besok",
        "hour": "12:00",
        "rain_probability": 0,
        "risk_score": 41,
        "risk_class": "watch",
        "risk_label": "Perlu diperhatikan",
        "condition": "Berawan",
        "temp_c": 23.2,
        "humidity_pct": 60.0,
        "heat_index_c": 23.2,
        "wind_kmh": 7.6,
        "wind_dir": 0.0,
        "cloud_pct": 75.0
      }
    },
    {
      "type": "Feature",
      "geometry": {
        "type": "Point",
        "coordinates": [
          97.009911990332,
          4.815409756944025
        ]
      },
      "properties": {
        "location_name": "GPM3",
        "slug": "gpm3",
        "date": "Jumat, 7 Agustus 2026",
        "date_iso": "2026-08-07",
        "relative": "Besok",
        "hour": "13:00",
        "rain_probability": 13.8,
        "risk_score": 41,
        "risk_class": "watch",
        "risk_label": "Perlu diperhatikan",
        "condition": "Berawan",
        "temp_c": 22.9,
        "humidity_pct": 61.0,
        "heat_index_c": 22.9,
        "wind_kmh": 6.5,
        "wind_dir": 0.0,
        "cloud_pct": 75.0
      }
    },
    {
      "type": "Feature",
      "geometry": {
        "type": "Point",
        "coordinates": [
          97.009911990332,
          4.815409756944025
        ]
      },
      "properties": {
        "location_name": "GPM3",
        "slug": "gpm3",
        "date": "Jumat, 7 Agustus 2026",
        "date_iso": "2026-08-07",
        "relative": "Besok",
        "hour": "14:00",
        "rain_probability": 28.9,
        "risk_score": 37,
        "risk_class": "watch",
        "risk_label": "Perlu diperhatikan",
        "condition": "Berawan",
        "temp_c": 22.6,
        "humidity_pct": 62.0,
        "heat_index_c": 22.6,
        "wind_kmh": 5.8,
        "wind_dir": 0.0,
        "cloud_pct": 75.0
      }
    },
    {
      "type": "Feature",
      "geometry": {
        "type": "Point",
        "coordinates": [
          97.009911990332,
          4.815409756944025
        ]
      },
      "properties": {
        "location_name": "GPM3",
        "slug": "gpm3",
        "date": "Jumat, 7 Agustus 2026",
        "date_iso": "2026-08-07",
        "relative": "Besok",
        "hour": "15:00",
        "rain_probability": 56.7,
        "risk_score": 57,
        "risk_class": "rain",
        "risk_label": "Waspada",
        "condition": "Hujan Ringan",
        "temp_c": 22.6,
        "humidity_pct": 64.0,
        "heat_index_c": 22.6,
        "wind_kmh": 7.4,
        "wind_dir": 0.0,
        "cloud_pct": 88.0
      }
    },
    {
      "type": "Feature",
      "geometry": {
        "type": "Point",
        "coordinates": [
          97.009911990332,
          4.815409756944025
        ]
      },
      "properties": {
        "location_name": "GPM3",
        "slug": "gpm3",
        "date": "Jumat, 7 Agustus 2026",
        "date_iso": "2026-08-07",
        "relative": "Besok",
        "hour": "16:00",
        "rain_probability": 58.6,
        "risk_score": 59,
        "risk_class": "rain",
        "risk_label": "Waspada",
        "condition": "Hujan Ringan",
        "temp_c": 22.1,
        "humidity_pct": 71.0,
        "heat_index_c": 22.1,
        "wind_kmh": 6.3,
        "wind_dir": 0.0,
        "cloud_pct": 88.0
      }
    },
    {
      "type": "Feature",
      "geometry": {
        "type": "Point",
        "coordinates": [
          97.009911990332,
          4.815409756944025
        ]
      },
      "properties": {
        "location_name": "GPM3",
        "slug": "gpm3",
        "date": "Jumat, 7 Agustus 2026",
        "date_iso": "2026-08-07",
        "relative": "Besok",
        "hour": "17:00",
        "rain_probability": 56.7,
        "risk_score": 57,
        "risk_class": "rain",
        "risk_label": "Waspada",
        "condition": "Hujan Ringan",
        "temp_c": 21.0,
        "humidity_pct": 75.0,
        "heat_index_c": 21.0,
        "wind_kmh": 6.4,
        "wind_dir": 0.0,
        "cloud_pct": 88.0
      }
    },
    {
      "type": "Feature",
      "geometry": {
        "type": "Point",
        "coordinates": [
          97.009911990332,
          4.815409756944025
        ]
      },
      "properties": {
        "location_name": "GPM3",
        "slug": "gpm3",
        "date": "Jumat, 7 Agustus 2026",
        "date_iso": "2026-08-07",
        "relative": "Besok",
        "hour": "18:00",
        "rain_probability": 43.3,
        "risk_score": 43,
        "risk_class": "watch",
        "risk_label": "Perlu diperhatikan",
        "condition": "Hujan Ringan",
        "temp_c": 19.5,
        "humidity_pct": 80.0,
        "heat_index_c": 19.5,
        "wind_kmh": 5.9,
        "wind_dir": 0.0,
        "cloud_pct": 75.0
      }
    },
    {
      "type": "Feature",
      "geometry": {
        "type": "Point",
        "coordinates": [
          97.009911990332,
          4.815409756944025
        ]
      },
      "properties": {
        "location_name": "GPM3",
        "slug": "gpm3",
        "date": "Jumat, 7 Agustus 2026",
        "date_iso": "2026-08-07",
        "relative": "Besok",
        "hour": "19:00",
        "rain_probability": 13.8,
        "risk_score": 26,
        "risk_class": "watch",
        "risk_label": "Perlu diperhatikan",
        "condition": "Berawan",
        "temp_c": 18.1,
        "humidity_pct": 87.0,
        "heat_index_c": 18.1,
        "wind_kmh": 5.9,
        "wind_dir": 0.0,
        "cloud_pct": 75.0
      }
    },
    {
      "type": "Feature",
      "geometry": {
        "type": "Point",
        "coordinates": [
          97.009911990332,
          4.815409756944025
        ]
      },
      "properties": {
        "location_name": "GPM3",
        "slug": "gpm3",
        "date": "Jumat, 7 Agustus 2026",
        "date_iso": "2026-08-07",
        "relative": "Besok",
        "hour": "20:00",
        "rain_probability": 14.4,
        "risk_score": 27,
        "risk_class": "watch",
        "risk_label": "Perlu diperhatikan",
        "condition": "Berawan",
        "temp_c": 17.4,
        "humidity_pct": 89.0,
        "heat_index_c": 17.4,
        "wind_kmh": 6.2,
        "wind_dir": 0.0,
        "cloud_pct": 75.0
      }
    },
    {
      "type": "Feature",
      "geometry": {
        "type": "Point",
        "coordinates": [
          97.009911990332,
          4.815409756944025
        ]
      },
      "properties": {
        "location_name": "GPM3",
        "slug": "gpm3",
        "date": "Jumat, 7 Agustus 2026",
        "date_iso": "2026-08-07",
        "relative": "Besok",
        "hour": "21:00",
        "rain_probability": 14.4,
        "risk_score": 28,
        "risk_class": "watch",
        "risk_label": "Perlu diperhatikan",
        "condition": "Berawan",
        "temp_c": 16.7,
        "humidity_pct": 90.0,
        "heat_index_c": 16.7,
        "wind_kmh": 7.1,
        "wind_dir": 0.0,
        "cloud_pct": 75.0
      }
    },
    {
      "type": "Feature",
      "geometry": {
        "type": "Point",
        "coordinates": [
          97.009911990332,
          4.815409756944025
        ]
      },
      "properties": {
        "location_name": "GPM3",
        "slug": "gpm3",
        "date": "Jumat, 7 Agustus 2026",
        "date_iso": "2026-08-07",
        "relative": "Besok",
        "hour": "22:00",
        "rain_probability": 13.8,
        "risk_score": 28,
        "risk_class": "watch",
        "risk_label": "Perlu diperhatikan",
        "condition": "Cerah Berawan",
        "temp_c": 16.4,
        "humidity_pct": 90.0,
        "heat_index_c": 16.4,
        "wind_kmh": 7.8,
        "wind_dir": 0.0,
        "cloud_pct": 75.0
      }
    },
    {
      "type": "Feature",
      "geometry": {
        "type": "Point",
        "coordinates": [
          97.009911990332,
          4.815409756944025
        ]
      },
      "properties": {
        "location_name": "GPM3",
        "slug": "gpm3",
        "date": "Jumat, 7 Agustus 2026",
        "date_iso": "2026-08-07",
        "relative": "Besok",
        "hour": "23:00",
        "rain_probability": 14.4,
        "risk_score": 27,
        "risk_class": "watch",
        "risk_label": "Perlu diperhatikan",
        "condition": "Berawan",
        "temp_c": 15.9,
        "humidity_pct": 90.0,
        "heat_index_c": 15.9,
        "wind_kmh": 7.7,
        "wind_dir": 0.0,
        "cloud_pct": 75.0
      }
    },
    {
      "type": "Feature",
      "geometry": {
        "type": "Point",
        "coordinates": [
          97.009911990332,
          4.815409756944025
        ]
      },
      "properties": {
        "location_name": "GPM3",
        "slug": "gpm3",
        "date": "Sabtu, 8 Agustus 2026",
        "date_iso": "2026-08-08",
        "relative": "Lusa",
        "hour": "00:00",
        "rain_probability": 14.4,
        "risk_score": 27,
        "risk_class": "watch",
        "risk_label": "Perlu diperhatikan",
        "condition": "Berawan",
        "temp_c": 16.0,
        "humidity_pct": 92.0,
        "heat_index_c": 16.0,
        "wind_kmh": 6.8,
        "wind_dir": 0.0,
        "cloud_pct": 75.0
      }
    },
    {
      "type": "Feature",
      "geometry": {
        "type": "Point",
        "coordinates": [
          97.009911990332,
          4.815409756944025
        ]
      },
      "properties": {
        "location_name": "GPM3",
        "slug": "gpm3",
        "date": "Sabtu, 8 Agustus 2026",
        "date_iso": "2026-08-08",
        "relative": "Lusa",
        "hour": "01:00",
        "rain_probability": 13.8,
        "risk_score": 27,
        "risk_class": "watch",
        "risk_label": "Perlu diperhatikan",
        "condition": "Berawan",
        "temp_c": 16.0,
        "humidity_pct": 92.0,
        "heat_index_c": 16.0,
        "wind_kmh": 7.7,
        "wind_dir": 0.0,
        "cloud_pct": 75.0
      }
    },
    {
      "type": "Feature",
      "geometry": {
        "type": "Point",
        "coordinates": [
          97.009911990332,
          4.815409756944025
        ]
      },
      "properties": {
        "location_name": "GPM3",
        "slug": "gpm3",
        "date": "Sabtu, 8 Agustus 2026",
        "date_iso": "2026-08-08",
        "relative": "Lusa",
        "hour": "02:00",
        "rain_probability": 0,
        "risk_score": 26,
        "risk_class": "watch",
        "risk_label": "Perlu diperhatikan",
        "condition": "Berawan",
        "temp_c": 16.0,
        "humidity_pct": 92.0,
        "heat_index_c": 16.0,
        "wind_kmh": 7.7,
        "wind_dir": 0.0,
        "cloud_pct": 75.0
      }
    },
    {
      "type": "Feature",
      "geometry": {
        "type": "Point",
        "coordinates": [
          97.009911990332,
          4.815409756944025
        ]
      },
      "properties": {
        "location_name": "GPM3",
        "slug": "gpm3",
        "date": "Sabtu, 8 Agustus 2026",
        "date_iso": "2026-08-08",
        "relative": "Lusa",
        "hour": "03:00",
        "rain_probability": 0,
        "risk_score": 25,
        "risk_class": "safe",
        "risk_label": "Aman",
        "condition": "Cerah Berawan",
        "temp_c": 15.8,
        "humidity_pct": 93.0,
        "heat_index_c": 15.8,
        "wind_kmh": 8.2,
        "wind_dir": 0.0,
        "cloud_pct": 45.0
      }
    },
    {
      "type": "Feature",
      "geometry": {
        "type": "Point",
        "coordinates": [
          97.009911990332,
          4.815409756944025
        ]
      },
      "properties": {
        "location_name": "GPM3",
        "slug": "gpm3",
        "date": "Sabtu, 8 Agustus 2026",
        "date_iso": "2026-08-08",
        "relative": "Lusa",
        "hour": "04:00",
        "rain_probability": 0,
        "risk_score": 23,
        "risk_class": "safe",
        "risk_label": "Aman",
        "condition": "Cerah Berawan",
        "temp_c": 15.7,
        "humidity_pct": 93.0,
        "heat_index_c": 15.7,
        "wind_kmh": 7.8,
        "wind_dir": 0.0,
        "cloud_pct": 45.0
      }
    },
    {
      "type": "Feature",
      "geometry": {
        "type": "Point",
        "coordinates": [
          97.009911990332,
          4.815409756944025
        ]
      },
      "properties": {
        "location_name": "GPM3",
        "slug": "gpm3",
        "date": "Sabtu, 8 Agustus 2026",
        "date_iso": "2026-08-08",
        "relative": "Lusa",
        "hour": "05:00",
        "rain_probability": 0,
        "risk_score": 23,
        "risk_class": "safe",
        "risk_label": "Aman",
        "condition": "Cerah Berawan",
        "temp_c": 15.7,
        "humidity_pct": 93.0,
        "heat_index_c": 15.7,
        "wind_kmh": 7.9,
        "wind_dir": 0.0,
        "cloud_pct": 45.0
      }
    },
    {
      "type": "Feature",
      "geometry": {
        "type": "Point",
        "coordinates": [
          97.009911990332,
          4.815409756944025
        ]
      },
      "properties": {
        "location_name": "GPM3",
        "slug": "gpm3",
        "date": "Sabtu, 8 Agustus 2026",
        "date_iso": "2026-08-08",
        "relative": "Lusa",
        "hour": "06:00",
        "rain_probability": 0,
        "risk_score": 26,
        "risk_class": "watch",
        "risk_label": "Perlu diperhatikan",
        "condition": "Berawan",
        "temp_c": 15.8,
        "humidity_pct": 93.0,
        "heat_index_c": 15.8,
        "wind_kmh": 7.2,
        "wind_dir": 0.0,
        "cloud_pct": 75.0
      }
    },
    {
      "type": "Feature",
      "geometry": {
        "type": "Point",
        "coordinates": [
          97.009911990332,
          4.815409756944025
        ]
      },
      "properties": {
        "location_name": "GPM3",
        "slug": "gpm3",
        "date": "Sabtu, 8 Agustus 2026",
        "date_iso": "2026-08-08",
        "relative": "Lusa",
        "hour": "07:00",
        "rain_probability": 0,
        "risk_score": 26,
        "risk_class": "watch",
        "risk_label": "Perlu diperhatikan",
        "condition": "Berawan",
        "temp_c": 16.3,
        "humidity_pct": 91.0,
        "heat_index_c": 16.3,
        "wind_kmh": 6.9,
        "wind_dir": 0.0,
        "cloud_pct": 75.0
      }
    },
    {
      "type": "Feature",
      "geometry": {
        "type": "Point",
        "coordinates": [
          97.009911990332,
          4.815409756944025
        ]
      },
      "properties": {
        "location_name": "GPM3",
        "slug": "gpm3",
        "date": "Sabtu, 8 Agustus 2026",
        "date_iso": "2026-08-08",
        "relative": "Lusa",
        "hour": "08:00",
        "rain_probability": 14.4,
        "risk_score": 26,
        "risk_class": "watch",
        "risk_label": "Perlu diperhatikan",
        "condition": "Berawan",
        "temp_c": 17.4,
        "humidity_pct": 86.0,
        "heat_index_c": 17.4,
        "wind_kmh": 8.4,
        "wind_dir": 0.0,
        "cloud_pct": 75.0
      }
    },
    {
      "type": "Feature",
      "geometry": {
        "type": "Point",
        "coordinates": [
          97.009911990332,
          4.815409756944025
        ]
      },
      "properties": {
        "location_name": "GPM3",
        "slug": "gpm3",
        "date": "Sabtu, 8 Agustus 2026",
        "date_iso": "2026-08-08",
        "relative": "Lusa",
        "hour": "09:00",
        "rain_probability": 14.4,
        "risk_score": 32,
        "risk_class": "watch",
        "risk_label": "Perlu diperhatikan",
        "condition": "Berawan",
        "temp_c": 19.6,
        "humidity_pct": 72.0,
        "heat_index_c": 19.6,
        "wind_kmh": 7.9,
        "wind_dir": 0.0,
        "cloud_pct": 75.0
      }
    },
    {
      "type": "Feature",
      "geometry": {
        "type": "Point",
        "coordinates": [
          97.009911990332,
          4.815409756944025
        ]
      },
      "properties": {
        "location_name": "GPM3",
        "slug": "gpm3",
        "date": "Sabtu, 8 Agustus 2026",
        "date_iso": "2026-08-08",
        "relative": "Lusa",
        "hour": "10:00",
        "rain_probability": 13.8,
        "risk_score": 34,
        "risk_class": "watch",
        "risk_label": "Perlu diperhatikan",
        "condition": "Berawan",
        "temp_c": 21.3,
        "humidity_pct": 66.0,
        "heat_index_c": 21.3,
        "wind_kmh": 8.1,
        "wind_dir": 0.0,
        "cloud_pct": 75.0
      }
    },
    {
      "type": "Feature",
      "geometry": {
        "type": "Point",
        "coordinates": [
          97.009911990332,
          4.815409756944025
        ]
      },
      "properties": {
        "location_name": "GPM3",
        "slug": "gpm3",
        "date": "Sabtu, 8 Agustus 2026",
        "date_iso": "2026-08-08",
        "relative": "Lusa",
        "hour": "11:00",
        "rain_probability": 0,
        "risk_score": 36,
        "risk_class": "watch",
        "risk_label": "Perlu diperhatikan",
        "condition": "Berawan",
        "temp_c": 22.5,
        "humidity_pct": 63.0,
        "heat_index_c": 22.5,
        "wind_kmh": 7.2,
        "wind_dir": 0.0,
        "cloud_pct": 75.0
      }
    },
    {
      "type": "Feature",
      "geometry": {
        "type": "Point",
        "coordinates": [
          97.009911990332,
          4.815409756944025
        ]
      },
      "properties": {
        "location_name": "GPM3",
        "slug": "gpm3",
        "date": "Sabtu, 8 Agustus 2026",
        "date_iso": "2026-08-08",
        "relative": "Lusa",
        "hour": "12:00",
        "rain_probability": 0,
        "risk_score": 34,
        "risk_class": "watch",
        "risk_label": "Perlu diperhatikan",
        "condition": "Berawan",
        "temp_c": 23.3,
        "humidity_pct": 59.0,
        "heat_index_c": 23.3,
        "wind_kmh": 8.8,
        "wind_dir": 0.0,
        "cloud_pct": 75.0
      }
    },
    {
      "type": "Feature",
      "geometry": {
        "type": "Point",
        "coordinates": [
          97.009911990332,
          4.815409756944025
        ]
      },
      "properties": {
        "location_name": "GPM3",
        "slug": "gpm3",
        "date": "Sabtu, 8 Agustus 2026",
        "date_iso": "2026-08-08",
        "relative": "Lusa",
        "hour": "13:00",
        "rain_probability": 13.8,
        "risk_score": 33,
        "risk_class": "watch",
        "risk_label": "Perlu diperhatikan",
        "condition": "Berawan",
        "temp_c": 23.6,
        "humidity_pct": 58.0,
        "heat_index_c": 23.6,
        "wind_kmh": 10.1,
        "wind_dir": 0.0,
        "cloud_pct": 75.0
      }
    },
    {
      "type": "Feature",
      "geometry": {
        "type": "Point",
        "coordinates": [
          97.009911990332,
          4.815409756944025
        ]
      },
      "properties": {
        "location_name": "GPM3",
        "slug": "gpm3",
        "date": "Sabtu, 8 Agustus 2026",
        "date_iso": "2026-08-08",
        "relative": "Lusa",
        "hour": "14:00",
        "rain_probability": 28.9,
        "risk_score": 32,
        "risk_class": "watch",
        "risk_label": "Perlu diperhatikan",
        "condition": "Berawan",
        "temp_c": 23.8,
        "humidity_pct": 63.0,
        "heat_index_c": 23.8,
        "wind_kmh": 11.3,
        "wind_dir": 0.0,
        "cloud_pct": 75.0
      }
    },
    {
      "type": "Feature",
      "geometry": {
        "type": "Point",
        "coordinates": [
          97.009911990332,
          4.815409756944025
        ]
      },
      "properties": {
        "location_name": "GPM3",
        "slug": "gpm3",
        "date": "Sabtu, 8 Agustus 2026",
        "date_iso": "2026-08-08",
        "relative": "Lusa",
        "hour": "15:00",
        "rain_probability": 28.9,
        "risk_score": 31,
        "risk_class": "watch",
        "risk_label": "Perlu diperhatikan",
        "condition": "Berawan",
        "temp_c": 23.2,
        "humidity_pct": 64.0,
        "heat_index_c": 23.2,
        "wind_kmh": 8.1,
        "wind_dir": 0.0,
        "cloud_pct": 75.0
      }
    },
    {
      "type": "Feature",
      "geometry": {
        "type": "Point",
        "coordinates": [
          97.009911990332,
          4.815409756944025
        ]
      },
      "properties": {
        "location_name": "GPM3",
        "slug": "gpm3",
        "date": "Sabtu, 8 Agustus 2026",
        "date_iso": "2026-08-08",
        "relative": "Lusa",
        "hour": "16:00",
        "rain_probability": 27.6,
        "risk_score": 30,
        "risk_class": "watch",
        "risk_label": "Perlu diperhatikan",
        "condition": "Berawan",
        "temp_c": 23.0,
        "humidity_pct": 66.0,
        "heat_index_c": 23.0,
        "wind_kmh": 8.1,
        "wind_dir": 0.0,
        "cloud_pct": 75.0
      }
    },
    {
      "type": "Feature",
      "geometry": {
        "type": "Point",
        "coordinates": [
          97.009911990332,
          4.815409756944025
        ]
      },
      "properties": {
        "location_name": "GPM3",
        "slug": "gpm3",
        "date": "Sabtu, 8 Agustus 2026",
        "date_iso": "2026-08-08",
        "relative": "Lusa",
        "hour": "17:00",
        "rain_probability": 43.3,
        "risk_score": 43,
        "risk_class": "watch",
        "risk_label": "Perlu diperhatikan",
        "condition": "Berawan",
        "temp_c": 22.0,
        "humidity_pct": 69.0,
        "heat_index_c": 22.0,
        "wind_kmh": 8.0,
        "wind_dir": 0.0,
        "cloud_pct": 75.0
      }
    },
    {
      "type": "Feature",
      "geometry": {
        "type": "Point",
        "coordinates": [
          97.009911990332,
          4.815409756944025
        ]
      },
      "properties": {
        "location_name": "GPM3",
        "slug": "gpm3",
        "date": "Sabtu, 8 Agustus 2026",
        "date_iso": "2026-08-08",
        "relative": "Lusa",
        "hour": "18:00",
        "rain_probability": 43.3,
        "risk_score": 43,
        "risk_class": "watch",
        "risk_label": "Perlu diperhatikan",
        "condition": "Berawan",
        "temp_c": 19.6,
        "humidity_pct": 77.0,
        "heat_index_c": 19.6,
        "wind_kmh": 5.9,
        "wind_dir": 0.0,
        "cloud_pct": 75.0
      }
    },
    {
      "type": "Feature",
      "geometry": {
        "type": "Point",
        "coordinates": [
          97.009911990332,
          4.815409756944025
        ]
      },
      "properties": {
        "location_name": "GPM3",
        "slug": "gpm3",
        "date": "Sabtu, 8 Agustus 2026",
        "date_iso": "2026-08-08",
        "relative": "Lusa",
        "hour": "19:00",
        "rain_probability": 27.6,
        "risk_score": 34,
        "risk_class": "watch",
        "risk_label": "Perlu diperhatikan",
        "condition": "Berawan",
        "temp_c": 18.2,
        "humidity_pct": 89.0,
        "heat_index_c": 18.2,
        "wind_kmh": 3.0,
        "wind_dir": 0.0,
        "cloud_pct": 75.0
      }
    },
    {
      "type": "Feature",
      "geometry": {
        "type": "Point",
        "coordinates": [
          97.009911990332,
          4.815409756944025
        ]
      },
      "properties": {
        "location_name": "GPM3",
        "slug": "gpm3",
        "date": "Sabtu, 8 Agustus 2026",
        "date_iso": "2026-08-08",
        "relative": "Lusa",
        "hour": "20:00",
        "rain_probability": 0,
        "risk_score": 25,
        "risk_class": "watch",
        "risk_label": "Perlu diperhatikan",
        "condition": "Berawan",
        "temp_c": 18.0,
        "humidity_pct": 89.0,
        "heat_index_c": 18.0,
        "wind_kmh": 6.2,
        "wind_dir": 0.0,
        "cloud_pct": 75.0
      }
    },
    {
      "type": "Feature",
      "geometry": {
        "type": "Point",
        "coordinates": [
          97.009911990332,
          4.815409756944025
        ]
      },
      "properties": {
        "location_name": "GPM3",
        "slug": "gpm3",
        "date": "Sabtu, 8 Agustus 2026",
        "date_iso": "2026-08-08",
        "relative": "Lusa",
        "hour": "21:00",
        "rain_probability": 0,
        "risk_score": 26,
        "risk_class": "watch",
        "risk_label": "Perlu diperhatikan",
        "condition": "Berawan",
        "temp_c": 17.0,
        "humidity_pct": 90.0,
        "heat_index_c": 17.0,
        "wind_kmh": 5.6,
        "wind_dir": 0.0,
        "cloud_pct": 75.0
      }
    },
    {
      "type": "Feature",
      "geometry": {
        "type": "Point",
        "coordinates": [
          97.009911990332,
          4.815409756944025
        ]
      },
      "properties": {
        "location_name": "GPM3",
        "slug": "gpm3",
        "date": "Sabtu, 8 Agustus 2026",
        "date_iso": "2026-08-08",
        "relative": "Lusa",
        "hour": "22:00",
        "rain_probability": 0,
        "risk_score": 26,
        "risk_class": "watch",
        "risk_label": "Perlu diperhatikan",
        "condition": "Berawan",
        "temp_c": 17.0,
        "humidity_pct": 92.0,
        "heat_index_c": 17.0,
        "wind_kmh": 6.8,
        "wind_dir": 0.0,
        "cloud_pct": 75.0
      }
    },
    {
      "type": "Feature",
      "geometry": {
        "type": "Point",
        "coordinates": [
          97.009911990332,
          4.815409756944025
        ]
      },
      "properties": {
        "location_name": "GPM3",
        "slug": "gpm3",
        "date": "Sabtu, 8 Agustus 2026",
        "date_iso": "2026-08-08",
        "relative": "Lusa",
        "hour": "23:00",
        "rain_probability": 0,
        "risk_score": 26,
        "risk_class": "watch",
        "risk_label": "Perlu diperhatikan",
        "condition": "Berawan",
        "temp_c": 16.5,
        "humidity_pct": 93.0,
        "heat_index_c": 16.5,
        "wind_kmh": 6.1,
        "wind_dir": 0.0,
        "cloud_pct": 75.0
      }
    }
  ]
}