{
  "type": "FeatureCollection",
  "features": [
    {
      "type": "Feature",
      "geometry": {
        "type": "Point",
        "coordinates": [
          96.85017949357464,
          4.649902718619309
        ]
      },
      "properties": {
        "location_name": "GPM Grid TamaTue",
        "slug": "gpm_grid_tamatue",
        "date": "Sabtu, 29 Agustus 2026",
        "date_iso": "2026-08-29",
        "relative": "Hari ini",
        "hour": "00:00",
        "rain_probability": 0,
        "risk_score": 25,
        "risk_class": "safe",
        "risk_label": "Aman",
        "condition": "Berawan",
        "temp_c": 17.7,
        "humidity_pct": 87.0,
        "heat_index_c": 17.7,
        "wind_kmh": 3.8,
        "wind_dir": 0.0,
        "cloud_pct": 75.0
      }
    },
    {
      "type": "Feature",
      "geometry": {
        "type": "Point",
        "coordinates": [
          96.85017949357464,
          4.649902718619309
        ]
      },
      "properties": {
        "location_name": "GPM Grid TamaTue",
        "slug": "gpm_grid_tamatue",
        "date": "Sabtu, 29 Agustus 2026",
        "date_iso": "2026-08-29",
        "relative": "Hari ini",
        "hour": "01:00",
        "rain_probability": 0,
        "risk_score": 24,
        "risk_class": "safe",
        "risk_label": "Aman",
        "condition": "Berawan",
        "temp_c": 17.1,
        "humidity_pct": 84.0,
        "heat_index_c": 17.1,
        "wind_kmh": 4.4,
        "wind_dir": 0.0,
        "cloud_pct": 75.0
      }
    },
    {
      "type": "Feature",
      "geometry": {
        "type": "Point",
        "coordinates": [
          96.85017949357464,
          4.649902718619309
        ]
      },
      "properties": {
        "location_name": "GPM Grid TamaTue",
        "slug": "gpm_grid_tamatue",
        "date": "Sabtu, 29 Agustus 2026",
        "date_iso": "2026-08-29",
        "relative": "Hari ini",
        "hour": "02:00",
        "rain_probability": 0,
        "risk_score": 24,
        "risk_class": "safe",
        "risk_label": "Aman",
        "condition": "Berawan",
        "temp_c": 16.6,
        "humidity_pct": 85.0,
        "heat_index_c": 16.6,
        "wind_kmh": 5.1,
        "wind_dir": 0.0,
        "cloud_pct": 75.0
      }
    },
    {
      "type": "Feature",
      "geometry": {
        "type": "Point",
        "coordinates": [
          96.85017949357464,
          4.649902718619309
        ]
      },
      "properties": {
        "location_name": "GPM Grid TamaTue",
        "slug": "gpm_grid_tamatue",
        "date": "Sabtu, 29 Agustus 2026",
        "date_iso": "2026-08-29",
        "relative": "Hari ini",
        "hour": "03:00",
        "rain_probability": 0,
        "risk_score": 24,
        "risk_class": "safe",
        "risk_label": "Aman",
        "condition": "Berawan",
        "temp_c": 16.8,
        "humidity_pct": 85.0,
        "heat_index_c": 16.8,
        "wind_kmh": 5.0,
        "wind_dir": 0.0,
        "cloud_pct": 75.0
      }
    },
    {
      "type": "Feature",
      "geometry": {
        "type": "Point",
        "coordinates": [
          96.85017949357464,
          4.649902718619309
        ]
      },
      "properties": {
        "location_name": "GPM Grid TamaTue",
        "slug": "gpm_grid_tamatue",
        "date": "Sabtu, 29 Agustus 2026",
        "date_iso": "2026-08-29",
        "relative": "Hari ini",
        "hour": "04:00",
        "rain_probability": 0,
        "risk_score": 24,
        "risk_class": "safe",
        "risk_label": "Aman",
        "condition": "Berawan",
        "temp_c": 16.2,
        "humidity_pct": 85.0,
        "heat_index_c": 16.2,
        "wind_kmh": 5.2,
        "wind_dir": 0.0,
        "cloud_pct": 75.0
      }
    },
    {
      "type": "Feature",
      "geometry": {
        "type": "Point",
        "coordinates": [
          96.85017949357464,
          4.649902718619309
        ]
      },
      "properties": {
        "location_name": "GPM Grid TamaTue",
        "slug": "gpm_grid_tamatue",
        "date": "Sabtu, 29 Agustus 2026",
        "date_iso": "2026-08-29",
        "relative": "Hari ini",
        "hour": "05:00",
        "rain_probability": 0,
        "risk_score": 24,
        "risk_class": "safe",
        "risk_label": "Aman",
        "condition": "Berawan",
        "temp_c": 16.1,
        "humidity_pct": 81.0,
        "heat_index_c": 16.1,
        "wind_kmh": 5.0,
        "wind_dir": 0.0,
        "cloud_pct": 75.0
      }
    },
    {
      "type": "Feature",
      "geometry": {
        "type": "Point",
        "coordinates": [
          96.85017949357464,
          4.649902718619309
        ]
      },
      "properties": {
        "location_name": "GPM Grid TamaTue",
        "slug": "gpm_grid_tamatue",
        "date": "Sabtu, 29 Agustus 2026",
        "date_iso": "2026-08-29",
        "relative": "Hari ini",
        "hour": "06:00",
        "rain_probability": 0,
        "risk_score": 23,
        "risk_class": "safe",
        "risk_label": "Aman",
        "condition": "Berawan",
        "temp_c": 16.0,
        "humidity_pct": 76.0,
        "heat_index_c": 16.0,
        "wind_kmh": 4.7,
        "wind_dir": 0.0,
        "cloud_pct": 75.0
      }
    },
    {
      "type": "Feature",
      "geometry": {
        "type": "Point",
        "coordinates": [
          96.85017949357464,
          4.649902718619309
        ]
      },
      "properties": {
        "location_name": "GPM Grid TamaTue",
        "slug": "gpm_grid_tamatue",
        "date": "Sabtu, 29 Agustus 2026",
        "date_iso": "2026-08-29",
        "relative": "Hari ini",
        "hour": "07:00",
        "rain_probability": 0,
        "risk_score": 23,
        "risk_class": "safe",
        "risk_label": "Aman",
        "condition": "Berawan",
        "temp_c": 16.7,
        "humidity_pct": 79.0,
        "heat_index_c": 16.7,
        "wind_kmh": 5.1,
        "wind_dir": 0.0,
        "cloud_pct": 75.0
      }
    },
    {
      "type": "Feature",
      "geometry": {
        "type": "Point",
        "coordinates": [
          96.85017949357464,
          4.649902718619309
        ]
      },
      "properties": {
        "location_name": "GPM Grid TamaTue",
        "slug": "gpm_grid_tamatue",
        "date": "Sabtu, 29 Agustus 2026",
        "date_iso": "2026-08-29",
        "relative": "Hari ini",
        "hour": "08:00",
        "rain_probability": 0,
        "risk_score": 22,
        "risk_class": "safe",
        "risk_label": "Aman",
        "condition": "Berawan",
        "temp_c": 19.5,
        "humidity_pct": 71.0,
        "heat_index_c": 19.5,
        "wind_kmh": 5.4,
        "wind_dir": 0.0,
        "cloud_pct": 75.0
      }
    },
    {
      "type": "Feature",
      "geometry": {
        "type": "Point",
        "coordinates": [
          96.85017949357464,
          4.649902718619309
        ]
      },
      "properties": {
        "location_name": "GPM Grid TamaTue",
        "slug": "gpm_grid_tamatue",
        "date": "Sabtu, 29 Agustus 2026",
        "date_iso": "2026-08-29",
        "relative": "Hari ini",
        "hour": "09:00",
        "rain_probability": 0,
        "risk_score": 31,
        "risk_class": "watch",
        "risk_label": "Perlu diperhatikan",
        "condition": "Berawan",
        "temp_c": 22.4,
        "humidity_pct": 54.0,
        "heat_index_c": 22.4,
        "wind_kmh": 5.3,
        "wind_dir": 0.0,
        "cloud_pct": 75.0
      }
    },
    {
      "type": "Feature",
      "geometry": {
        "type": "Point",
        "coordinates": [
          96.85017949357464,
          4.649902718619309
        ]
      },
      "properties": {
        "location_name": "GPM Grid TamaTue",
        "slug": "gpm_grid_tamatue",
        "date": "Sabtu, 29 Agustus 2026",
        "date_iso": "2026-08-29",
        "relative": "Hari ini",
        "hour": "10:00",
        "rain_probability": 0,
        "risk_score": 31,
        "risk_class": "watch",
        "risk_label": "Perlu diperhatikan",
        "condition": "Berawan",
        "temp_c": 24.0,
        "humidity_pct": 49.0,
        "heat_index_c": 24.0,
        "wind_kmh": 6.4,
        "wind_dir": 0.0,
        "cloud_pct": 75.0
      }
    },
    {
      "type": "Feature",
      "geometry": {
        "type": "Point",
        "coordinates": [
          96.85017949357464,
          4.649902718619309
        ]
      },
      "properties": {
        "location_name": "GPM Grid TamaTue",
        "slug": "gpm_grid_tamatue",
        "date": "Sabtu, 29 Agustus 2026",
        "date_iso": "2026-08-29",
        "relative": "Hari ini",
        "hour": "11:00",
        "rain_probability": 0,
        "risk_score": 43,
        "risk_class": "watch",
        "risk_label": "Perlu diperhatikan",
        "condition": "Berawan",
        "temp_c": 25.2,
        "humidity_pct": 48.0,
        "heat_index_c": 25.2,
        "wind_kmh": 6.8,
        "wind_dir": 0.0,
        "cloud_pct": 75.0
      }
    },
    {
      "type": "Feature",
      "geometry": {
        "type": "Point",
        "coordinates": [
          96.85017949357464,
          4.649902718619309
        ]
      },
      "properties": {
        "location_name": "GPM Grid TamaTue",
        "slug": "gpm_grid_tamatue",
        "date": "Sabtu, 29 Agustus 2026",
        "date_iso": "2026-08-29",
        "relative": "Hari ini",
        "hour": "12:00",
        "rain_probability": 0,
        "risk_score": 48,
        "risk_class": "watch",
        "risk_label": "Perlu diperhatikan",
        "condition": "Berawan",
        "temp_c": 26.2,
        "humidity_pct": 44.0,
        "heat_index_c": 26.2,
        "wind_kmh": 10.2,
        "wind_dir": 0.0,
        "cloud_pct": 75.0
      }
    },
    {
      "type": "Feature",
      "geometry": {
        "type": "Point",
        "coordinates": [
          96.85017949357464,
          4.649902718619309
        ]
      },
      "properties": {
        "location_name": "GPM Grid TamaTue",
        "slug": "gpm_grid_tamatue",
        "date": "Sabtu, 29 Agustus 2026",
        "date_iso": "2026-08-29",
        "relative": "Hari ini",
        "hour": "13:00",
        "rain_probability": 0,
        "risk_score": 50,
        "risk_class": "watch",
        "risk_label": "Perlu diperhatikan",
        "condition": "Berawan",
        "temp_c": 27.0,
        "humidity_pct": 43.0,
        "heat_index_c": 27.1,
        "wind_kmh": 12.9,
        "wind_dir": 0.0,
        "cloud_pct": 75.0
      }
    },
    {
      "type": "Feature",
      "geometry": {
        "type": "Point",
        "coordinates": [
          96.85017949357464,
          4.649902718619309
        ]
      },
      "properties": {
        "location_name": "GPM Grid TamaTue",
        "slug": "gpm_grid_tamatue",
        "date": "Sabtu, 29 Agustus 2026",
        "date_iso": "2026-08-29",
        "relative": "Hari ini",
        "hour": "14:00",
        "rain_probability": 0,
        "risk_score": 52,
        "risk_class": "watch",
        "risk_label": "Perlu diperhatikan",
        "condition": "Berawan",
        "temp_c": 26.8,
        "humidity_pct": 43.0,
        "heat_index_c": 26.86,
        "wind_kmh": 12.6,
        "wind_dir": 0.0,
        "cloud_pct": 75.0
      }
    },
    {
      "type": "Feature",
      "geometry": {
        "type": "Point",
        "coordinates": [
          96.85017949357464,
          4.649902718619309
        ]
      },
      "properties": {
        "location_name": "GPM Grid TamaTue",
        "slug": "gpm_grid_tamatue",
        "date": "Sabtu, 29 Agustus 2026",
        "date_iso": "2026-08-29",
        "relative": "Hari ini",
        "hour": "15:00",
        "rain_probability": 0,
        "risk_score": 56,
        "risk_class": "rain",
        "risk_label": "Waspada",
        "condition": "Berawan",
        "temp_c": 26.3,
        "humidity_pct": 46.0,
        "heat_index_c": 26.3,
        "wind_kmh": 11.7,
        "wind_dir": 0.0,
        "cloud_pct": 75.0
      }
    },
    {
      "type": "Feature",
      "geometry": {
        "type": "Point",
        "coordinates": [
          96.85017949357464,
          4.649902718619309
        ]
      },
      "properties": {
        "location_name": "GPM Grid TamaTue",
        "slug": "gpm_grid_tamatue",
        "date": "Sabtu, 29 Agustus 2026",
        "date_iso": "2026-08-29",
        "relative": "Hari ini",
        "hour": "16:00",
        "rain_probability": 0,
        "risk_score": 54,
        "risk_class": "watch",
        "risk_label": "Perlu diperhatikan",
        "condition": "Berawan",
        "temp_c": 25.0,
        "humidity_pct": 52.0,
        "heat_index_c": 25.0,
        "wind_kmh": 9.8,
        "wind_dir": 0.0,
        "cloud_pct": 75.0
      }
    },
    {
      "type": "Feature",
      "geometry": {
        "type": "Point",
        "coordinates": [
          96.85017949357464,
          4.649902718619309
        ]
      },
      "properties": {
        "location_name": "GPM Grid TamaTue",
        "slug": "gpm_grid_tamatue",
        "date": "Sabtu, 29 Agustus 2026",
        "date_iso": "2026-08-29",
        "relative": "Hari ini",
        "hour": "17:00",
        "rain_probability": 14.4,
        "risk_score": 49,
        "risk_class": "watch",
        "risk_label": "Perlu diperhatikan",
        "condition": "Berawan",
        "temp_c": 23.8,
        "humidity_pct": 60.0,
        "heat_index_c": 23.8,
        "wind_kmh": 7.1,
        "wind_dir": 0.0,
        "cloud_pct": 75.0
      }
    },
    {
      "type": "Feature",
      "geometry": {
        "type": "Point",
        "coordinates": [
          96.85017949357464,
          4.649902718619309
        ]
      },
      "properties": {
        "location_name": "GPM Grid TamaTue",
        "slug": "gpm_grid_tamatue",
        "date": "Sabtu, 29 Agustus 2026",
        "date_iso": "2026-08-29",
        "relative": "Hari ini",
        "hour": "18:00",
        "rain_probability": 13.8,
        "risk_score": 35,
        "risk_class": "watch",
        "risk_label": "Perlu diperhatikan",
        "condition": "Berawan",
        "temp_c": 22.0,
        "humidity_pct": 71.0,
        "heat_index_c": 22.0,
        "wind_kmh": 5.2,
        "wind_dir": 0.0,
        "cloud_pct": 75.0
      }
    },
    {
      "type": "Feature",
      "geometry": {
        "type": "Point",
        "coordinates": [
          96.85017949357464,
          4.649902718619309
        ]
      },
      "properties": {
        "location_name": "GPM Grid TamaTue",
        "slug": "gpm_grid_tamatue",
        "date": "Sabtu, 29 Agustus 2026",
        "date_iso": "2026-08-29",
        "relative": "Hari ini",
        "hour": "19:00",
        "rain_probability": 14.4,
        "risk_score": 24,
        "risk_class": "safe",
        "risk_label": "Aman",
        "condition": "Berawan",
        "temp_c": 20.1,
        "humidity_pct": 82.0,
        "heat_index_c": 20.1,
        "wind_kmh": 4.8,
        "wind_dir": 0.0,
        "cloud_pct": 75.0
      }
    },
    {
      "type": "Feature",
      "geometry": {
        "type": "Point",
        "coordinates": [
          96.85017949357464,
          4.649902718619309
        ]
      },
      "properties": {
        "location_name": "GPM Grid TamaTue",
        "slug": "gpm_grid_tamatue",
        "date": "Sabtu, 29 Agustus 2026",
        "date_iso": "2026-08-29",
        "relative": "Hari ini",
        "hour": "20:00",
        "rain_probability": 0,
        "risk_score": 25,
        "risk_class": "safe",
        "risk_label": "Aman",
        "condition": "Berawan",
        "temp_c": 19.0,
        "humidity_pct": 86.0,
        "heat_index_c": 19.0,
        "wind_kmh": 4.4,
        "wind_dir": 0.0,
        "cloud_pct": 75.0
      }
    },
    {
      "type": "Feature",
      "geometry": {
        "type": "Point",
        "coordinates": [
          96.85017949357464,
          4.649902718619309
        ]
      },
      "properties": {
        "location_name": "GPM Grid TamaTue",
        "slug": "gpm_grid_tamatue",
        "date": "Sabtu, 29 Agustus 2026",
        "date_iso": "2026-08-29",
        "relative": "Hari ini",
        "hour": "21:00",
        "rain_probability": 0,
        "risk_score": 25,
        "risk_class": "safe",
        "risk_label": "Aman",
        "condition": "Berawan",
        "temp_c": 18.6,
        "humidity_pct": 86.0,
        "heat_index_c": 18.6,
        "wind_kmh": 4.0,
        "wind_dir": 0.0,
        "cloud_pct": 75.0
      }
    },
    {
      "type": "Feature",
      "geometry": {
        "type": "Point",
        "coordinates": [
          96.85017949357464,
          4.649902718619309
        ]
      },
      "properties": {
        "location_name": "GPM Grid TamaTue",
        "slug": "gpm_grid_tamatue",
        "date": "Sabtu, 29 Agustus 2026",
        "date_iso": "2026-08-29",
        "relative": "Hari ini",
        "hour": "22:00",
        "rain_probability": 0,
        "risk_score": 25,
        "risk_class": "safe",
        "risk_label": "Aman",
        "condition": "Berawan",
        "temp_c": 18.0,
        "humidity_pct": 86.0,
        "heat_index_c": 18.0,
        "wind_kmh": 5.3,
        "wind_dir": 0.0,
        "cloud_pct": 75.0
      }
    },
    {
      "type": "Feature",
      "geometry": {
        "type": "Point",
        "coordinates": [
          96.85017949357464,
          4.649902718619309
        ]
      },
      "properties": {
        "location_name": "GPM Grid TamaTue",
        "slug": "gpm_grid_tamatue",
        "date": "Sabtu, 29 Agustus 2026",
        "date_iso": "2026-08-29",
        "relative": "Hari ini",
        "hour": "23:00",
        "rain_probability": 0,
        "risk_score": 25,
        "risk_class": "safe",
        "risk_label": "Aman",
        "condition": "Berawan",
        "temp_c": 17.7,
        "humidity_pct": 87.0,
        "heat_index_c": 17.7,
        "wind_kmh": 5.8,
        "wind_dir": 0.0,
        "cloud_pct": 75.0
      }
    },
    {
      "type": "Feature",
      "geometry": {
        "type": "Point",
        "coordinates": [
          96.85017949357464,
          4.649902718619309
        ]
      },
      "properties": {
        "location_name": "GPM Grid TamaTue",
        "slug": "gpm_grid_tamatue",
        "date": "Minggu, 30 Agustus 2026",
        "date_iso": "2026-08-30",
        "relative": "Besok",
        "hour": "00:00",
        "rain_probability": 0,
        "risk_score": 24,
        "risk_class": "safe",
        "risk_label": "Aman",
        "condition": "Berawan",
        "temp_c": 17.5,
        "humidity_pct": 84.0,
        "heat_index_c": 17.5,
        "wind_kmh": 5.8,
        "wind_dir": 0.0,
        "cloud_pct": 75.0
      }
    },
    {
      "type": "Feature",
      "geometry": {
        "type": "Point",
        "coordinates": [
          96.85017949357464,
          4.649902718619309
        ]
      },
      "properties": {
        "location_name": "GPM Grid TamaTue",
        "slug": "gpm_grid_tamatue",
        "date": "Minggu, 30 Agustus 2026",
        "date_iso": "2026-08-30",
        "relative": "Besok",
        "hour": "01:00",
        "rain_probability": 0,
        "risk_score": 24,
        "risk_class": "safe",
        "risk_label": "Aman",
        "condition": "Berawan",
        "temp_c": 17.4,
        "humidity_pct": 84.0,
        "heat_index_c": 17.4,
        "wind_kmh": 6.1,
        "wind_dir": 0.0,
        "cloud_pct": 75.0
      }
    },
    {
      "type": "Feature",
      "geometry": {
        "type": "Point",
        "coordinates": [
          96.85017949357464,
          4.649902718619309
        ]
      },
      "properties": {
        "location_name": "GPM Grid TamaTue",
        "slug": "gpm_grid_tamatue",
        "date": "Minggu, 30 Agustus 2026",
        "date_iso": "2026-08-30",
        "relative": "Besok",
        "hour": "02:00",
        "rain_probability": 0,
        "risk_score": 23,
        "risk_class": "safe",
        "risk_label": "Aman",
        "condition": "Berawan",
        "temp_c": 17.3,
        "humidity_pct": 76.0,
        "heat_index_c": 17.3,
        "wind_kmh": 6.4,
        "wind_dir": 0.0,
        "cloud_pct": 75.0
      }
    },
    {
      "type": "Feature",
      "geometry": {
        "type": "Point",
        "coordinates": [
          96.85017949357464,
          4.649902718619309
        ]
      },
      "properties": {
        "location_name": "GPM Grid TamaTue",
        "slug": "gpm_grid_tamatue",
        "date": "Minggu, 30 Agustus 2026",
        "date_iso": "2026-08-30",
        "relative": "Besok",
        "hour": "03:00",
        "rain_probability": 0,
        "risk_score": 23,
        "risk_class": "safe",
        "risk_label": "Aman",
        "condition": "Berawan",
        "temp_c": 16.6,
        "humidity_pct": 76.0,
        "heat_index_c": 16.6,
        "wind_kmh": 5.9,
        "wind_dir": 0.0,
        "cloud_pct": 75.0
      }
    },
    {
      "type": "Feature",
      "geometry": {
        "type": "Point",
        "coordinates": [
          96.85017949357464,
          4.649902718619309
        ]
      },
      "properties": {
        "location_name": "GPM Grid TamaTue",
        "slug": "gpm_grid_tamatue",
        "date": "Minggu, 30 Agustus 2026",
        "date_iso": "2026-08-30",
        "relative": "Besok",
        "hour": "04:00",
        "rain_probability": 0,
        "risk_score": 23,
        "risk_class": "safe",
        "risk_label": "Aman",
        "condition": "Berawan",
        "temp_c": 17.0,
        "humidity_pct": 76.0,
        "heat_index_c": 17.0,
        "wind_kmh": 5.4,
        "wind_dir": 0.0,
        "cloud_pct": 75.0
      }
    },
    {
      "type": "Feature",
      "geometry": {
        "type": "Point",
        "coordinates": [
          96.85017949357464,
          4.649902718619309
        ]
      },
      "properties": {
        "location_name": "GPM Grid TamaTue",
        "slug": "gpm_grid_tamatue",
        "date": "Minggu, 30 Agustus 2026",
        "date_iso": "2026-08-30",
        "relative": "Besok",
        "hour": "05:00",
        "rain_probability": 0,
        "risk_score": 22,
        "risk_class": "safe",
        "risk_label": "Aman",
        "condition": "Berawan",
        "temp_c": 16.8,
        "humidity_pct": 74.0,
        "heat_index_c": 16.8,
        "wind_kmh": 5.8,
        "wind_dir": 0.0,
        "cloud_pct": 75.0
      }
    },
    {
      "type": "Feature",
      "geometry": {
        "type": "Point",
        "coordinates": [
          96.85017949357464,
          4.649902718619309
        ]
      },
      "properties": {
        "location_name": "GPM Grid TamaTue",
        "slug": "gpm_grid_tamatue",
        "date": "Minggu, 30 Agustus 2026",
        "date_iso": "2026-08-30",
        "relative": "Besok",
        "hour": "06:00",
        "rain_probability": 0,
        "risk_score": 22,
        "risk_class": "safe",
        "risk_label": "Aman",
        "condition": "Berawan",
        "temp_c": 16.4,
        "humidity_pct": 74.0,
        "heat_index_c": 16.4,
        "wind_kmh": 6.1,
        "wind_dir": 0.0,
        "cloud_pct": 75.0
      }
    },
    {
      "type": "Feature",
      "geometry": {
        "type": "Point",
        "coordinates": [
          96.85017949357464,
          4.649902718619309
        ]
      },
      "properties": {
        "location_name": "GPM Grid TamaTue",
        "slug": "gpm_grid_tamatue",
        "date": "Minggu, 30 Agustus 2026",
        "date_iso": "2026-08-30",
        "relative": "Besok",
        "hour": "07:00",
        "rain_probability": 0,
        "risk_score": 22,
        "risk_class": "safe",
        "risk_label": "Aman",
        "condition": "Berawan",
        "temp_c": 17.0,
        "humidity_pct": 73.0,
        "heat_index_c": 17.0,
        "wind_kmh": 5.8,
        "wind_dir": 0.0,
        "cloud_pct": 75.0
      }
    },
    {
      "type": "Feature",
      "geometry": {
        "type": "Point",
        "coordinates": [
          96.85017949357464,
          4.649902718619309
        ]
      },
      "properties": {
        "location_name": "GPM Grid TamaTue",
        "slug": "gpm_grid_tamatue",
        "date": "Minggu, 30 Agustus 2026",
        "date_iso": "2026-08-30",
        "relative": "Besok",
        "hour": "08:00",
        "rain_probability": 0,
        "risk_score": 22,
        "risk_class": "safe",
        "risk_label": "Aman",
        "condition": "Berawan",
        "temp_c": 19.7,
        "humidity_pct": 64.0,
        "heat_index_c": 19.7,
        "wind_kmh": 5.4,
        "wind_dir": 0.0,
        "cloud_pct": 75.0
      }
    },
    {
      "type": "Feature",
      "geometry": {
        "type": "Point",
        "coordinates": [
          96.85017949357464,
          4.649902718619309
        ]
      },
      "properties": {
        "location_name": "GPM Grid TamaTue",
        "slug": "gpm_grid_tamatue",
        "date": "Minggu, 30 Agustus 2026",
        "date_iso": "2026-08-30",
        "relative": "Besok",
        "hour": "09:00",
        "rain_probability": 0,
        "risk_score": 23,
        "risk_class": "safe",
        "risk_label": "Aman",
        "condition": "Berawan",
        "temp_c": 22.7,
        "humidity_pct": 54.0,
        "heat_index_c": 22.7,
        "wind_kmh": 5.4,
        "wind_dir": 0.0,
        "cloud_pct": 75.0
      }
    },
    {
      "type": "Feature",
      "geometry": {
        "type": "Point",
        "coordinates": [
          96.85017949357464,
          4.649902718619309
        ]
      },
      "properties": {
        "location_name": "GPM Grid TamaTue",
        "slug": "gpm_grid_tamatue",
        "date": "Minggu, 30 Agustus 2026",
        "date_iso": "2026-08-30",
        "relative": "Besok",
        "hour": "10:00",
        "rain_probability": 0,
        "risk_score": 30,
        "risk_class": "watch",
        "risk_label": "Perlu diperhatikan",
        "condition": "Berawan",
        "temp_c": 24.6,
        "humidity_pct": 49.0,
        "heat_index_c": 24.6,
        "wind_kmh": 6.8,
        "wind_dir": 0.0,
        "cloud_pct": 75.0
      }
    },
    {
      "type": "Feature",
      "geometry": {
        "type": "Point",
        "coordinates": [
          96.85017949357464,
          4.649902718619309
        ]
      },
      "properties": {
        "location_name": "GPM Grid TamaTue",
        "slug": "gpm_grid_tamatue",
        "date": "Minggu, 30 Agustus 2026",
        "date_iso": "2026-08-30",
        "relative": "Besok",
        "hour": "11:00",
        "rain_probability": 0,
        "risk_score": 40,
        "risk_class": "watch",
        "risk_label": "Perlu diperhatikan",
        "condition": "Berawan",
        "temp_c": 25.7,
        "humidity_pct": 46.0,
        "heat_index_c": 25.7,
        "wind_kmh": 10.1,
        "wind_dir": 0.0,
        "cloud_pct": 75.0
      }
    },
    {
      "type": "Feature",
      "geometry": {
        "type": "Point",
        "coordinates": [
          96.85017949357464,
          4.649902718619309
        ]
      },
      "properties": {
        "location_name": "GPM Grid TamaTue",
        "slug": "gpm_grid_tamatue",
        "date": "Minggu, 30 Agustus 2026",
        "date_iso": "2026-08-30",
        "relative": "Besok",
        "hour": "12:00",
        "rain_probability": 0,
        "risk_score": 47,
        "risk_class": "watch",
        "risk_label": "Perlu diperhatikan",
        "condition": "Berawan",
        "temp_c": 26.6,
        "humidity_pct": 45.0,
        "heat_index_c": 26.6,
        "wind_kmh": 11.6,
        "wind_dir": 0.0,
        "cloud_pct": 75.0
      }
    },
    {
      "type": "Feature",
      "geometry": {
        "type": "Point",
        "coordinates": [
          96.85017949357464,
          4.649902718619309
        ]
      },
      "properties": {
        "location_name": "GPM Grid TamaTue",
        "slug": "gpm_grid_tamatue",
        "date": "Minggu, 30 Agustus 2026",
        "date_iso": "2026-08-30",
        "relative": "Besok",
        "hour": "13:00",
        "rain_probability": 0,
        "risk_score": 48,
        "risk_class": "watch",
        "risk_label": "Perlu diperhatikan",
        "condition": "Berawan",
        "temp_c": 26.1,
        "humidity_pct": 43.0,
        "heat_index_c": 26.1,
        "wind_kmh": 13.7,
        "wind_dir": 0.0,
        "cloud_pct": 75.0
      }
    },
    {
      "type": "Feature",
      "geometry": {
        "type": "Point",
        "coordinates": [
          96.85017949357464,
          4.649902718619309
        ]
      },
      "properties": {
        "location_name": "GPM Grid TamaTue",
        "slug": "gpm_grid_tamatue",
        "date": "Minggu, 30 Agustus 2026",
        "date_iso": "2026-08-30",
        "relative": "Besok",
        "hour": "14:00",
        "rain_probability": 14.5,
        "risk_score": 50,
        "risk_class": "watch",
        "risk_label": "Perlu diperhatikan",
        "condition": "Berawan",
        "temp_c": 26.7,
        "humidity_pct": 42.0,
        "heat_index_c": 26.7,
        "wind_kmh": 12.4,
        "wind_dir": 0.0,
        "cloud_pct": 75.0
      }
    },
    {
      "type": "Feature",
      "geometry": {
        "type": "Point",
        "coordinates": [
          96.85017949357464,
          4.649902718619309
        ]
      },
      "properties": {
        "location_name": "GPM Grid TamaTue",
        "slug": "gpm_grid_tamatue",
        "date": "Minggu, 30 Agustus 2026",
        "date_iso": "2026-08-30",
        "relative": "Besok",
        "hour": "15:00",
        "rain_probability": 27.7,
        "risk_score": 56,
        "risk_class": "rain",
        "risk_label": "Waspada",
        "condition": "Cerah Berawan",
        "temp_c": 26.8,
        "humidity_pct": 43.0,
        "heat_index_c": 26.8,
        "wind_kmh": 10.1,
        "wind_dir": 0.0,
        "cloud_pct": 75.0
      }
    },
    {
      "type": "Feature",
      "geometry": {
        "type": "Point",
        "coordinates": [
          96.85017949357464,
          4.649902718619309
        ]
      },
      "properties": {
        "location_name": "GPM Grid TamaTue",
        "slug": "gpm_grid_tamatue",
        "date": "Minggu, 30 Agustus 2026",
        "date_iso": "2026-08-30",
        "relative": "Besok",
        "hour": "16:00",
        "rain_probability": 28.9,
        "risk_score": 53,
        "risk_class": "watch",
        "risk_label": "Perlu diperhatikan",
        "condition": "Cerah Berawan",
        "temp_c": 26.0,
        "humidity_pct": 47.0,
        "heat_index_c": 26.0,
        "wind_kmh": 10.1,
        "wind_dir": 0.0,
        "cloud_pct": 75.0
      }
    },
    {
      "type": "Feature",
      "geometry": {
        "type": "Point",
        "coordinates": [
          96.85017949357464,
          4.649902718619309
        ]
      },
      "properties": {
        "location_name": "GPM Grid TamaTue",
        "slug": "gpm_grid_tamatue",
        "date": "Minggu, 30 Agustus 2026",
        "date_iso": "2026-08-30",
        "relative": "Besok",
        "hour": "17:00",
        "rain_probability": 28.9,
        "risk_score": 47,
        "risk_class": "watch",
        "risk_label": "Perlu diperhatikan",
        "condition": "Berawan",
        "temp_c": 24.0,
        "humidity_pct": 57.0,
        "heat_index_c": 24.0,
        "wind_kmh": 8.6,
        "wind_dir": 0.0,
        "cloud_pct": 75.0
      }
    },
    {
      "type": "Feature",
      "geometry": {
        "type": "Point",
        "coordinates": [
          96.85017949357464,
          4.649902718619309
        ]
      },
      "properties": {
        "location_name": "GPM Grid TamaTue",
        "slug": "gpm_grid_tamatue",
        "date": "Minggu, 30 Agustus 2026",
        "date_iso": "2026-08-30",
        "relative": "Besok",
        "hour": "18:00",
        "rain_probability": 27.7,
        "risk_score": 35,
        "risk_class": "watch",
        "risk_label": "Perlu diperhatikan",
        "condition": "Berawan",
        "temp_c": 21.4,
        "humidity_pct": 72.0,
        "heat_index_c": 21.4,
        "wind_kmh": 6.0,
        "wind_dir": 0.0,
        "cloud_pct": 75.0
      }
    },
    {
      "type": "Feature",
      "geometry": {
        "type": "Point",
        "coordinates": [
          96.85017949357464,
          4.649902718619309
        ]
      },
      "properties": {
        "location_name": "GPM Grid TamaTue",
        "slug": "gpm_grid_tamatue",
        "date": "Minggu, 30 Agustus 2026",
        "date_iso": "2026-08-30",
        "relative": "Besok",
        "hour": "19:00",
        "rain_probability": 28.9,
        "risk_score": 32,
        "risk_class": "watch",
        "risk_label": "Perlu diperhatikan",
        "condition": "Berawan",
        "temp_c": 19.0,
        "humidity_pct": 80.0,
        "heat_index_c": 19.0,
        "wind_kmh": 5.0,
        "wind_dir": 0.0,
        "cloud_pct": 75.0
      }
    },
    {
      "type": "Feature",
      "geometry": {
        "type": "Point",
        "coordinates": [
          96.85017949357464,
          4.649902718619309
        ]
      },
      "properties": {
        "location_name": "GPM Grid TamaTue",
        "slug": "gpm_grid_tamatue",
        "date": "Minggu, 30 Agustus 2026",
        "date_iso": "2026-08-30",
        "relative": "Besok",
        "hour": "20:00",
        "rain_probability": 0,
        "risk_score": 25,
        "risk_class": "safe",
        "risk_label": "Aman",
        "condition": "Berawan",
        "temp_c": 18.1,
        "humidity_pct": 86.0,
        "heat_index_c": 18.1,
        "wind_kmh": 4.6,
        "wind_dir": 0.0,
        "cloud_pct": 75.0
      }
    },
    {
      "type": "Feature",
      "geometry": {
        "type": "Point",
        "coordinates": [
          96.85017949357464,
          4.649902718619309
        ]
      },
      "properties": {
        "location_name": "GPM Grid TamaTue",
        "slug": "gpm_grid_tamatue",
        "date": "Minggu, 30 Agustus 2026",
        "date_iso": "2026-08-30",
        "relative": "Besok",
        "hour": "21:00",
        "rain_probability": 0,
        "risk_score": 25,
        "risk_class": "safe",
        "risk_label": "Aman",
        "condition": "Berawan",
        "temp_c": 17.9,
        "humidity_pct": 86.0,
        "heat_index_c": 17.9,
        "wind_kmh": 4.9,
        "wind_dir": 0.0,
        "cloud_pct": 75.0
      }
    },
    {
      "type": "Feature",
      "geometry": {
        "type": "Point",
        "coordinates": [
          96.85017949357464,
          4.649902718619309
        ]
      },
      "properties": {
        "location_name": "GPM Grid TamaTue",
        "slug": "gpm_grid_tamatue",
        "date": "Minggu, 30 Agustus 2026",
        "date_iso": "2026-08-30",
        "relative": "Besok",
        "hour": "22:00",
        "rain_probability": 0,
        "risk_score": 25,
        "risk_class": "watch",
        "risk_label": "Perlu diperhatikan",
        "condition": "Berawan",
        "temp_c": 17.8,
        "humidity_pct": 88.0,
        "heat_index_c": 17.8,
        "wind_kmh": 4.9,
        "wind_dir": 0.0,
        "cloud_pct": 75.0
      }
    },
    {
      "type": "Feature",
      "geometry": {
        "type": "Point",
        "coordinates": [
          96.85017949357464,
          4.649902718619309
        ]
      },
      "properties": {
        "location_name": "GPM Grid TamaTue",
        "slug": "gpm_grid_tamatue",
        "date": "Minggu, 30 Agustus 2026",
        "date_iso": "2026-08-30",
        "relative": "Besok",
        "hour": "23:00",
        "rain_probability": 0,
        "risk_score": 25,
        "risk_class": "safe",
        "risk_label": "Aman",
        "condition": "Berawan",
        "temp_c": 17.4,
        "humidity_pct": 86.0,
        "heat_index_c": 17.4,
        "wind_kmh": 4.8,
        "wind_dir": 0.0,
        "cloud_pct": 75.0
      }
    },
    {
      "type": "Feature",
      "geometry": {
        "type": "Point",
        "coordinates": [
          96.85017949357464,
          4.649902718619309
        ]
      },
      "properties": {
        "location_name": "GPM Grid TamaTue",
        "slug": "gpm_grid_tamatue",
        "date": "Senin, 31 Agustus 2026",
        "date_iso": "2026-08-31",
        "relative": "Lusa",
        "hour": "00:00",
        "rain_probability": 0,
        "risk_score": 24,
        "risk_class": "safe",
        "risk_label": "Aman",
        "condition": "Berawan",
        "temp_c": 17.2,
        "humidity_pct": 85.0,
        "heat_index_c": 17.2,
        "wind_kmh": 5.0,
        "wind_dir": 0.0,
        "cloud_pct": 75.0
      }
    },
    {
      "type": "Feature",
      "geometry": {
        "type": "Point",
        "coordinates": [
          96.85017949357464,
          4.649902718619309
        ]
      },
      "properties": {
        "location_name": "GPM Grid TamaTue",
        "slug": "gpm_grid_tamatue",
        "date": "Senin, 31 Agustus 2026",
        "date_iso": "2026-08-31",
        "relative": "Lusa",
        "hour": "01:00",
        "rain_probability": 0,
        "risk_score": 24,
        "risk_class": "safe",
        "risk_label": "Aman",
        "condition": "Berawan",
        "temp_c": 17.2,
        "humidity_pct": 83.0,
        "heat_index_c": 17.2,
        "wind_kmh": 5.0,
        "wind_dir": 0.0,
        "cloud_pct": 75.0
      }
    },
    {
      "type": "Feature",
      "geometry": {
        "type": "Point",
        "coordinates": [
          96.85017949357464,
          4.649902718619309
        ]
      },
      "properties": {
        "location_name": "GPM Grid TamaTue",
        "slug": "gpm_grid_tamatue",
        "date": "Senin, 31 Agustus 2026",
        "date_iso": "2026-08-31",
        "relative": "Lusa",
        "hour": "02:00",
        "rain_probability": 0,
        "risk_score": 24,
        "risk_class": "safe",
        "risk_label": "Aman",
        "condition": "Berawan",
        "temp_c": 17.0,
        "humidity_pct": 80.0,
        "heat_index_c": 17.0,
        "wind_kmh": 5.4,
        "wind_dir": 0.0,
        "cloud_pct": 75.0
      }
    },
    {
      "type": "Feature",
      "geometry": {
        "type": "Point",
        "coordinates": [
          96.85017949357464,
          4.649902718619309
        ]
      },
      "properties": {
        "location_name": "GPM Grid TamaTue",
        "slug": "gpm_grid_tamatue",
        "date": "Senin, 31 Agustus 2026",
        "date_iso": "2026-08-31",
        "relative": "Lusa",
        "hour": "03:00",
        "rain_probability": 0,
        "risk_score": 23,
        "risk_class": "safe",
        "risk_label": "Aman",
        "condition": "Berawan",
        "temp_c": 16.7,
        "humidity_pct": 78.0,
        "heat_index_c": 16.7,
        "wind_kmh": 5.6,
        "wind_dir": 0.0,
        "cloud_pct": 75.0
      }
    },
    {
      "type": "Feature",
      "geometry": {
        "type": "Point",
        "coordinates": [
          96.85017949357464,
          4.649902718619309
        ]
      },
      "properties": {
        "location_name": "GPM Grid TamaTue",
        "slug": "gpm_grid_tamatue",
        "date": "Senin, 31 Agustus 2026",
        "date_iso": "2026-08-31",
        "relative": "Lusa",
        "hour": "04:00",
        "rain_probability": 0,
        "risk_score": 23,
        "risk_class": "safe",
        "risk_label": "Aman",
        "condition": "Berawan",
        "temp_c": 16.6,
        "humidity_pct": 76.0,
        "heat_index_c": 16.6,
        "wind_kmh": 5.8,
        "wind_dir": 0.0,
        "cloud_pct": 75.0
      }
    },
    {
      "type": "Feature",
      "geometry": {
        "type": "Point",
        "coordinates": [
          96.85017949357464,
          4.649902718619309
        ]
      },
      "properties": {
        "location_name": "GPM Grid TamaTue",
        "slug": "gpm_grid_tamatue",
        "date": "Senin, 31 Agustus 2026",
        "date_iso": "2026-08-31",
        "relative": "Lusa",
        "hour": "05:00",
        "rain_probability": 0,
        "risk_score": 23,
        "risk_class": "safe",
        "risk_label": "Aman",
        "condition": "Berawan",
        "temp_c": 17.0,
        "humidity_pct": 77.0,
        "heat_index_c": 17.0,
        "wind_kmh": 5.8,
        "wind_dir": 0.0,
        "cloud_pct": 75.0
      }
    },
    {
      "type": "Feature",
      "geometry": {
        "type": "Point",
        "coordinates": [
          96.85017949357464,
          4.649902718619309
        ]
      },
      "properties": {
        "location_name": "GPM Grid TamaTue",
        "slug": "gpm_grid_tamatue",
        "date": "Senin, 31 Agustus 2026",
        "date_iso": "2026-08-31",
        "relative": "Lusa",
        "hour": "06:00",
        "rain_probability": 0,
        "risk_score": 22,
        "risk_class": "safe",
        "risk_label": "Aman",
        "condition": "Berawan",
        "temp_c": 17.0,
        "humidity_pct": 74.0,
        "heat_index_c": 17.0,
        "wind_kmh": 5.4,
        "wind_dir": 0.0,
        "cloud_pct": 75.0
      }
    },
    {
      "type": "Feature",
      "geometry": {
        "type": "Point",
        "coordinates": [
          96.85017949357464,
          4.649902718619309
        ]
      },
      "properties": {
        "location_name": "GPM Grid TamaTue",
        "slug": "gpm_grid_tamatue",
        "date": "Senin, 31 Agustus 2026",
        "date_iso": "2026-08-31",
        "relative": "Lusa",
        "hour": "07:00",
        "rain_probability": 0,
        "risk_score": 23,
        "risk_class": "safe",
        "risk_label": "Aman",
        "condition": "Berawan",
        "temp_c": 17.2,
        "humidity_pct": 76.0,
        "heat_index_c": 17.2,
        "wind_kmh": 4.4,
        "wind_dir": 0.0,
        "cloud_pct": 75.0
      }
    },
    {
      "type": "Feature",
      "geometry": {
        "type": "Point",
        "coordinates": [
          96.85017949357464,
          4.649902718619309
        ]
      },
      "properties": {
        "location_name": "GPM Grid TamaTue",
        "slug": "gpm_grid_tamatue",
        "date": "Senin, 31 Agustus 2026",
        "date_iso": "2026-08-31",
        "relative": "Lusa",
        "hour": "08:00",
        "rain_probability": 0,
        "risk_score": 21,
        "risk_class": "safe",
        "risk_label": "Aman",
        "condition": "Berawan",
        "temp_c": 20.2,
        "humidity_pct": 69.0,
        "heat_index_c": 20.2,
        "wind_kmh": 4.0,
        "wind_dir": 0.0,
        "cloud_pct": 75.0
      }
    },
    {
      "type": "Feature",
      "geometry": {
        "type": "Point",
        "coordinates": [
          96.85017949357464,
          4.649902718619309
        ]
      },
      "properties": {
        "location_name": "GPM Grid TamaTue",
        "slug": "gpm_grid_tamatue",
        "date": "Senin, 31 Agustus 2026",
        "date_iso": "2026-08-31",
        "relative": "Lusa",
        "hour": "09:00",
        "rain_probability": 0,
        "risk_score": 20,
        "risk_class": "safe",
        "risk_label": "Aman",
        "condition": "Berawan",
        "temp_c": 22.5,
        "humidity_pct": 59.0,
        "heat_index_c": 22.5,
        "wind_kmh": 4.3,
        "wind_dir": 0.0,
        "cloud_pct": 75.0
      }
    },
    {
      "type": "Feature",
      "geometry": {
        "type": "Point",
        "coordinates": [
          96.85017949357464,
          4.649902718619309
        ]
      },
      "properties": {
        "location_name": "GPM Grid TamaTue",
        "slug": "gpm_grid_tamatue",
        "date": "Senin, 31 Agustus 2026",
        "date_iso": "2026-08-31",
        "relative": "Lusa",
        "hour": "10:00",
        "rain_probability": 0,
        "risk_score": 24,
        "risk_class": "safe",
        "risk_label": "Aman",
        "condition": "Berawan",
        "temp_c": 24.6,
        "humidity_pct": 54.0,
        "heat_index_c": 24.6,
        "wind_kmh": 5.2,
        "wind_dir": 0.0,
        "cloud_pct": 75.0
      }
    },
    {
      "type": "Feature",
      "geometry": {
        "type": "Point",
        "coordinates": [
          96.85017949357464,
          4.649902718619309
        ]
      },
      "properties": {
        "location_name": "GPM Grid TamaTue",
        "slug": "gpm_grid_tamatue",
        "date": "Senin, 31 Agustus 2026",
        "date_iso": "2026-08-31",
        "relative": "Lusa",
        "hour": "11:00",
        "rain_probability": 14.4,
        "risk_score": 37,
        "risk_class": "watch",
        "risk_label": "Perlu diperhatikan",
        "condition": "Berawan",
        "temp_c": 25.9,
        "humidity_pct": 51.0,
        "heat_index_c": 25.9,
        "wind_kmh": 7.6,
        "wind_dir": 0.0,
        "cloud_pct": 75.0
      }
    },
    {
      "type": "Feature",
      "geometry": {
        "type": "Point",
        "coordinates": [
          96.85017949357464,
          4.649902718619309
        ]
      },
      "properties": {
        "location_name": "GPM Grid TamaTue",
        "slug": "gpm_grid_tamatue",
        "date": "Senin, 31 Agustus 2026",
        "date_iso": "2026-08-31",
        "relative": "Lusa",
        "hour": "12:00",
        "rain_probability": 13.8,
        "risk_score": 45,
        "risk_class": "watch",
        "risk_label": "Perlu diperhatikan",
        "condition": "Berawan",
        "temp_c": 26.9,
        "humidity_pct": 50.0,
        "heat_index_c": 26.99,
        "wind_kmh": 10.4,
        "wind_dir": 0.0,
        "cloud_pct": 75.0
      }
    },
    {
      "type": "Feature",
      "geometry": {
        "type": "Point",
        "coordinates": [
          96.85017949357464,
          4.649902718619309
        ]
      },
      "properties": {
        "location_name": "GPM Grid TamaTue",
        "slug": "gpm_grid_tamatue",
        "date": "Senin, 31 Agustus 2026",
        "date_iso": "2026-08-31",
        "relative": "Lusa",
        "hour": "13:00",
        "rain_probability": 14.4,
        "risk_score": 48,
        "risk_class": "watch",
        "risk_label": "Perlu diperhatikan",
        "condition": "Berawan",
        "temp_c": 26.4,
        "humidity_pct": 50.0,
        "heat_index_c": 26.4,
        "wind_kmh": 12.7,
        "wind_dir": 0.0,
        "cloud_pct": 75.0
      }
    },
    {
      "type": "Feature",
      "geometry": {
        "type": "Point",
        "coordinates": [
          96.85017949357464,
          4.649902718619309
        ]
      },
      "properties": {
        "location_name": "GPM Grid TamaTue",
        "slug": "gpm_grid_tamatue",
        "date": "Senin, 31 Agustus 2026",
        "date_iso": "2026-08-31",
        "relative": "Lusa",
        "hour": "14:00",
        "rain_probability": 43.3,
        "risk_score": 52,
        "risk_class": "watch",
        "risk_label": "Perlu diperhatikan",
        "condition": "Hujan Ringan",
        "temp_c": 25.7,
        "humidity_pct": 59.0,
        "heat_index_c": 25.7,
        "wind_kmh": 12.8,
        "wind_dir": 0.0,
        "cloud_pct": 75.0
      }
    },
    {
      "type": "Feature",
      "geometry": {
        "type": "Point",
        "coordinates": [
          96.85017949357464,
          4.649902718619309
        ]
      },
      "properties": {
        "location_name": "GPM Grid TamaTue",
        "slug": "gpm_grid_tamatue",
        "date": "Senin, 31 Agustus 2026",
        "date_iso": "2026-08-31",
        "relative": "Lusa",
        "hour": "15:00",
        "rain_probability": 41.5,
        "risk_score": 53,
        "risk_class": "watch",
        "risk_label": "Perlu diperhatikan",
        "condition": "Berawan",
        "temp_c": 25.1,
        "humidity_pct": 60.0,
        "heat_index_c": 25.1,
        "wind_kmh": 11.9,
        "wind_dir": 0.0,
        "cloud_pct": 75.0
      }
    },
    {
      "type": "Feature",
      "geometry": {
        "type": "Point",
        "coordinates": [
          96.85017949357464,
          4.649902718619309
        ]
      },
      "properties": {
        "location_name": "GPM Grid TamaTue",
        "slug": "gpm_grid_tamatue",
        "date": "Senin, 31 Agustus 2026",
        "date_iso": "2026-08-31",
        "relative": "Lusa",
        "hour": "16:00",
        "rain_probability": 43.3,
        "risk_score": 43,
        "risk_class": "watch",
        "risk_label": "Perlu diperhatikan",
        "condition": "Berawan",
        "temp_c": 24.8,
        "humidity_pct": 63.0,
        "heat_index_c": 24.8,
        "wind_kmh": 10.1,
        "wind_dir": 0.0,
        "cloud_pct": 75.0
      }
    },
    {
      "type": "Feature",
      "geometry": {
        "type": "Point",
        "coordinates": [
          96.85017949357464,
          4.649902718619309
        ]
      },
      "properties": {
        "location_name": "GPM Grid TamaTue",
        "slug": "gpm_grid_tamatue",
        "date": "Senin, 31 Agustus 2026",
        "date_iso": "2026-08-31",
        "relative": "Lusa",
        "hour": "17:00",
        "rain_probability": 43.3,
        "risk_score": 43,
        "risk_class": "watch",
        "risk_label": "Perlu diperhatikan",
        "condition": "Berawan",
        "temp_c": 23.6,
        "humidity_pct": 72.0,
        "heat_index_c": 23.6,
        "wind_kmh": 6.5,
        "wind_dir": 0.0,
        "cloud_pct": 75.0
      }
    },
    {
      "type": "Feature",
      "geometry": {
        "type": "Point",
        "coordinates": [
          96.85017949357464,
          4.649902718619309
        ]
      },
      "properties": {
        "location_name": "GPM Grid TamaTue",
        "slug": "gpm_grid_tamatue",
        "date": "Senin, 31 Agustus 2026",
        "date_iso": "2026-08-31",
        "relative": "Lusa",
        "hour": "18:00",
        "rain_probability": 41.5,
        "risk_score": 42,
        "risk_class": "watch",
        "risk_label": "Perlu diperhatikan",
        "condition": "Berawan",
        "temp_c": 21.9,
        "humidity_pct": 79.0,
        "heat_index_c": 21.9,
        "wind_kmh": 5.6,
        "wind_dir": 0.0,
        "cloud_pct": 75.0
      }
    },
    {
      "type": "Feature",
      "geometry": {
        "type": "Point",
        "coordinates": [
          96.85017949357464,
          4.649902718619309
        ]
      },
      "properties": {
        "location_name": "GPM Grid TamaTue",
        "slug": "gpm_grid_tamatue",
        "date": "Senin, 31 Agustus 2026",
        "date_iso": "2026-08-31",
        "relative": "Lusa",
        "hour": "19:00",
        "rain_probability": 43.3,
        "risk_score": 43,
        "risk_class": "watch",
        "risk_label": "Perlu diperhatikan",
        "condition": "Hujan Ringan",
        "temp_c": 19.6,
        "humidity_pct": 87.0,
        "heat_index_c": 19.6,
        "wind_kmh": 5.3,
        "wind_dir": 0.0,
        "cloud_pct": 75.0
      }
    },
    {
      "type": "Feature",
      "geometry": {
        "type": "Point",
        "coordinates": [
          96.85017949357464,
          4.649902718619309
        ]
      },
      "properties": {
        "location_name": "GPM Grid TamaTue",
        "slug": "gpm_grid_tamatue",
        "date": "Senin, 31 Agustus 2026",
        "date_iso": "2026-08-31",
        "relative": "Lusa",
        "hour": "20:00",
        "rain_probability": 0,
        "risk_score": 25,
        "risk_class": "watch",
        "risk_label": "Perlu diperhatikan",
        "condition": "Berawan",
        "temp_c": 19.0,
        "humidity_pct": 88.0,
        "heat_index_c": 19.0,
        "wind_kmh": 5.2,
        "wind_dir": 0.0,
        "cloud_pct": 75.0
      }
    },
    {
      "type": "Feature",
      "geometry": {
        "type": "Point",
        "coordinates": [
          96.85017949357464,
          4.649902718619309
        ]
      },
      "properties": {
        "location_name": "GPM Grid TamaTue",
        "slug": "gpm_grid_tamatue",
        "date": "Senin, 31 Agustus 2026",
        "date_iso": "2026-08-31",
        "relative": "Lusa",
        "hour": "21:00",
        "rain_probability": 0,
        "risk_score": 25,
        "risk_class": "watch",
        "risk_label": "Perlu diperhatikan",
        "condition": "Berawan",
        "temp_c": 18.6,
        "humidity_pct": 88.0,
        "heat_index_c": 18.6,
        "wind_kmh": 5.0,
        "wind_dir": 0.0,
        "cloud_pct": 75.0
      }
    },
    {
      "type": "Feature",
      "geometry": {
        "type": "Point",
        "coordinates": [
          96.85017949357464,
          4.649902718619309
        ]
      },
      "properties": {
        "location_name": "GPM Grid TamaTue",
        "slug": "gpm_grid_tamatue",
        "date": "Senin, 31 Agustus 2026",
        "date_iso": "2026-08-31",
        "relative": "Lusa",
        "hour": "22:00",
        "rain_probability": 0,
        "risk_score": 26,
        "risk_class": "watch",
        "risk_label": "Perlu diperhatikan",
        "condition": "Berawan",
        "temp_c": 18.4,
        "humidity_pct": 91.0,
        "heat_index_c": 18.4,
        "wind_kmh": 4.8,
        "wind_dir": 0.0,
        "cloud_pct": 75.0
      }
    },
    {
      "type": "Feature",
      "geometry": {
        "type": "Point",
        "coordinates": [
          96.85017949357464,
          4.649902718619309
        ]
      },
      "properties": {
        "location_name": "GPM Grid TamaTue",
        "slug": "gpm_grid_tamatue",
        "date": "Senin, 31 Agustus 2026",
        "date_iso": "2026-08-31",
        "relative": "Lusa",
        "hour": "23:00",
        "rain_probability": 0,
        "risk_score": 26,
        "risk_class": "watch",
        "risk_label": "Perlu diperhatikan",
        "condition": "Berawan",
        "temp_c": 18.0,
        "humidity_pct": 93.0,
        "heat_index_c": 18.0,
        "wind_kmh": 5.1,
        "wind_dir": 0.0,
        "cloud_pct": 75.0
      }
    }
  ]
}