{
  "type": "FeatureCollection",
  "features": [
    {
      "type": "Feature",
      "geometry": {
        "type": "Point",
        "coordinates": [
          104.510075,
          -4.837533333
        ]
      },
      "properties": {
        "location_name": "Powerhouse Besai Kemu",
        "slug": "pltm_besai_kemu_powerhouse",
        "date": "Kamis, 8 Oktober 2026",
        "date_iso": "2026-10-08",
        "relative": "Hari ini",
        "hour": "00:00",
        "rain_probability": 0,
        "risk_score": 50,
        "risk_class": "watch",
        "risk_label": "Perlu diperhatikan",
        "condition": "Cerah Berawan",
        "temp_c": 24.3,
        "humidity_pct": 86.0,
        "heat_index_c": 24.3,
        "wind_kmh": 6.1,
        "wind_dir": 0.0,
        "cloud_pct": 45.0
      }
    },
    {
      "type": "Feature",
      "geometry": {
        "type": "Point",
        "coordinates": [
          104.510075,
          -4.837533333
        ]
      },
      "properties": {
        "location_name": "Powerhouse Besai Kemu",
        "slug": "pltm_besai_kemu_powerhouse",
        "date": "Kamis, 8 Oktober 2026",
        "date_iso": "2026-10-08",
        "relative": "Hari ini",
        "hour": "01:00",
        "rain_probability": 0,
        "risk_score": 43,
        "risk_class": "watch",
        "risk_label": "Perlu diperhatikan",
        "condition": "Cerah",
        "temp_c": 24.0,
        "humidity_pct": 87.0,
        "heat_index_c": 24.0,
        "wind_kmh": 5.9,
        "wind_dir": 0.0,
        "cloud_pct": 15.0
      }
    },
    {
      "type": "Feature",
      "geometry": {
        "type": "Point",
        "coordinates": [
          104.510075,
          -4.837533333
        ]
      },
      "properties": {
        "location_name": "Powerhouse Besai Kemu",
        "slug": "pltm_besai_kemu_powerhouse",
        "date": "Kamis, 8 Oktober 2026",
        "date_iso": "2026-10-08",
        "relative": "Hari ini",
        "hour": "02:00",
        "rain_probability": 0,
        "risk_score": 40,
        "risk_class": "watch",
        "risk_label": "Perlu diperhatikan",
        "condition": "Cerah Berawan",
        "temp_c": 23.7,
        "humidity_pct": 88.0,
        "heat_index_c": 23.7,
        "wind_kmh": 5.4,
        "wind_dir": 0.0,
        "cloud_pct": 45.0
      }
    },
    {
      "type": "Feature",
      "geometry": {
        "type": "Point",
        "coordinates": [
          104.510075,
          -4.837533333
        ]
      },
      "properties": {
        "location_name": "Powerhouse Besai Kemu",
        "slug": "pltm_besai_kemu_powerhouse",
        "date": "Kamis, 8 Oktober 2026",
        "date_iso": "2026-10-08",
        "relative": "Hari ini",
        "hour": "03:00",
        "rain_probability": 0,
        "risk_score": 36,
        "risk_class": "watch",
        "risk_label": "Perlu diperhatikan",
        "condition": "Cerah",
        "temp_c": 23.5,
        "humidity_pct": 88.0,
        "heat_index_c": 23.5,
        "wind_kmh": 5.2,
        "wind_dir": 0.0,
        "cloud_pct": 15.0
      }
    },
    {
      "type": "Feature",
      "geometry": {
        "type": "Point",
        "coordinates": [
          104.510075,
          -4.837533333
        ]
      },
      "properties": {
        "location_name": "Powerhouse Besai Kemu",
        "slug": "pltm_besai_kemu_powerhouse",
        "date": "Kamis, 8 Oktober 2026",
        "date_iso": "2026-10-08",
        "relative": "Hari ini",
        "hour": "04:00",
        "rain_probability": 0,
        "risk_score": 32,
        "risk_class": "watch",
        "risk_label": "Perlu diperhatikan",
        "condition": "Cerah",
        "temp_c": 23.3,
        "humidity_pct": 88.0,
        "heat_index_c": 23.3,
        "wind_kmh": 5.2,
        "wind_dir": 0.0,
        "cloud_pct": 15.0
      }
    },
    {
      "type": "Feature",
      "geometry": {
        "type": "Point",
        "coordinates": [
          104.510075,
          -4.837533333
        ]
      },
      "properties": {
        "location_name": "Powerhouse Besai Kemu",
        "slug": "pltm_besai_kemu_powerhouse",
        "date": "Kamis, 8 Oktober 2026",
        "date_iso": "2026-10-08",
        "relative": "Hari ini",
        "hour": "05:00",
        "rain_probability": 0,
        "risk_score": 28,
        "risk_class": "watch",
        "risk_label": "Perlu diperhatikan",
        "condition": "Cerah Berawan",
        "temp_c": 23.3,
        "humidity_pct": 88.0,
        "heat_index_c": 23.3,
        "wind_kmh": 5.7,
        "wind_dir": 0.0,
        "cloud_pct": 45.0
      }
    },
    {
      "type": "Feature",
      "geometry": {
        "type": "Point",
        "coordinates": [
          104.510075,
          -4.837533333
        ]
      },
      "properties": {
        "location_name": "Powerhouse Besai Kemu",
        "slug": "pltm_besai_kemu_powerhouse",
        "date": "Kamis, 8 Oktober 2026",
        "date_iso": "2026-10-08",
        "relative": "Hari ini",
        "hour": "06:00",
        "rain_probability": 0,
        "risk_score": 25,
        "risk_class": "safe",
        "risk_label": "Aman",
        "condition": "Berawan",
        "temp_c": 23.3,
        "humidity_pct": 85.0,
        "heat_index_c": 23.3,
        "wind_kmh": 6.2,
        "wind_dir": 0.0,
        "cloud_pct": 45.0
      }
    },
    {
      "type": "Feature",
      "geometry": {
        "type": "Point",
        "coordinates": [
          104.510075,
          -4.837533333
        ]
      },
      "properties": {
        "location_name": "Powerhouse Besai Kemu",
        "slug": "pltm_besai_kemu_powerhouse",
        "date": "Kamis, 8 Oktober 2026",
        "date_iso": "2026-10-08",
        "relative": "Hari ini",
        "hour": "07:00",
        "rain_probability": 0,
        "risk_score": 40,
        "risk_class": "watch",
        "risk_label": "Perlu diperhatikan",
        "condition": "Berawan",
        "temp_c": 25.8,
        "humidity_pct": 75.0,
        "heat_index_c": 25.8,
        "wind_kmh": 4.7,
        "wind_dir": 0.0,
        "cloud_pct": 75.0
      }
    },
    {
      "type": "Feature",
      "geometry": {
        "type": "Point",
        "coordinates": [
          104.510075,
          -4.837533333
        ]
      },
      "properties": {
        "location_name": "Powerhouse Besai Kemu",
        "slug": "pltm_besai_kemu_powerhouse",
        "date": "Kamis, 8 Oktober 2026",
        "date_iso": "2026-10-08",
        "relative": "Hari ini",
        "hour": "08:00",
        "rain_probability": 0,
        "risk_score": 52,
        "risk_class": "watch",
        "risk_label": "Perlu diperhatikan",
        "condition": "Berawan",
        "temp_c": 28.8,
        "humidity_pct": 65.0,
        "heat_index_c": 30.6,
        "wind_kmh": 3.6,
        "wind_dir": 0.0,
        "cloud_pct": 75.0
      }
    },
    {
      "type": "Feature",
      "geometry": {
        "type": "Point",
        "coordinates": [
          104.510075,
          -4.837533333
        ]
      },
      "properties": {
        "location_name": "Powerhouse Besai Kemu",
        "slug": "pltm_besai_kemu_powerhouse",
        "date": "Kamis, 8 Oktober 2026",
        "date_iso": "2026-10-08",
        "relative": "Hari ini",
        "hour": "09:00",
        "rain_probability": 0,
        "risk_score": 86,
        "risk_class": "danger",
        "risk_label": "Berpotensi signifikan",
        "condition": "Berawan",
        "temp_c": 30.0,
        "humidity_pct": 56.0,
        "heat_index_c": 30.88,
        "wind_kmh": 4.1,
        "wind_dir": 0.0,
        "cloud_pct": 75.0
      }
    },
    {
      "type": "Feature",
      "geometry": {
        "type": "Point",
        "coordinates": [
          104.510075,
          -4.837533333
        ]
      },
      "properties": {
        "location_name": "Powerhouse Besai Kemu",
        "slug": "pltm_besai_kemu_powerhouse",
        "date": "Kamis, 8 Oktober 2026",
        "date_iso": "2026-10-08",
        "relative": "Hari ini",
        "hour": "10:00",
        "rain_probability": 0,
        "risk_score": 95,
        "risk_class": "danger",
        "risk_label": "Berpotensi signifikan",
        "condition": "Berawan",
        "temp_c": 31.0,
        "humidity_pct": 50.0,
        "heat_index_c": 32.62,
        "wind_kmh": 6.8,
        "wind_dir": 0.0,
        "cloud_pct": 45.0
      }
    },
    {
      "type": "Feature",
      "geometry": {
        "type": "Point",
        "coordinates": [
          104.510075,
          -4.837533333
        ]
      },
      "properties": {
        "location_name": "Powerhouse Besai Kemu",
        "slug": "pltm_besai_kemu_powerhouse",
        "date": "Kamis, 8 Oktober 2026",
        "date_iso": "2026-10-08",
        "relative": "Hari ini",
        "hour": "11:00",
        "rain_probability": 0,
        "risk_score": 99,
        "risk_class": "danger",
        "risk_label": "Berpotensi signifikan",
        "condition": "Berawan",
        "temp_c": 32.3,
        "humidity_pct": 45.0,
        "heat_index_c": 33.52,
        "wind_kmh": 9.2,
        "wind_dir": 0.0,
        "cloud_pct": 75.0
      }
    },
    {
      "type": "Feature",
      "geometry": {
        "type": "Point",
        "coordinates": [
          104.510075,
          -4.837533333
        ]
      },
      "properties": {
        "location_name": "Powerhouse Besai Kemu",
        "slug": "pltm_besai_kemu_powerhouse",
        "date": "Kamis, 8 Oktober 2026",
        "date_iso": "2026-10-08",
        "relative": "Hari ini",
        "hour": "12:00",
        "rain_probability": 0,
        "risk_score": 100,
        "risk_class": "danger",
        "risk_label": "Berpotensi signifikan",
        "condition": "Berawan",
        "temp_c": 33.6,
        "humidity_pct": 41.0,
        "heat_index_c": 34.1,
        "wind_kmh": 9.7,
        "wind_dir": 0.0,
        "cloud_pct": 75.0
      }
    },
    {
      "type": "Feature",
      "geometry": {
        "type": "Point",
        "coordinates": [
          104.510075,
          -4.837533333
        ]
      },
      "properties": {
        "location_name": "Powerhouse Besai Kemu",
        "slug": "pltm_besai_kemu_powerhouse",
        "date": "Kamis, 8 Oktober 2026",
        "date_iso": "2026-10-08",
        "relative": "Hari ini",
        "hour": "13:00",
        "rain_probability": 0,
        "risk_score": 100,
        "risk_class": "danger",
        "risk_label": "Berpotensi signifikan",
        "condition": "Berawan",
        "temp_c": 33.7,
        "humidity_pct": 37.0,
        "heat_index_c": 33.9,
        "wind_kmh": 9.4,
        "wind_dir": 0.0,
        "cloud_pct": 75.0
      }
    },
    {
      "type": "Feature",
      "geometry": {
        "type": "Point",
        "coordinates": [
          104.510075,
          -4.837533333
        ]
      },
      "properties": {
        "location_name": "Powerhouse Besai Kemu",
        "slug": "pltm_besai_kemu_powerhouse",
        "date": "Kamis, 8 Oktober 2026",
        "date_iso": "2026-10-08",
        "relative": "Hari ini",
        "hour": "14:00",
        "rain_probability": 0,
        "risk_score": 100,
        "risk_class": "danger",
        "risk_label": "Berpotensi signifikan",
        "condition": "Berawan",
        "temp_c": 34.1,
        "humidity_pct": 39.0,
        "heat_index_c": 34.5,
        "wind_kmh": 10.1,
        "wind_dir": 0.0,
        "cloud_pct": 75.0
      }
    },
    {
      "type": "Feature",
      "geometry": {
        "type": "Point",
        "coordinates": [
          104.510075,
          -4.837533333
        ]
      },
      "properties": {
        "location_name": "Powerhouse Besai Kemu",
        "slug": "pltm_besai_kemu_powerhouse",
        "date": "Kamis, 8 Oktober 2026",
        "date_iso": "2026-10-08",
        "relative": "Hari ini",
        "hour": "15:00",
        "rain_probability": 0,
        "risk_score": 100,
        "risk_class": "danger",
        "risk_label": "Berpotensi signifikan",
        "condition": "Berawan",
        "temp_c": 33.9,
        "humidity_pct": 38.0,
        "heat_index_c": 34.07,
        "wind_kmh": 10.7,
        "wind_dir": 0.0,
        "cloud_pct": 75.0
      }
    },
    {
      "type": "Feature",
      "geometry": {
        "type": "Point",
        "coordinates": [
          104.510075,
          -4.837533333
        ]
      },
      "properties": {
        "location_name": "Powerhouse Besai Kemu",
        "slug": "pltm_besai_kemu_powerhouse",
        "date": "Kamis, 8 Oktober 2026",
        "date_iso": "2026-10-08",
        "relative": "Hari ini",
        "hour": "16:00",
        "rain_probability": 0,
        "risk_score": 100,
        "risk_class": "danger",
        "risk_label": "Berpotensi signifikan",
        "condition": "Cerah Berawan",
        "temp_c": 33.5,
        "humidity_pct": 38.0,
        "heat_index_c": 33.95,
        "wind_kmh": 10.4,
        "wind_dir": 0.0,
        "cloud_pct": 45.0
      }
    },
    {
      "type": "Feature",
      "geometry": {
        "type": "Point",
        "coordinates": [
          104.510075,
          -4.837533333
        ]
      },
      "properties": {
        "location_name": "Powerhouse Besai Kemu",
        "slug": "pltm_besai_kemu_powerhouse",
        "date": "Kamis, 8 Oktober 2026",
        "date_iso": "2026-10-08",
        "relative": "Hari ini",
        "hour": "17:00",
        "rain_probability": 0,
        "risk_score": 96,
        "risk_class": "danger",
        "risk_label": "Berpotensi signifikan",
        "condition": "Berawan",
        "temp_c": 32.5,
        "humidity_pct": 44.0,
        "heat_index_c": 33.57,
        "wind_kmh": 9.0,
        "wind_dir": 0.0,
        "cloud_pct": 45.0
      }
    },
    {
      "type": "Feature",
      "geometry": {
        "type": "Point",
        "coordinates": [
          104.510075,
          -4.837533333
        ]
      },
      "properties": {
        "location_name": "Powerhouse Besai Kemu",
        "slug": "pltm_besai_kemu_powerhouse",
        "date": "Kamis, 8 Oktober 2026",
        "date_iso": "2026-10-08",
        "relative": "Hari ini",
        "hour": "18:00",
        "rain_probability": 0,
        "risk_score": 83,
        "risk_class": "danger",
        "risk_label": "Berpotensi signifikan",
        "condition": "Berawan",
        "temp_c": 28.8,
        "humidity_pct": 63.0,
        "heat_index_c": 31.63,
        "wind_kmh": 7.4,
        "wind_dir": 0.0,
        "cloud_pct": 45.0
      }
    },
    {
      "type": "Feature",
      "geometry": {
        "type": "Point",
        "coordinates": [
          104.510075,
          -4.837533333
        ]
      },
      "properties": {
        "location_name": "Powerhouse Besai Kemu",
        "slug": "pltm_besai_kemu_powerhouse",
        "date": "Kamis, 8 Oktober 2026",
        "date_iso": "2026-10-08",
        "relative": "Hari ini",
        "hour": "19:00",
        "rain_probability": 0,
        "risk_score": 74,
        "risk_class": "rain",
        "risk_label": "Waspada",
        "condition": "Berawan",
        "temp_c": 27.3,
        "humidity_pct": 70.0,
        "heat_index_c": 30.53,
        "wind_kmh": 7.1,
        "wind_dir": 0.0,
        "cloud_pct": 75.0
      }
    },
    {
      "type": "Feature",
      "geometry": {
        "type": "Point",
        "coordinates": [
          104.510075,
          -4.837533333
        ]
      },
      "properties": {
        "location_name": "Powerhouse Besai Kemu",
        "slug": "pltm_besai_kemu_powerhouse",
        "date": "Kamis, 8 Oktober 2026",
        "date_iso": "2026-10-08",
        "relative": "Hari ini",
        "hour": "20:00",
        "rain_probability": 0,
        "risk_score": 63,
        "risk_class": "rain",
        "risk_label": "Waspada",
        "condition": "Cerah Berawan",
        "temp_c": 26.4,
        "humidity_pct": 73.0,
        "heat_index_c": 26.4,
        "wind_kmh": 6.2,
        "wind_dir": 0.0,
        "cloud_pct": 45.0
      }
    },
    {
      "type": "Feature",
      "geometry": {
        "type": "Point",
        "coordinates": [
          104.510075,
          -4.837533333
        ]
      },
      "properties": {
        "location_name": "Powerhouse Besai Kemu",
        "slug": "pltm_besai_kemu_powerhouse",
        "date": "Kamis, 8 Oktober 2026",
        "date_iso": "2026-10-08",
        "relative": "Hari ini",
        "hour": "21:00",
        "rain_probability": 0,
        "risk_score": 75,
        "risk_class": "rain",
        "risk_label": "Waspada",
        "condition": "Cerah",
        "temp_c": 25.8,
        "humidity_pct": 83.0,
        "heat_index_c": 25.8,
        "wind_kmh": 5.5,
        "wind_dir": 0.0,
        "cloud_pct": 45.0
      }
    },
    {
      "type": "Feature",
      "geometry": {
        "type": "Point",
        "coordinates": [
          104.510075,
          -4.837533333
        ]
      },
      "properties": {
        "location_name": "Powerhouse Besai Kemu",
        "slug": "pltm_besai_kemu_powerhouse",
        "date": "Kamis, 8 Oktober 2026",
        "date_iso": "2026-10-08",
        "relative": "Hari ini",
        "hour": "22:00",
        "rain_probability": 0,
        "risk_score": 69,
        "risk_class": "rain",
        "risk_label": "Waspada",
        "condition": "Cerah",
        "temp_c": 25.4,
        "humidity_pct": 85.0,
        "heat_index_c": 25.4,
        "wind_kmh": 4.7,
        "wind_dir": 0.0,
        "cloud_pct": 45.0
      }
    },
    {
      "type": "Feature",
      "geometry": {
        "type": "Point",
        "coordinates": [
          104.510075,
          -4.837533333
        ]
      },
      "properties": {
        "location_name": "Powerhouse Besai Kemu",
        "slug": "pltm_besai_kemu_powerhouse",
        "date": "Kamis, 8 Oktober 2026",
        "date_iso": "2026-10-08",
        "relative": "Hari ini",
        "hour": "23:00",
        "rain_probability": 0,
        "risk_score": 62,
        "risk_class": "rain",
        "risk_label": "Waspada",
        "condition": "Cerah",
        "temp_c": 24.6,
        "humidity_pct": 85.0,
        "heat_index_c": 24.6,
        "wind_kmh": 4.0,
        "wind_dir": 0.0,
        "cloud_pct": 45.0
      }
    },
    {
      "type": "Feature",
      "geometry": {
        "type": "Point",
        "coordinates": [
          104.510075,
          -4.837533333
        ]
      },
      "properties": {
        "location_name": "Powerhouse Besai Kemu",
        "slug": "pltm_besai_kemu_powerhouse",
        "date": "Jumat, 9 Oktober 2026",
        "date_iso": "2026-10-09",
        "relative": "Besok",
        "hour": "00:00",
        "rain_probability": 0,
        "risk_score": 60,
        "risk_class": "rain",
        "risk_label": "Waspada",
        "condition": "Cerah",
        "temp_c": 24.2,
        "humidity_pct": 87.0,
        "heat_index_c": 24.2,
        "wind_kmh": 5.0,
        "wind_dir": 0.0,
        "cloud_pct": 45.0
      }
    },
    {
      "type": "Feature",
      "geometry": {
        "type": "Point",
        "coordinates": [
          104.510075,
          -4.837533333
        ]
      },
      "properties": {
        "location_name": "Powerhouse Besai Kemu",
        "slug": "pltm_besai_kemu_powerhouse",
        "date": "Jumat, 9 Oktober 2026",
        "date_iso": "2026-10-09",
        "relative": "Besok",
        "hour": "01:00",
        "rain_probability": 0,
        "risk_score": 55,
        "risk_class": "rain",
        "risk_label": "Waspada",
        "condition": "Cerah Berawan",
        "temp_c": 23.8,
        "humidity_pct": 87.0,
        "heat_index_c": 23.8,
        "wind_kmh": 5.1,
        "wind_dir": 0.0,
        "cloud_pct": 45.0
      }
    },
    {
      "type": "Feature",
      "geometry": {
        "type": "Point",
        "coordinates": [
          104.510075,
          -4.837533333
        ]
      },
      "properties": {
        "location_name": "Powerhouse Besai Kemu",
        "slug": "pltm_besai_kemu_powerhouse",
        "date": "Jumat, 9 Oktober 2026",
        "date_iso": "2026-10-09",
        "relative": "Besok",
        "hour": "02:00",
        "rain_probability": 0,
        "risk_score": 53,
        "risk_class": "watch",
        "risk_label": "Perlu diperhatikan",
        "condition": "Cerah Berawan",
        "temp_c": 23.5,
        "humidity_pct": 88.0,
        "heat_index_c": 23.5,
        "wind_kmh": 4.7,
        "wind_dir": 0.0,
        "cloud_pct": 45.0
      }
    },
    {
      "type": "Feature",
      "geometry": {
        "type": "Point",
        "coordinates": [
          104.510075,
          -4.837533333
        ]
      },
      "properties": {
        "location_name": "Powerhouse Besai Kemu",
        "slug": "pltm_besai_kemu_powerhouse",
        "date": "Jumat, 9 Oktober 2026",
        "date_iso": "2026-10-09",
        "relative": "Besok",
        "hour": "03:00",
        "rain_probability": 0,
        "risk_score": 49,
        "risk_class": "watch",
        "risk_label": "Perlu diperhatikan",
        "condition": "Cerah Berawan",
        "temp_c": 23.4,
        "humidity_pct": 88.0,
        "heat_index_c": 23.4,
        "wind_kmh": 4.0,
        "wind_dir": 0.0,
        "cloud_pct": 45.0
      }
    },
    {
      "type": "Feature",
      "geometry": {
        "type": "Point",
        "coordinates": [
          104.510075,
          -4.837533333
        ]
      },
      "properties": {
        "location_name": "Powerhouse Besai Kemu",
        "slug": "pltm_besai_kemu_powerhouse",
        "date": "Jumat, 9 Oktober 2026",
        "date_iso": "2026-10-09",
        "relative": "Besok",
        "hour": "04:00",
        "rain_probability": 0,
        "risk_score": 46,
        "risk_class": "watch",
        "risk_label": "Perlu diperhatikan",
        "condition": "Berawan",
        "temp_c": 23.2,
        "humidity_pct": 88.0,
        "heat_index_c": 23.2,
        "wind_kmh": 5.3,
        "wind_dir": 0.0,
        "cloud_pct": 75.0
      }
    },
    {
      "type": "Feature",
      "geometry": {
        "type": "Point",
        "coordinates": [
          104.510075,
          -4.837533333
        ]
      },
      "properties": {
        "location_name": "Powerhouse Besai Kemu",
        "slug": "pltm_besai_kemu_powerhouse",
        "date": "Jumat, 9 Oktober 2026",
        "date_iso": "2026-10-09",
        "relative": "Besok",
        "hour": "05:00",
        "rain_probability": 0,
        "risk_score": 40,
        "risk_class": "watch",
        "risk_label": "Perlu diperhatikan",
        "condition": "Cerah Berawan",
        "temp_c": 23.1,
        "humidity_pct": 88.0,
        "heat_index_c": 23.1,
        "wind_kmh": 5.2,
        "wind_dir": 0.0,
        "cloud_pct": 45.0
      }
    },
    {
      "type": "Feature",
      "geometry": {
        "type": "Point",
        "coordinates": [
          104.510075,
          -4.837533333
        ]
      },
      "properties": {
        "location_name": "Powerhouse Besai Kemu",
        "slug": "pltm_besai_kemu_powerhouse",
        "date": "Jumat, 9 Oktober 2026",
        "date_iso": "2026-10-09",
        "relative": "Besok",
        "hour": "06:00",
        "rain_probability": 0,
        "risk_score": 35,
        "risk_class": "watch",
        "risk_label": "Perlu diperhatikan",
        "condition": "Cerah Berawan",
        "temp_c": 24.1,
        "humidity_pct": 88.0,
        "heat_index_c": 24.1,
        "wind_kmh": 4.3,
        "wind_dir": 0.0,
        "cloud_pct": 45.0
      }
    },
    {
      "type": "Feature",
      "geometry": {
        "type": "Point",
        "coordinates": [
          104.510075,
          -4.837533333
        ]
      },
      "properties": {
        "location_name": "Powerhouse Besai Kemu",
        "slug": "pltm_besai_kemu_powerhouse",
        "date": "Jumat, 9 Oktober 2026",
        "date_iso": "2026-10-09",
        "relative": "Besok",
        "hour": "07:00",
        "rain_probability": 0,
        "risk_score": 29,
        "risk_class": "watch",
        "risk_label": "Perlu diperhatikan",
        "condition": "Cerah Berawan",
        "temp_c": 25.4,
        "humidity_pct": 75.0,
        "heat_index_c": 25.4,
        "wind_kmh": 3.6,
        "wind_dir": 0.0,
        "cloud_pct": 45.0
      }
    },
    {
      "type": "Feature",
      "geometry": {
        "type": "Point",
        "coordinates": [
          104.510075,
          -4.837533333
        ]
      },
      "properties": {
        "location_name": "Powerhouse Besai Kemu",
        "slug": "pltm_besai_kemu_powerhouse",
        "date": "Jumat, 9 Oktober 2026",
        "date_iso": "2026-10-09",
        "relative": "Besok",
        "hour": "08:00",
        "rain_probability": 0,
        "risk_score": 46,
        "risk_class": "watch",
        "risk_label": "Perlu diperhatikan",
        "condition": "Cerah Berawan",
        "temp_c": 27.0,
        "humidity_pct": 69.0,
        "heat_index_c": 28.69,
        "wind_kmh": 3.6,
        "wind_dir": 0.0,
        "cloud_pct": 45.0
      }
    },
    {
      "type": "Feature",
      "geometry": {
        "type": "Point",
        "coordinates": [
          104.510075,
          -4.837533333
        ]
      },
      "properties": {
        "location_name": "Powerhouse Besai Kemu",
        "slug": "pltm_besai_kemu_powerhouse",
        "date": "Jumat, 9 Oktober 2026",
        "date_iso": "2026-10-09",
        "relative": "Besok",
        "hour": "09:00",
        "rain_probability": 0,
        "risk_score": 71,
        "risk_class": "rain",
        "risk_label": "Waspada",
        "condition": "Cerah Berawan",
        "temp_c": 29.3,
        "humidity_pct": 61.0,
        "heat_index_c": 32.07,
        "wind_kmh": 6.4,
        "wind_dir": 0.0,
        "cloud_pct": 45.0
      }
    },
    {
      "type": "Feature",
      "geometry": {
        "type": "Point",
        "coordinates": [
          104.510075,
          -4.837533333
        ]
      },
      "properties": {
        "location_name": "Powerhouse Besai Kemu",
        "slug": "pltm_besai_kemu_powerhouse",
        "date": "Jumat, 9 Oktober 2026",
        "date_iso": "2026-10-09",
        "relative": "Besok",
        "hour": "10:00",
        "rain_probability": 27.7,
        "risk_score": 89,
        "risk_class": "danger",
        "risk_label": "Berpotensi signifikan",
        "condition": "Cerah Berawan",
        "temp_c": 30.7,
        "humidity_pct": 55.0,
        "heat_index_c": 32.7,
        "wind_kmh": 7.6,
        "wind_dir": 0.0,
        "cloud_pct": 45.0
      }
    },
    {
      "type": "Feature",
      "geometry": {
        "type": "Point",
        "coordinates": [
          104.510075,
          -4.837533333
        ]
      },
      "properties": {
        "location_name": "Powerhouse Besai Kemu",
        "slug": "pltm_besai_kemu_powerhouse",
        "date": "Jumat, 9 Oktober 2026",
        "date_iso": "2026-10-09",
        "relative": "Besok",
        "hour": "11:00",
        "rain_probability": 14.4,
        "risk_score": 100,
        "risk_class": "danger",
        "risk_label": "Berpotensi signifikan",
        "condition": "Cerah Berawan",
        "temp_c": 32.3,
        "humidity_pct": 48.0,
        "heat_index_c": 34.06,
        "wind_kmh": 8.0,
        "wind_dir": 0.0,
        "cloud_pct": 45.0
      }
    },
    {
      "type": "Feature",
      "geometry": {
        "type": "Point",
        "coordinates": [
          104.510075,
          -4.837533333
        ]
      },
      "properties": {
        "location_name": "Powerhouse Besai Kemu",
        "slug": "pltm_besai_kemu_powerhouse",
        "date": "Jumat, 9 Oktober 2026",
        "date_iso": "2026-10-09",
        "relative": "Besok",
        "hour": "12:00",
        "rain_probability": 14.4,
        "risk_score": 100,
        "risk_class": "danger",
        "risk_label": "Berpotensi signifikan",
        "condition": "Cerah Berawan",
        "temp_c": 33.3,
        "humidity_pct": 46.0,
        "heat_index_c": 34.3,
        "wind_kmh": 7.8,
        "wind_dir": 0.0,
        "cloud_pct": 45.0
      }
    },
    {
      "type": "Feature",
      "geometry": {
        "type": "Point",
        "coordinates": [
          104.510075,
          -4.837533333
        ]
      },
      "properties": {
        "location_name": "Powerhouse Besai Kemu",
        "slug": "pltm_besai_kemu_powerhouse",
        "date": "Jumat, 9 Oktober 2026",
        "date_iso": "2026-10-09",
        "relative": "Besok",
        "hour": "13:00",
        "rain_probability": 0,
        "risk_score": 96,
        "risk_class": "danger",
        "risk_label": "Berpotensi signifikan",
        "condition": "Cerah Berawan",
        "temp_c": 34.1,
        "humidity_pct": 40.0,
        "heat_index_c": 34.86,
        "wind_kmh": 7.8,
        "wind_dir": 0.0,
        "cloud_pct": 45.0
      }
    },
    {
      "type": "Feature",
      "geometry": {
        "type": "Point",
        "coordinates": [
          104.510075,
          -4.837533333
        ]
      },
      "properties": {
        "location_name": "Powerhouse Besai Kemu",
        "slug": "pltm_besai_kemu_powerhouse",
        "date": "Jumat, 9 Oktober 2026",
        "date_iso": "2026-10-09",
        "relative": "Besok",
        "hour": "14:00",
        "rain_probability": 14.4,
        "risk_score": 100,
        "risk_class": "danger",
        "risk_label": "Berpotensi signifikan",
        "condition": "Cerah Berawan",
        "temp_c": 34.2,
        "humidity_pct": 39.0,
        "heat_index_c": 34.4,
        "wind_kmh": 6.7,
        "wind_dir": 0.0,
        "cloud_pct": 45.0
      }
    },
    {
      "type": "Feature",
      "geometry": {
        "type": "Point",
        "coordinates": [
          104.510075,
          -4.837533333
        ]
      },
      "properties": {
        "location_name": "Powerhouse Besai Kemu",
        "slug": "pltm_besai_kemu_powerhouse",
        "date": "Jumat, 9 Oktober 2026",
        "date_iso": "2026-10-09",
        "relative": "Besok",
        "hour": "15:00",
        "rain_probability": 14.4,
        "risk_score": 100,
        "risk_class": "danger",
        "risk_label": "Berpotensi signifikan",
        "condition": "Cerah Berawan",
        "temp_c": 33.5,
        "humidity_pct": 41.0,
        "heat_index_c": 34.83,
        "wind_kmh": 7.6,
        "wind_dir": 0.0,
        "cloud_pct": 45.0
      }
    },
    {
      "type": "Feature",
      "geometry": {
        "type": "Point",
        "coordinates": [
          104.510075,
          -4.837533333
        ]
      },
      "properties": {
        "location_name": "Powerhouse Besai Kemu",
        "slug": "pltm_besai_kemu_powerhouse",
        "date": "Jumat, 9 Oktober 2026",
        "date_iso": "2026-10-09",
        "relative": "Besok",
        "hour": "16:00",
        "rain_probability": 13.8,
        "risk_score": 100,
        "risk_class": "danger",
        "risk_label": "Berpotensi signifikan",
        "condition": "Cerah Berawan",
        "temp_c": 33.3,
        "humidity_pct": 42.0,
        "heat_index_c": 34.8,
        "wind_kmh": 7.2,
        "wind_dir": 0.0,
        "cloud_pct": 45.0
      }
    },
    {
      "type": "Feature",
      "geometry": {
        "type": "Point",
        "coordinates": [
          104.510075,
          -4.837533333
        ]
      },
      "properties": {
        "location_name": "Powerhouse Besai Kemu",
        "slug": "pltm_besai_kemu_powerhouse",
        "date": "Jumat, 9 Oktober 2026",
        "date_iso": "2026-10-09",
        "relative": "Besok",
        "hour": "17:00",
        "rain_probability": 14.4,
        "risk_score": 98,
        "risk_class": "danger",
        "risk_label": "Berpotensi signifikan",
        "condition": "Cerah Berawan",
        "temp_c": 31.3,
        "humidity_pct": 51.0,
        "heat_index_c": 33.77,
        "wind_kmh": 7.2,
        "wind_dir": 0.0,
        "cloud_pct": 45.0
      }
    },
    {
      "type": "Feature",
      "geometry": {
        "type": "Point",
        "coordinates": [
          104.510075,
          -4.837533333
        ]
      },
      "properties": {
        "location_name": "Powerhouse Besai Kemu",
        "slug": "pltm_besai_kemu_powerhouse",
        "date": "Jumat, 9 Oktober 2026",
        "date_iso": "2026-10-09",
        "relative": "Besok",
        "hour": "18:00",
        "rain_probability": 14.4,
        "risk_score": 89,
        "risk_class": "danger",
        "risk_label": "Berpotensi signifikan",
        "condition": "Cerah Berawan",
        "temp_c": 29.7,
        "humidity_pct": 60.0,
        "heat_index_c": 32.03,
        "wind_kmh": 5.8,
        "wind_dir": 0.0,
        "cloud_pct": 45.0
      }
    },
    {
      "type": "Feature",
      "geometry": {
        "type": "Point",
        "coordinates": [
          104.510075,
          -4.837533333
        ]
      },
      "properties": {
        "location_name": "Powerhouse Besai Kemu",
        "slug": "pltm_besai_kemu_powerhouse",
        "date": "Jumat, 9 Oktober 2026",
        "date_iso": "2026-10-09",
        "relative": "Besok",
        "hour": "19:00",
        "rain_probability": 13.8,
        "risk_score": 81,
        "risk_class": "danger",
        "risk_label": "Berpotensi signifikan",
        "condition": "Cerah Berawan",
        "temp_c": 27.6,
        "humidity_pct": 70.0,
        "heat_index_c": 29.8,
        "wind_kmh": 6.4,
        "wind_dir": 0.0,
        "cloud_pct": 45.0
      }
    },
    {
      "type": "Feature",
      "geometry": {
        "type": "Point",
        "coordinates": [
          104.510075,
          -4.837533333
        ]
      },
      "properties": {
        "location_name": "Powerhouse Besai Kemu",
        "slug": "pltm_besai_kemu_powerhouse",
        "date": "Jumat, 9 Oktober 2026",
        "date_iso": "2026-10-09",
        "relative": "Besok",
        "hour": "20:00",
        "rain_probability": 28.9,
        "risk_score": 75,
        "risk_class": "rain",
        "risk_label": "Waspada",
        "condition": "Cerah Berawan",
        "temp_c": 26.0,
        "humidity_pct": 72.0,
        "heat_index_c": 26.0,
        "wind_kmh": 6.6,
        "wind_dir": 0.0,
        "cloud_pct": 45.0
      }
    },
    {
      "type": "Feature",
      "geometry": {
        "type": "Point",
        "coordinates": [
          104.510075,
          -4.837533333
        ]
      },
      "properties": {
        "location_name": "Powerhouse Besai Kemu",
        "slug": "pltm_besai_kemu_powerhouse",
        "date": "Jumat, 9 Oktober 2026",
        "date_iso": "2026-10-09",
        "relative": "Besok",
        "hour": "21:00",
        "rain_probability": 14.4,
        "risk_score": 77,
        "risk_class": "rain",
        "risk_label": "Waspada",
        "condition": "Cerah Berawan",
        "temp_c": 25.4,
        "humidity_pct": 83.0,
        "heat_index_c": 25.4,
        "wind_kmh": 7.2,
        "wind_dir": 0.0,
        "cloud_pct": 45.0
      }
    },
    {
      "type": "Feature",
      "geometry": {
        "type": "Point",
        "coordinates": [
          104.510075,
          -4.837533333
        ]
      },
      "properties": {
        "location_name": "Powerhouse Besai Kemu",
        "slug": "pltm_besai_kemu_powerhouse",
        "date": "Jumat, 9 Oktober 2026",
        "date_iso": "2026-10-09",
        "relative": "Besok",
        "hour": "22:00",
        "rain_probability": 13.8,
        "risk_score": 73,
        "risk_class": "rain",
        "risk_label": "Waspada",
        "condition": "Cerah",
        "temp_c": 25.0,
        "humidity_pct": 83.0,
        "heat_index_c": 25.0,
        "wind_kmh": 5.9,
        "wind_dir": 0.0,
        "cloud_pct": 45.0
      }
    },
    {
      "type": "Feature",
      "geometry": {
        "type": "Point",
        "coordinates": [
          104.510075,
          -4.837533333
        ]
      },
      "properties": {
        "location_name": "Powerhouse Besai Kemu",
        "slug": "pltm_besai_kemu_powerhouse",
        "date": "Jumat, 9 Oktober 2026",
        "date_iso": "2026-10-09",
        "relative": "Besok",
        "hour": "23:00",
        "rain_probability": 0,
        "risk_score": 67,
        "risk_class": "rain",
        "risk_label": "Waspada",
        "condition": "Cerah Berawan",
        "temp_c": 24.7,
        "humidity_pct": 83.0,
        "heat_index_c": 24.7,
        "wind_kmh": 6.2,
        "wind_dir": 0.0,
        "cloud_pct": 45.0
      }
    },
    {
      "type": "Feature",
      "geometry": {
        "type": "Point",
        "coordinates": [
          104.510075,
          -4.837533333
        ]
      },
      "properties": {
        "location_name": "Powerhouse Besai Kemu",
        "slug": "pltm_besai_kemu_powerhouse",
        "date": "Sabtu, 10 Oktober 2026",
        "date_iso": "2026-10-10",
        "relative": "Lusa",
        "hour": "00:00",
        "rain_probability": 0,
        "risk_score": 66,
        "risk_class": "rain",
        "risk_label": "Waspada",
        "condition": "Cerah",
        "temp_c": 24.4,
        "humidity_pct": 87.0,
        "heat_index_c": 24.4,
        "wind_kmh": 5.2,
        "wind_dir": 0.0,
        "cloud_pct": 15.0
      }
    },
    {
      "type": "Feature",
      "geometry": {
        "type": "Point",
        "coordinates": [
          104.510075,
          -4.837533333
        ]
      },
      "properties": {
        "location_name": "Powerhouse Besai Kemu",
        "slug": "pltm_besai_kemu_powerhouse",
        "date": "Sabtu, 10 Oktober 2026",
        "date_iso": "2026-10-10",
        "relative": "Lusa",
        "hour": "01:00",
        "rain_probability": 0,
        "risk_score": 62,
        "risk_class": "rain",
        "risk_label": "Waspada",
        "condition": "Cerah",
        "temp_c": 23.9,
        "humidity_pct": 87.0,
        "heat_index_c": 23.9,
        "wind_kmh": 5.2,
        "wind_dir": 0.0,
        "cloud_pct": 45.0
      }
    },
    {
      "type": "Feature",
      "geometry": {
        "type": "Point",
        "coordinates": [
          104.510075,
          -4.837533333
        ]
      },
      "properties": {
        "location_name": "Powerhouse Besai Kemu",
        "slug": "pltm_besai_kemu_powerhouse",
        "date": "Sabtu, 10 Oktober 2026",
        "date_iso": "2026-10-10",
        "relative": "Lusa",
        "hour": "02:00",
        "rain_probability": 0,
        "risk_score": 59,
        "risk_class": "rain",
        "risk_label": "Waspada",
        "condition": "Cerah",
        "temp_c": 23.3,
        "humidity_pct": 89.0,
        "heat_index_c": 23.3,
        "wind_kmh": 5.1,
        "wind_dir": 0.0,
        "cloud_pct": 15.0
      }
    },
    {
      "type": "Feature",
      "geometry": {
        "type": "Point",
        "coordinates": [
          104.510075,
          -4.837533333
        ]
      },
      "properties": {
        "location_name": "Powerhouse Besai Kemu",
        "slug": "pltm_besai_kemu_powerhouse",
        "date": "Sabtu, 10 Oktober 2026",
        "date_iso": "2026-10-10",
        "relative": "Lusa",
        "hour": "03:00",
        "rain_probability": 0,
        "risk_score": 57,
        "risk_class": "rain",
        "risk_label": "Waspada",
        "condition": "Cerah Berawan",
        "temp_c": 23.2,
        "humidity_pct": 89.0,
        "heat_index_c": 23.2,
        "wind_kmh": 5.0,
        "wind_dir": 0.0,
        "cloud_pct": 45.0
      }
    },
    {
      "type": "Feature",
      "geometry": {
        "type": "Point",
        "coordinates": [
          104.510075,
          -4.837533333
        ]
      },
      "properties": {
        "location_name": "Powerhouse Besai Kemu",
        "slug": "pltm_besai_kemu_powerhouse",
        "date": "Sabtu, 10 Oktober 2026",
        "date_iso": "2026-10-10",
        "relative": "Lusa",
        "hour": "04:00",
        "rain_probability": 0,
        "risk_score": 54,
        "risk_class": "watch",
        "risk_label": "Perlu diperhatikan",
        "condition": "Cerah Berawan",
        "temp_c": 23.1,
        "humidity_pct": 89.0,
        "heat_index_c": 23.1,
        "wind_kmh": 5.2,
        "wind_dir": 0.0,
        "cloud_pct": 45.0
      }
    },
    {
      "type": "Feature",
      "geometry": {
        "type": "Point",
        "coordinates": [
          104.510075,
          -4.837533333
        ]
      },
      "properties": {
        "location_name": "Powerhouse Besai Kemu",
        "slug": "pltm_besai_kemu_powerhouse",
        "date": "Sabtu, 10 Oktober 2026",
        "date_iso": "2026-10-10",
        "relative": "Lusa",
        "hour": "05:00",
        "rain_probability": 0,
        "risk_score": 53,
        "risk_class": "watch",
        "risk_label": "Perlu diperhatikan",
        "condition": "Cerah Berawan",
        "temp_c": 23.0,
        "humidity_pct": 89.0,
        "heat_index_c": 23.0,
        "wind_kmh": 4.7,
        "wind_dir": 0.0,
        "cloud_pct": 45.0
      }
    },
    {
      "type": "Feature",
      "geometry": {
        "type": "Point",
        "coordinates": [
          104.510075,
          -4.837533333
        ]
      },
      "properties": {
        "location_name": "Powerhouse Besai Kemu",
        "slug": "pltm_besai_kemu_powerhouse",
        "date": "Sabtu, 10 Oktober 2026",
        "date_iso": "2026-10-10",
        "relative": "Lusa",
        "hour": "06:00",
        "rain_probability": 0,
        "risk_score": 46,
        "risk_class": "watch",
        "risk_label": "Perlu diperhatikan",
        "condition": "Cerah Berawan",
        "temp_c": 24.1,
        "humidity_pct": 87.0,
        "heat_index_c": 24.1,
        "wind_kmh": 4.9,
        "wind_dir": 0.0,
        "cloud_pct": 45.0
      }
    },
    {
      "type": "Feature",
      "geometry": {
        "type": "Point",
        "coordinates": [
          104.510075,
          -4.837533333
        ]
      },
      "properties": {
        "location_name": "Powerhouse Besai Kemu",
        "slug": "pltm_besai_kemu_powerhouse",
        "date": "Sabtu, 10 Oktober 2026",
        "date_iso": "2026-10-10",
        "relative": "Lusa",
        "hour": "07:00",
        "rain_probability": 0,
        "risk_score": 43,
        "risk_class": "watch",
        "risk_label": "Perlu diperhatikan",
        "condition": "Cerah",
        "temp_c": 25.6,
        "humidity_pct": 77.0,
        "heat_index_c": 25.6,
        "wind_kmh": 3.4,
        "wind_dir": 0.0,
        "cloud_pct": 15.0
      }
    },
    {
      "type": "Feature",
      "geometry": {
        "type": "Point",
        "coordinates": [
          104.510075,
          -4.837533333
        ]
      },
      "properties": {
        "location_name": "Powerhouse Besai Kemu",
        "slug": "pltm_besai_kemu_powerhouse",
        "date": "Sabtu, 10 Oktober 2026",
        "date_iso": "2026-10-10",
        "relative": "Lusa",
        "hour": "08:00",
        "rain_probability": 14.4,
        "risk_score": 58,
        "risk_class": "rain",
        "risk_label": "Waspada",
        "condition": "Cerah Berawan",
        "temp_c": 27.4,
        "humidity_pct": 70.0,
        "heat_index_c": 29.55,
        "wind_kmh": 3.2,
        "wind_dir": 0.0,
        "cloud_pct": 45.0
      }
    },
    {
      "type": "Feature",
      "geometry": {
        "type": "Point",
        "coordinates": [
          104.510075,
          -4.837533333
        ]
      },
      "properties": {
        "location_name": "Powerhouse Besai Kemu",
        "slug": "pltm_besai_kemu_powerhouse",
        "date": "Sabtu, 10 Oktober 2026",
        "date_iso": "2026-10-10",
        "relative": "Lusa",
        "hour": "09:00",
        "rain_probability": 14.4,
        "risk_score": 81,
        "risk_class": "danger",
        "risk_label": "Berpotensi signifikan",
        "condition": "Cerah Berawan",
        "temp_c": 30.0,
        "humidity_pct": 61.0,
        "heat_index_c": 32.63,
        "wind_kmh": 4.0,
        "wind_dir": 0.0,
        "cloud_pct": 45.0
      }
    },
    {
      "type": "Feature",
      "geometry": {
        "type": "Point",
        "coordinates": [
          104.510075,
          -4.837533333
        ]
      },
      "properties": {
        "location_name": "Powerhouse Besai Kemu",
        "slug": "pltm_besai_kemu_powerhouse",
        "date": "Sabtu, 10 Oktober 2026",
        "date_iso": "2026-10-10",
        "relative": "Lusa",
        "hour": "10:00",
        "rain_probability": 27.6,
        "risk_score": 99,
        "risk_class": "danger",
        "risk_label": "Berpotensi signifikan",
        "condition": "Cerah Berawan",
        "temp_c": 31.0,
        "humidity_pct": 55.0,
        "heat_index_c": 33.67,
        "wind_kmh": 5.0,
        "wind_dir": 0.0,
        "cloud_pct": 45.0
      }
    },
    {
      "type": "Feature",
      "geometry": {
        "type": "Point",
        "coordinates": [
          104.510075,
          -4.837533333
        ]
      },
      "properties": {
        "location_name": "Powerhouse Besai Kemu",
        "slug": "pltm_besai_kemu_powerhouse",
        "date": "Sabtu, 10 Oktober 2026",
        "date_iso": "2026-10-10",
        "relative": "Lusa",
        "hour": "11:00",
        "rain_probability": 28.9,
        "risk_score": 100,
        "risk_class": "danger",
        "risk_label": "Berpotensi signifikan",
        "condition": "Cerah Berawan",
        "temp_c": 32.4,
        "humidity_pct": 50.0,
        "heat_index_c": 35.3,
        "wind_kmh": 6.5,
        "wind_dir": 0.0,
        "cloud_pct": 45.0
      }
    },
    {
      "type": "Feature",
      "geometry": {
        "type": "Point",
        "coordinates": [
          104.510075,
          -4.837533333
        ]
      },
      "properties": {
        "location_name": "Powerhouse Besai Kemu",
        "slug": "pltm_besai_kemu_powerhouse",
        "date": "Sabtu, 10 Oktober 2026",
        "date_iso": "2026-10-10",
        "relative": "Lusa",
        "hour": "12:00",
        "rain_probability": 28.9,
        "risk_score": 100,
        "risk_class": "danger",
        "risk_label": "Berpotensi signifikan",
        "condition": "Cerah Berawan",
        "temp_c": 33.5,
        "humidity_pct": 46.0,
        "heat_index_c": 35.64,
        "wind_kmh": 5.9,
        "wind_dir": 0.0,
        "cloud_pct": 75.0
      }
    },
    {
      "type": "Feature",
      "geometry": {
        "type": "Point",
        "coordinates": [
          104.510075,
          -4.837533333
        ]
      },
      "properties": {
        "location_name": "Powerhouse Besai Kemu",
        "slug": "pltm_besai_kemu_powerhouse",
        "date": "Sabtu, 10 Oktober 2026",
        "date_iso": "2026-10-10",
        "relative": "Lusa",
        "hour": "13:00",
        "rain_probability": 27.6,
        "risk_score": 100,
        "risk_class": "danger",
        "risk_label": "Berpotensi signifikan",
        "condition": "Cerah Berawan",
        "temp_c": 34.2,
        "humidity_pct": 45.0,
        "heat_index_c": 36.29,
        "wind_kmh": 5.4,
        "wind_dir": 0.0,
        "cloud_pct": 75.0
      }
    },
    {
      "type": "Feature",
      "geometry": {
        "type": "Point",
        "coordinates": [
          104.510075,
          -4.837533333
        ]
      },
      "properties": {
        "location_name": "Powerhouse Besai Kemu",
        "slug": "pltm_besai_kemu_powerhouse",
        "date": "Sabtu, 10 Oktober 2026",
        "date_iso": "2026-10-10",
        "relative": "Lusa",
        "hour": "14:00",
        "rain_probability": 43.3,
        "risk_score": 100,
        "risk_class": "danger",
        "risk_label": "Berpotensi signifikan",
        "condition": "Hujan Ringan",
        "temp_c": 33.2,
        "humidity_pct": 49.0,
        "heat_index_c": 36.4,
        "wind_kmh": 6.6,
        "wind_dir": 0.0,
        "cloud_pct": 75.0
      }
    },
    {
      "type": "Feature",
      "geometry": {
        "type": "Point",
        "coordinates": [
          104.510075,
          -4.837533333
        ]
      },
      "properties": {
        "location_name": "Powerhouse Besai Kemu",
        "slug": "pltm_besai_kemu_powerhouse",
        "date": "Sabtu, 10 Oktober 2026",
        "date_iso": "2026-10-10",
        "relative": "Lusa",
        "hour": "15:00",
        "rain_probability": 43.3,
        "risk_score": 100,
        "risk_class": "danger",
        "risk_label": "Berpotensi signifikan",
        "condition": "Hujan Ringan",
        "temp_c": 31.2,
        "humidity_pct": 57.0,
        "heat_index_c": 34.9,
        "wind_kmh": 10.8,
        "wind_dir": 0.0,
        "cloud_pct": 75.0
      }
    },
    {
      "type": "Feature",
      "geometry": {
        "type": "Point",
        "coordinates": [
          104.510075,
          -4.837533333
        ]
      },
      "properties": {
        "location_name": "Powerhouse Besai Kemu",
        "slug": "pltm_besai_kemu_powerhouse",
        "date": "Sabtu, 10 Oktober 2026",
        "date_iso": "2026-10-10",
        "relative": "Lusa",
        "hour": "16:00",
        "rain_probability": 41.5,
        "risk_score": 100,
        "risk_class": "danger",
        "risk_label": "Berpotensi signifikan",
        "condition": "Hujan Ringan",
        "temp_c": 30.1,
        "humidity_pct": 64.0,
        "heat_index_c": 34.4,
        "wind_kmh": 11.2,
        "wind_dir": 0.0,
        "cloud_pct": 75.0
      }
    },
    {
      "type": "Feature",
      "geometry": {
        "type": "Point",
        "coordinates": [
          104.510075,
          -4.837533333
        ]
      },
      "properties": {
        "location_name": "Powerhouse Besai Kemu",
        "slug": "pltm_besai_kemu_powerhouse",
        "date": "Sabtu, 10 Oktober 2026",
        "date_iso": "2026-10-10",
        "relative": "Lusa",
        "hour": "17:00",
        "rain_probability": 43.3,
        "risk_score": 100,
        "risk_class": "danger",
        "risk_label": "Berpotensi signifikan",
        "condition": "Hujan Ringan",
        "temp_c": 29.2,
        "humidity_pct": 69.0,
        "heat_index_c": 34.41,
        "wind_kmh": 8.4,
        "wind_dir": 0.0,
        "cloud_pct": 75.0
      }
    },
    {
      "type": "Feature",
      "geometry": {
        "type": "Point",
        "coordinates": [
          104.510075,
          -4.837533333
        ]
      },
      "properties": {
        "location_name": "Powerhouse Besai Kemu",
        "slug": "pltm_besai_kemu_powerhouse",
        "date": "Sabtu, 10 Oktober 2026",
        "date_iso": "2026-10-10",
        "relative": "Lusa",
        "hour": "18:00",
        "rain_probability": 43.3,
        "risk_score": 100,
        "risk_class": "danger",
        "risk_label": "Berpotensi signifikan",
        "condition": "Hujan Ringan",
        "temp_c": 27.8,
        "humidity_pct": 81.0,
        "heat_index_c": 31.89,
        "wind_kmh": 6.1,
        "wind_dir": 0.0,
        "cloud_pct": 75.0
      }
    },
    {
      "type": "Feature",
      "geometry": {
        "type": "Point",
        "coordinates": [
          104.510075,
          -4.837533333
        ]
      },
      "properties": {
        "location_name": "Powerhouse Besai Kemu",
        "slug": "pltm_besai_kemu_powerhouse",
        "date": "Sabtu, 10 Oktober 2026",
        "date_iso": "2026-10-10",
        "relative": "Lusa",
        "hour": "19:00",
        "rain_probability": 41.5,
        "risk_score": 100,
        "risk_class": "danger",
        "risk_label": "Berpotensi signifikan",
        "condition": "Hujan Ringan",
        "temp_c": 26.7,
        "humidity_pct": 87.0,
        "heat_index_c": 29.57,
        "wind_kmh": 6.0,
        "wind_dir": 0.0,
        "cloud_pct": 75.0
      }
    },
    {
      "type": "Feature",
      "geometry": {
        "type": "Point",
        "coordinates": [
          104.510075,
          -4.837533333
        ]
      },
      "properties": {
        "location_name": "Powerhouse Besai Kemu",
        "slug": "pltm_besai_kemu_powerhouse",
        "date": "Sabtu, 10 Oktober 2026",
        "date_iso": "2026-10-10",
        "relative": "Lusa",
        "hour": "20:00",
        "rain_probability": 28.9,
        "risk_score": 100,
        "risk_class": "danger",
        "risk_label": "Berpotensi signifikan",
        "condition": "Cerah Berawan",
        "temp_c": 26.0,
        "humidity_pct": 89.0,
        "heat_index_c": 26.0,
        "wind_kmh": 5.1,
        "wind_dir": 0.0,
        "cloud_pct": 45.0
      }
    },
    {
      "type": "Feature",
      "geometry": {
        "type": "Point",
        "coordinates": [
          104.510075,
          -4.837533333
        ]
      },
      "properties": {
        "location_name": "Powerhouse Besai Kemu",
        "slug": "pltm_besai_kemu_powerhouse",
        "date": "Sabtu, 10 Oktober 2026",
        "date_iso": "2026-10-10",
        "relative": "Lusa",
        "hour": "21:00",
        "rain_probability": 28.9,
        "risk_score": 99,
        "risk_class": "danger",
        "risk_label": "Berpotensi signifikan",
        "condition": "Hujan Ringan",
        "temp_c": 25.6,
        "humidity_pct": 91.0,
        "heat_index_c": 25.6,
        "wind_kmh": 3.7,
        "wind_dir": 0.0,
        "cloud_pct": 75.0
      }
    },
    {
      "type": "Feature",
      "geometry": {
        "type": "Point",
        "coordinates": [
          104.510075,
          -4.837533333
        ]
      },
      "properties": {
        "location_name": "Powerhouse Besai Kemu",
        "slug": "pltm_besai_kemu_powerhouse",
        "date": "Sabtu, 10 Oktober 2026",
        "date_iso": "2026-10-10",
        "relative": "Lusa",
        "hour": "22:00",
        "rain_probability": 27.6,
        "risk_score": 88,
        "risk_class": "danger",
        "risk_label": "Berpotensi signifikan",
        "condition": "Berawan",
        "temp_c": 25.3,
        "humidity_pct": 91.0,
        "heat_index_c": 25.3,
        "wind_kmh": 3.2,
        "wind_dir": 0.0,
        "cloud_pct": 75.0
      }
    },
    {
      "type": "Feature",
      "geometry": {
        "type": "Point",
        "coordinates": [
          104.510075,
          -4.837533333
        ]
      },
      "properties": {
        "location_name": "Powerhouse Besai Kemu",
        "slug": "pltm_besai_kemu_powerhouse",
        "date": "Sabtu, 10 Oktober 2026",
        "date_iso": "2026-10-10",
        "relative": "Lusa",
        "hour": "23:00",
        "rain_probability": 14.4,
        "risk_score": 80,
        "risk_class": "danger",
        "risk_label": "Berpotensi signifikan",
        "condition": "Berawan",
        "temp_c": 25.1,
        "humidity_pct": 90.0,
        "heat_index_c": 25.1,
        "wind_kmh": 3.6,
        "wind_dir": 0.0,
        "cloud_pct": 75.0
      }
    }
  ]
}