{
  "type": "FeatureCollection",
  "features": [
    {
      "type": "Feature",
      "geometry": {
        "type": "Point",
        "coordinates": [
          104.509577778,
          -4.839133333
        ]
      },
      "properties": {
        "location_name": "Headpond Besai Kemu",
        "slug": "pltm_besai_kemu_headpond",
        "date": "Minggu, 4 Oktober 2026",
        "date_iso": "2026-10-04",
        "relative": "Hari ini",
        "hour": "00:00",
        "rain_probability": 0,
        "risk_score": 34,
        "risk_class": "watch",
        "risk_label": "Perlu diperhatikan",
        "condition": "Cerah Berawan",
        "temp_c": 23.7,
        "humidity_pct": 88.0,
        "heat_index_c": 23.7,
        "wind_kmh": 5.1,
        "wind_dir": 0.0,
        "cloud_pct": 45.0
      }
    },
    {
      "type": "Feature",
      "geometry": {
        "type": "Point",
        "coordinates": [
          104.509577778,
          -4.839133333
        ]
      },
      "properties": {
        "location_name": "Headpond Besai Kemu",
        "slug": "pltm_besai_kemu_headpond",
        "date": "Minggu, 4 Oktober 2026",
        "date_iso": "2026-10-04",
        "relative": "Hari ini",
        "hour": "01:00",
        "rain_probability": 0,
        "risk_score": 29,
        "risk_class": "watch",
        "risk_label": "Perlu diperhatikan",
        "condition": "Berawan",
        "temp_c": 23.2,
        "humidity_pct": 88.0,
        "heat_index_c": 23.2,
        "wind_kmh": 5.4,
        "wind_dir": 0.0,
        "cloud_pct": 45.0
      }
    },
    {
      "type": "Feature",
      "geometry": {
        "type": "Point",
        "coordinates": [
          104.509577778,
          -4.839133333
        ]
      },
      "properties": {
        "location_name": "Headpond Besai Kemu",
        "slug": "pltm_besai_kemu_headpond",
        "date": "Minggu, 4 Oktober 2026",
        "date_iso": "2026-10-04",
        "relative": "Hari ini",
        "hour": "02:00",
        "rain_probability": 0,
        "risk_score": 25,
        "risk_class": "watch",
        "risk_label": "Perlu diperhatikan",
        "condition": "Cerah Berawan",
        "temp_c": 23.0,
        "humidity_pct": 89.0,
        "heat_index_c": 23.0,
        "wind_kmh": 5.7,
        "wind_dir": 0.0,
        "cloud_pct": 45.0
      }
    },
    {
      "type": "Feature",
      "geometry": {
        "type": "Point",
        "coordinates": [
          104.509577778,
          -4.839133333
        ]
      },
      "properties": {
        "location_name": "Headpond Besai Kemu",
        "slug": "pltm_besai_kemu_headpond",
        "date": "Minggu, 4 Oktober 2026",
        "date_iso": "2026-10-04",
        "relative": "Hari ini",
        "hour": "03:00",
        "rain_probability": 0,
        "risk_score": 23,
        "risk_class": "safe",
        "risk_label": "Aman",
        "condition": "Cerah Berawan",
        "temp_c": 22.8,
        "humidity_pct": 89.0,
        "heat_index_c": 22.8,
        "wind_kmh": 5.8,
        "wind_dir": 0.0,
        "cloud_pct": 45.0
      }
    },
    {
      "type": "Feature",
      "geometry": {
        "type": "Point",
        "coordinates": [
          104.509577778,
          -4.839133333
        ]
      },
      "properties": {
        "location_name": "Headpond Besai Kemu",
        "slug": "pltm_besai_kemu_headpond",
        "date": "Minggu, 4 Oktober 2026",
        "date_iso": "2026-10-04",
        "relative": "Hari ini",
        "hour": "04:00",
        "rain_probability": 0,
        "risk_score": 25,
        "risk_class": "safe",
        "risk_label": "Aman",
        "condition": "Berawan",
        "temp_c": 22.6,
        "humidity_pct": 87.0,
        "heat_index_c": 22.6,
        "wind_kmh": 6.5,
        "wind_dir": 0.0,
        "cloud_pct": 75.0
      }
    },
    {
      "type": "Feature",
      "geometry": {
        "type": "Point",
        "coordinates": [
          104.509577778,
          -4.839133333
        ]
      },
      "properties": {
        "location_name": "Headpond Besai Kemu",
        "slug": "pltm_besai_kemu_headpond",
        "date": "Minggu, 4 Oktober 2026",
        "date_iso": "2026-10-04",
        "relative": "Hari ini",
        "hour": "05:00",
        "rain_probability": 0,
        "risk_score": 24,
        "risk_class": "safe",
        "risk_label": "Aman",
        "condition": "Berawan",
        "temp_c": 22.9,
        "humidity_pct": 85.0,
        "heat_index_c": 22.9,
        "wind_kmh": 6.8,
        "wind_dir": 0.0,
        "cloud_pct": 75.0
      }
    },
    {
      "type": "Feature",
      "geometry": {
        "type": "Point",
        "coordinates": [
          104.509577778,
          -4.839133333
        ]
      },
      "properties": {
        "location_name": "Headpond Besai Kemu",
        "slug": "pltm_besai_kemu_headpond",
        "date": "Minggu, 4 Oktober 2026",
        "date_iso": "2026-10-04",
        "relative": "Hari ini",
        "hour": "06:00",
        "rain_probability": 0,
        "risk_score": 24,
        "risk_class": "safe",
        "risk_label": "Aman",
        "condition": "Berawan",
        "temp_c": 23.6,
        "humidity_pct": 84.0,
        "heat_index_c": 23.6,
        "wind_kmh": 6.8,
        "wind_dir": 0.0,
        "cloud_pct": 75.0
      }
    },
    {
      "type": "Feature",
      "geometry": {
        "type": "Point",
        "coordinates": [
          104.509577778,
          -4.839133333
        ]
      },
      "properties": {
        "location_name": "Headpond Besai Kemu",
        "slug": "pltm_besai_kemu_headpond",
        "date": "Minggu, 4 Oktober 2026",
        "date_iso": "2026-10-04",
        "relative": "Hari ini",
        "hour": "07:00",
        "rain_probability": 0,
        "risk_score": 20,
        "risk_class": "safe",
        "risk_label": "Aman",
        "condition": "Berawan",
        "temp_c": 24.5,
        "humidity_pct": 78.0,
        "heat_index_c": 24.5,
        "wind_kmh": 4.7,
        "wind_dir": 0.0,
        "cloud_pct": 45.0
      }
    },
    {
      "type": "Feature",
      "geometry": {
        "type": "Point",
        "coordinates": [
          104.509577778,
          -4.839133333
        ]
      },
      "properties": {
        "location_name": "Headpond Besai Kemu",
        "slug": "pltm_besai_kemu_headpond",
        "date": "Minggu, 4 Oktober 2026",
        "date_iso": "2026-10-04",
        "relative": "Hari ini",
        "hour": "08:00",
        "rain_probability": 0,
        "risk_score": 32,
        "risk_class": "watch",
        "risk_label": "Perlu diperhatikan",
        "condition": "Berawan",
        "temp_c": 26.3,
        "humidity_pct": 71.0,
        "heat_index_c": 26.3,
        "wind_kmh": 3.9,
        "wind_dir": 0.0,
        "cloud_pct": 45.0
      }
    },
    {
      "type": "Feature",
      "geometry": {
        "type": "Point",
        "coordinates": [
          104.509577778,
          -4.839133333
        ]
      },
      "properties": {
        "location_name": "Headpond Besai Kemu",
        "slug": "pltm_besai_kemu_headpond",
        "date": "Minggu, 4 Oktober 2026",
        "date_iso": "2026-10-04",
        "relative": "Hari ini",
        "hour": "09:00",
        "rain_probability": 0,
        "risk_score": 58,
        "risk_class": "rain",
        "risk_label": "Waspada",
        "condition": "Berawan",
        "temp_c": 29.0,
        "humidity_pct": 59.0,
        "heat_index_c": 30.47,
        "wind_kmh": 7.4,
        "wind_dir": 0.0,
        "cloud_pct": 75.0
      }
    },
    {
      "type": "Feature",
      "geometry": {
        "type": "Point",
        "coordinates": [
          104.509577778,
          -4.839133333
        ]
      },
      "properties": {
        "location_name": "Headpond Besai Kemu",
        "slug": "pltm_besai_kemu_headpond",
        "date": "Minggu, 4 Oktober 2026",
        "date_iso": "2026-10-04",
        "relative": "Hari ini",
        "hour": "10:00",
        "rain_probability": 0,
        "risk_score": 79,
        "risk_class": "danger",
        "risk_label": "Berpotensi signifikan",
        "condition": "Berawan",
        "temp_c": 29.9,
        "humidity_pct": 57.0,
        "heat_index_c": 32.26,
        "wind_kmh": 9.8,
        "wind_dir": 0.0,
        "cloud_pct": 75.0
      }
    },
    {
      "type": "Feature",
      "geometry": {
        "type": "Point",
        "coordinates": [
          104.509577778,
          -4.839133333
        ]
      },
      "properties": {
        "location_name": "Headpond Besai Kemu",
        "slug": "pltm_besai_kemu_headpond",
        "date": "Minggu, 4 Oktober 2026",
        "date_iso": "2026-10-04",
        "relative": "Hari ini",
        "hour": "11:00",
        "rain_probability": 0,
        "risk_score": 94,
        "risk_class": "danger",
        "risk_label": "Berpotensi signifikan",
        "condition": "Berawan",
        "temp_c": 31.4,
        "humidity_pct": 50.0,
        "heat_index_c": 33.14,
        "wind_kmh": 11.3,
        "wind_dir": 0.0,
        "cloud_pct": 75.0
      }
    },
    {
      "type": "Feature",
      "geometry": {
        "type": "Point",
        "coordinates": [
          104.509577778,
          -4.839133333
        ]
      },
      "properties": {
        "location_name": "Headpond Besai Kemu",
        "slug": "pltm_besai_kemu_headpond",
        "date": "Minggu, 4 Oktober 2026",
        "date_iso": "2026-10-04",
        "relative": "Hari ini",
        "hour": "12:00",
        "rain_probability": 0,
        "risk_score": 100,
        "risk_class": "danger",
        "risk_label": "Berpotensi signifikan",
        "condition": "Berawan",
        "temp_c": 32.6,
        "humidity_pct": 46.0,
        "heat_index_c": 33.79,
        "wind_kmh": 10.2,
        "wind_dir": 0.0,
        "cloud_pct": 75.0
      }
    },
    {
      "type": "Feature",
      "geometry": {
        "type": "Point",
        "coordinates": [
          104.509577778,
          -4.839133333
        ]
      },
      "properties": {
        "location_name": "Headpond Besai Kemu",
        "slug": "pltm_besai_kemu_headpond",
        "date": "Minggu, 4 Oktober 2026",
        "date_iso": "2026-10-04",
        "relative": "Hari ini",
        "hour": "13:00",
        "rain_probability": 13.8,
        "risk_score": 100,
        "risk_class": "danger",
        "risk_label": "Berpotensi signifikan",
        "condition": "Berawan",
        "temp_c": 33.4,
        "humidity_pct": 44.0,
        "heat_index_c": 35.17,
        "wind_kmh": 9.4,
        "wind_dir": 0.0,
        "cloud_pct": 75.0
      }
    },
    {
      "type": "Feature",
      "geometry": {
        "type": "Point",
        "coordinates": [
          104.509577778,
          -4.839133333
        ]
      },
      "properties": {
        "location_name": "Headpond Besai Kemu",
        "slug": "pltm_besai_kemu_headpond",
        "date": "Minggu, 4 Oktober 2026",
        "date_iso": "2026-10-04",
        "relative": "Hari ini",
        "hour": "14:00",
        "rain_probability": 0,
        "risk_score": 100,
        "risk_class": "danger",
        "risk_label": "Berpotensi signifikan",
        "condition": "Berawan",
        "temp_c": 31.9,
        "humidity_pct": 46.0,
        "heat_index_c": 34.29,
        "wind_kmh": 9.2,
        "wind_dir": 0.0,
        "cloud_pct": 75.0
      }
    },
    {
      "type": "Feature",
      "geometry": {
        "type": "Point",
        "coordinates": [
          104.509577778,
          -4.839133333
        ]
      },
      "properties": {
        "location_name": "Headpond Besai Kemu",
        "slug": "pltm_besai_kemu_headpond",
        "date": "Minggu, 4 Oktober 2026",
        "date_iso": "2026-10-04",
        "relative": "Hari ini",
        "hour": "15:00",
        "rain_probability": 14.4,
        "risk_score": 96,
        "risk_class": "danger",
        "risk_label": "Berpotensi signifikan",
        "condition": "Berawan",
        "temp_c": 32.2,
        "humidity_pct": 48.0,
        "heat_index_c": 34.49,
        "wind_kmh": 10.1,
        "wind_dir": 0.0,
        "cloud_pct": 75.0
      }
    },
    {
      "type": "Feature",
      "geometry": {
        "type": "Point",
        "coordinates": [
          104.509577778,
          -4.839133333
        ]
      },
      "properties": {
        "location_name": "Headpond Besai Kemu",
        "slug": "pltm_besai_kemu_headpond",
        "date": "Minggu, 4 Oktober 2026",
        "date_iso": "2026-10-04",
        "relative": "Hari ini",
        "hour": "16:00",
        "rain_probability": 13.8,
        "risk_score": 94,
        "risk_class": "danger",
        "risk_label": "Berpotensi signifikan",
        "condition": "Cerah Berawan",
        "temp_c": 31.2,
        "humidity_pct": 52.0,
        "heat_index_c": 34.08,
        "wind_kmh": 9.3,
        "wind_dir": 0.0,
        "cloud_pct": 45.0
      }
    },
    {
      "type": "Feature",
      "geometry": {
        "type": "Point",
        "coordinates": [
          104.509577778,
          -4.839133333
        ]
      },
      "properties": {
        "location_name": "Headpond Besai Kemu",
        "slug": "pltm_besai_kemu_headpond",
        "date": "Minggu, 4 Oktober 2026",
        "date_iso": "2026-10-04",
        "relative": "Hari ini",
        "hour": "17:00",
        "rain_probability": 14.4,
        "risk_score": 84,
        "risk_class": "danger",
        "risk_label": "Berpotensi signifikan",
        "condition": "Berawan",
        "temp_c": 30.2,
        "humidity_pct": 57.0,
        "heat_index_c": 33.12,
        "wind_kmh": 8.6,
        "wind_dir": 0.0,
        "cloud_pct": 75.0
      }
    },
    {
      "type": "Feature",
      "geometry": {
        "type": "Point",
        "coordinates": [
          104.509577778,
          -4.839133333
        ]
      },
      "properties": {
        "location_name": "Headpond Besai Kemu",
        "slug": "pltm_besai_kemu_headpond",
        "date": "Minggu, 4 Oktober 2026",
        "date_iso": "2026-10-04",
        "relative": "Hari ini",
        "hour": "18:00",
        "rain_probability": 14.4,
        "risk_score": 81,
        "risk_class": "danger",
        "risk_label": "Berpotensi signifikan",
        "condition": "Berawan",
        "temp_c": 28.2,
        "humidity_pct": 66.0,
        "heat_index_c": 30.37,
        "wind_kmh": 9.4,
        "wind_dir": 0.0,
        "cloud_pct": 45.0
      }
    },
    {
      "type": "Feature",
      "geometry": {
        "type": "Point",
        "coordinates": [
          104.509577778,
          -4.839133333
        ]
      },
      "properties": {
        "location_name": "Headpond Besai Kemu",
        "slug": "pltm_besai_kemu_headpond",
        "date": "Minggu, 4 Oktober 2026",
        "date_iso": "2026-10-04",
        "relative": "Hari ini",
        "hour": "19:00",
        "rain_probability": 13.8,
        "risk_score": 67,
        "risk_class": "rain",
        "risk_label": "Waspada",
        "condition": "Cerah",
        "temp_c": 27.1,
        "humidity_pct": 70.0,
        "heat_index_c": 29.18,
        "wind_kmh": 8.6,
        "wind_dir": 0.0,
        "cloud_pct": 45.0
      }
    },
    {
      "type": "Feature",
      "geometry": {
        "type": "Point",
        "coordinates": [
          104.509577778,
          -4.839133333
        ]
      },
      "properties": {
        "location_name": "Headpond Besai Kemu",
        "slug": "pltm_besai_kemu_headpond",
        "date": "Minggu, 4 Oktober 2026",
        "date_iso": "2026-10-04",
        "relative": "Hari ini",
        "hour": "20:00",
        "rain_probability": 0,
        "risk_score": 57,
        "risk_class": "rain",
        "risk_label": "Waspada",
        "condition": "Cerah",
        "temp_c": 26.3,
        "humidity_pct": 78.0,
        "heat_index_c": 26.3,
        "wind_kmh": 8.5,
        "wind_dir": 0.0,
        "cloud_pct": 45.0
      }
    },
    {
      "type": "Feature",
      "geometry": {
        "type": "Point",
        "coordinates": [
          104.509577778,
          -4.839133333
        ]
      },
      "properties": {
        "location_name": "Headpond Besai Kemu",
        "slug": "pltm_besai_kemu_headpond",
        "date": "Minggu, 4 Oktober 2026",
        "date_iso": "2026-10-04",
        "relative": "Hari ini",
        "hour": "21:00",
        "rain_probability": 14.4,
        "risk_score": 49,
        "risk_class": "watch",
        "risk_label": "Perlu diperhatikan",
        "condition": "Berawan",
        "temp_c": 25.9,
        "humidity_pct": 82.0,
        "heat_index_c": 25.9,
        "wind_kmh": 5.8,
        "wind_dir": 0.0,
        "cloud_pct": 75.0
      }
    },
    {
      "type": "Feature",
      "geometry": {
        "type": "Point",
        "coordinates": [
          104.509577778,
          -4.839133333
        ]
      },
      "properties": {
        "location_name": "Headpond Besai Kemu",
        "slug": "pltm_besai_kemu_headpond",
        "date": "Minggu, 4 Oktober 2026",
        "date_iso": "2026-10-04",
        "relative": "Hari ini",
        "hour": "22:00",
        "rain_probability": 0,
        "risk_score": 46,
        "risk_class": "watch",
        "risk_label": "Perlu diperhatikan",
        "condition": "Berawan",
        "temp_c": 25.4,
        "humidity_pct": 84.0,
        "heat_index_c": 25.4,
        "wind_kmh": 5.1,
        "wind_dir": 0.0,
        "cloud_pct": 75.0
      }
    },
    {
      "type": "Feature",
      "geometry": {
        "type": "Point",
        "coordinates": [
          104.509577778,
          -4.839133333
        ]
      },
      "properties": {
        "location_name": "Headpond Besai Kemu",
        "slug": "pltm_besai_kemu_headpond",
        "date": "Minggu, 4 Oktober 2026",
        "date_iso": "2026-10-04",
        "relative": "Hari ini",
        "hour": "23:00",
        "rain_probability": 0,
        "risk_score": 42,
        "risk_class": "watch",
        "risk_label": "Perlu diperhatikan",
        "condition": "Berawan",
        "temp_c": 24.0,
        "humidity_pct": 86.0,
        "heat_index_c": 24.0,
        "wind_kmh": 3.3,
        "wind_dir": 0.0,
        "cloud_pct": 75.0
      }
    },
    {
      "type": "Feature",
      "geometry": {
        "type": "Point",
        "coordinates": [
          104.509577778,
          -4.839133333
        ]
      },
      "properties": {
        "location_name": "Headpond Besai Kemu",
        "slug": "pltm_besai_kemu_headpond",
        "date": "Senin, 5 Oktober 2026",
        "date_iso": "2026-10-05",
        "relative": "Besok",
        "hour": "00:00",
        "rain_probability": 0,
        "risk_score": 39,
        "risk_class": "watch",
        "risk_label": "Perlu diperhatikan",
        "condition": "Berawan",
        "temp_c": 23.7,
        "humidity_pct": 87.0,
        "heat_index_c": 23.7,
        "wind_kmh": 3.7,
        "wind_dir": 0.0,
        "cloud_pct": 75.0
      }
    },
    {
      "type": "Feature",
      "geometry": {
        "type": "Point",
        "coordinates": [
          104.509577778,
          -4.839133333
        ]
      },
      "properties": {
        "location_name": "Headpond Besai Kemu",
        "slug": "pltm_besai_kemu_headpond",
        "date": "Senin, 5 Oktober 2026",
        "date_iso": "2026-10-05",
        "relative": "Besok",
        "hour": "01:00",
        "rain_probability": 0,
        "risk_score": 37,
        "risk_class": "watch",
        "risk_label": "Perlu diperhatikan",
        "condition": "Berawan",
        "temp_c": 23.5,
        "humidity_pct": 88.0,
        "heat_index_c": 23.5,
        "wind_kmh": 5.0,
        "wind_dir": 0.0,
        "cloud_pct": 75.0
      }
    },
    {
      "type": "Feature",
      "geometry": {
        "type": "Point",
        "coordinates": [
          104.509577778,
          -4.839133333
        ]
      },
      "properties": {
        "location_name": "Headpond Besai Kemu",
        "slug": "pltm_besai_kemu_headpond",
        "date": "Senin, 5 Oktober 2026",
        "date_iso": "2026-10-05",
        "relative": "Besok",
        "hour": "02:00",
        "rain_probability": 0,
        "risk_score": 33,
        "risk_class": "watch",
        "risk_label": "Perlu diperhatikan",
        "condition": "Berawan",
        "temp_c": 23.2,
        "humidity_pct": 88.0,
        "heat_index_c": 23.2,
        "wind_kmh": 5.1,
        "wind_dir": 0.0,
        "cloud_pct": 45.0
      }
    },
    {
      "type": "Feature",
      "geometry": {
        "type": "Point",
        "coordinates": [
          104.509577778,
          -4.839133333
        ]
      },
      "properties": {
        "location_name": "Headpond Besai Kemu",
        "slug": "pltm_besai_kemu_headpond",
        "date": "Senin, 5 Oktober 2026",
        "date_iso": "2026-10-05",
        "relative": "Besok",
        "hour": "03:00",
        "rain_probability": 0,
        "risk_score": 29,
        "risk_class": "watch",
        "risk_label": "Perlu diperhatikan",
        "condition": "Berawan",
        "temp_c": 22.7,
        "humidity_pct": 88.0,
        "heat_index_c": 22.7,
        "wind_kmh": 5.3,
        "wind_dir": 0.0,
        "cloud_pct": 75.0
      }
    },
    {
      "type": "Feature",
      "geometry": {
        "type": "Point",
        "coordinates": [
          104.509577778,
          -4.839133333
        ]
      },
      "properties": {
        "location_name": "Headpond Besai Kemu",
        "slug": "pltm_besai_kemu_headpond",
        "date": "Senin, 5 Oktober 2026",
        "date_iso": "2026-10-05",
        "relative": "Besok",
        "hour": "04:00",
        "rain_probability": 0,
        "risk_score": 25,
        "risk_class": "safe",
        "risk_label": "Aman",
        "condition": "Berawan",
        "temp_c": 22.6,
        "humidity_pct": 87.0,
        "heat_index_c": 22.6,
        "wind_kmh": 5.4,
        "wind_dir": 0.0,
        "cloud_pct": 75.0
      }
    },
    {
      "type": "Feature",
      "geometry": {
        "type": "Point",
        "coordinates": [
          104.509577778,
          -4.839133333
        ]
      },
      "properties": {
        "location_name": "Headpond Besai Kemu",
        "slug": "pltm_besai_kemu_headpond",
        "date": "Senin, 5 Oktober 2026",
        "date_iso": "2026-10-05",
        "relative": "Besok",
        "hour": "05:00",
        "rain_probability": 0,
        "risk_score": 25,
        "risk_class": "watch",
        "risk_label": "Perlu diperhatikan",
        "condition": "Berawan",
        "temp_c": 22.6,
        "humidity_pct": 88.0,
        "heat_index_c": 22.6,
        "wind_kmh": 4.8,
        "wind_dir": 0.0,
        "cloud_pct": 75.0
      }
    },
    {
      "type": "Feature",
      "geometry": {
        "type": "Point",
        "coordinates": [
          104.509577778,
          -4.839133333
        ]
      },
      "properties": {
        "location_name": "Headpond Besai Kemu",
        "slug": "pltm_besai_kemu_headpond",
        "date": "Senin, 5 Oktober 2026",
        "date_iso": "2026-10-05",
        "relative": "Besok",
        "hour": "06:00",
        "rain_probability": 0,
        "risk_score": 22,
        "risk_class": "safe",
        "risk_label": "Aman",
        "condition": "Cerah Berawan",
        "temp_c": 22.9,
        "humidity_pct": 87.0,
        "heat_index_c": 22.9,
        "wind_kmh": 4.4,
        "wind_dir": 0.0,
        "cloud_pct": 45.0
      }
    },
    {
      "type": "Feature",
      "geometry": {
        "type": "Point",
        "coordinates": [
          104.509577778,
          -4.839133333
        ]
      },
      "properties": {
        "location_name": "Headpond Besai Kemu",
        "slug": "pltm_besai_kemu_headpond",
        "date": "Senin, 5 Oktober 2026",
        "date_iso": "2026-10-05",
        "relative": "Besok",
        "hour": "07:00",
        "rain_probability": 0,
        "risk_score": 20,
        "risk_class": "safe",
        "risk_label": "Aman",
        "condition": "Cerah Berawan",
        "temp_c": 24.7,
        "humidity_pct": 77.0,
        "heat_index_c": 24.7,
        "wind_kmh": 4.4,
        "wind_dir": 0.0,
        "cloud_pct": 45.0
      }
    },
    {
      "type": "Feature",
      "geometry": {
        "type": "Point",
        "coordinates": [
          104.509577778,
          -4.839133333
        ]
      },
      "properties": {
        "location_name": "Headpond Besai Kemu",
        "slug": "pltm_besai_kemu_headpond",
        "date": "Senin, 5 Oktober 2026",
        "date_iso": "2026-10-05",
        "relative": "Besok",
        "hour": "08:00",
        "rain_probability": 0,
        "risk_score": 48,
        "risk_class": "watch",
        "risk_label": "Perlu diperhatikan",
        "condition": "Cerah Berawan",
        "temp_c": 26.7,
        "humidity_pct": 69.0,
        "heat_index_c": 28.5,
        "wind_kmh": 3.4,
        "wind_dir": 0.0,
        "cloud_pct": 45.0
      }
    },
    {
      "type": "Feature",
      "geometry": {
        "type": "Point",
        "coordinates": [
          104.509577778,
          -4.839133333
        ]
      },
      "properties": {
        "location_name": "Headpond Besai Kemu",
        "slug": "pltm_besai_kemu_headpond",
        "date": "Senin, 5 Oktober 2026",
        "date_iso": "2026-10-05",
        "relative": "Besok",
        "hour": "09:00",
        "rain_probability": 0,
        "risk_score": 68,
        "risk_class": "rain",
        "risk_label": "Waspada",
        "condition": "Cerah Berawan",
        "temp_c": 29.0,
        "humidity_pct": 57.0,
        "heat_index_c": 31.0,
        "wind_kmh": 6.5,
        "wind_dir": 0.0,
        "cloud_pct": 45.0
      }
    },
    {
      "type": "Feature",
      "geometry": {
        "type": "Point",
        "coordinates": [
          104.509577778,
          -4.839133333
        ]
      },
      "properties": {
        "location_name": "Headpond Besai Kemu",
        "slug": "pltm_besai_kemu_headpond",
        "date": "Senin, 5 Oktober 2026",
        "date_iso": "2026-10-05",
        "relative": "Besok",
        "hour": "10:00",
        "rain_probability": 0,
        "risk_score": 83,
        "risk_class": "danger",
        "risk_label": "Berpotensi signifikan",
        "condition": "Cerah Berawan",
        "temp_c": 30.5,
        "humidity_pct": 52.0,
        "heat_index_c": 32.9,
        "wind_kmh": 9.4,
        "wind_dir": 0.0,
        "cloud_pct": 45.0
      }
    },
    {
      "type": "Feature",
      "geometry": {
        "type": "Point",
        "coordinates": [
          104.509577778,
          -4.839133333
        ]
      },
      "properties": {
        "location_name": "Headpond Besai Kemu",
        "slug": "pltm_besai_kemu_headpond",
        "date": "Senin, 5 Oktober 2026",
        "date_iso": "2026-10-05",
        "relative": "Besok",
        "hour": "11:00",
        "rain_probability": 0,
        "risk_score": 97,
        "risk_class": "danger",
        "risk_label": "Berpotensi signifikan",
        "condition": "Cerah Berawan",
        "temp_c": 32.2,
        "humidity_pct": 48.0,
        "heat_index_c": 33.96,
        "wind_kmh": 11.9,
        "wind_dir": 0.0,
        "cloud_pct": 45.0
      }
    },
    {
      "type": "Feature",
      "geometry": {
        "type": "Point",
        "coordinates": [
          104.509577778,
          -4.839133333
        ]
      },
      "properties": {
        "location_name": "Headpond Besai Kemu",
        "slug": "pltm_besai_kemu_headpond",
        "date": "Senin, 5 Oktober 2026",
        "date_iso": "2026-10-05",
        "relative": "Besok",
        "hour": "12:00",
        "rain_probability": 0,
        "risk_score": 100,
        "risk_class": "danger",
        "risk_label": "Berpotensi signifikan",
        "condition": "Cerah Berawan",
        "temp_c": 32.0,
        "humidity_pct": 47.0,
        "heat_index_c": 34.15,
        "wind_kmh": 10.7,
        "wind_dir": 0.0,
        "cloud_pct": 45.0
      }
    },
    {
      "type": "Feature",
      "geometry": {
        "type": "Point",
        "coordinates": [
          104.509577778,
          -4.839133333
        ]
      },
      "properties": {
        "location_name": "Headpond Besai Kemu",
        "slug": "pltm_besai_kemu_headpond",
        "date": "Senin, 5 Oktober 2026",
        "date_iso": "2026-10-05",
        "relative": "Besok",
        "hour": "13:00",
        "rain_probability": 0,
        "risk_score": 100,
        "risk_class": "danger",
        "risk_label": "Berpotensi signifikan",
        "condition": "Cerah Berawan",
        "temp_c": 34.2,
        "humidity_pct": 41.0,
        "heat_index_c": 35.1,
        "wind_kmh": 11.0,
        "wind_dir": 0.0,
        "cloud_pct": 45.0
      }
    },
    {
      "type": "Feature",
      "geometry": {
        "type": "Point",
        "coordinates": [
          104.509577778,
          -4.839133333
        ]
      },
      "properties": {
        "location_name": "Headpond Besai Kemu",
        "slug": "pltm_besai_kemu_headpond",
        "date": "Senin, 5 Oktober 2026",
        "date_iso": "2026-10-05",
        "relative": "Besok",
        "hour": "14:00",
        "rain_probability": 0,
        "risk_score": 100,
        "risk_class": "danger",
        "risk_label": "Berpotensi signifikan",
        "condition": "Berawan",
        "temp_c": 34.8,
        "humidity_pct": 39.0,
        "heat_index_c": 35.11,
        "wind_kmh": 11.9,
        "wind_dir": 0.0,
        "cloud_pct": 75.0
      }
    },
    {
      "type": "Feature",
      "geometry": {
        "type": "Point",
        "coordinates": [
          104.509577778,
          -4.839133333
        ]
      },
      "properties": {
        "location_name": "Headpond Besai Kemu",
        "slug": "pltm_besai_kemu_headpond",
        "date": "Senin, 5 Oktober 2026",
        "date_iso": "2026-10-05",
        "relative": "Besok",
        "hour": "15:00",
        "rain_probability": 0,
        "risk_score": 100,
        "risk_class": "danger",
        "risk_label": "Berpotensi signifikan",
        "condition": "Cerah Berawan",
        "temp_c": 34.5,
        "humidity_pct": 38.0,
        "heat_index_c": 35.0,
        "wind_kmh": 11.2,
        "wind_dir": 0.0,
        "cloud_pct": 45.0
      }
    },
    {
      "type": "Feature",
      "geometry": {
        "type": "Point",
        "coordinates": [
          104.509577778,
          -4.839133333
        ]
      },
      "properties": {
        "location_name": "Headpond Besai Kemu",
        "slug": "pltm_besai_kemu_headpond",
        "date": "Senin, 5 Oktober 2026",
        "date_iso": "2026-10-05",
        "relative": "Besok",
        "hour": "16:00",
        "rain_probability": 0,
        "risk_score": 100,
        "risk_class": "danger",
        "risk_label": "Berpotensi signifikan",
        "condition": "Cerah Berawan",
        "temp_c": 32.7,
        "humidity_pct": 43.0,
        "heat_index_c": 34.43,
        "wind_kmh": 11.2,
        "wind_dir": 0.0,
        "cloud_pct": 45.0
      }
    },
    {
      "type": "Feature",
      "geometry": {
        "type": "Point",
        "coordinates": [
          104.509577778,
          -4.839133333
        ]
      },
      "properties": {
        "location_name": "Headpond Besai Kemu",
        "slug": "pltm_besai_kemu_headpond",
        "date": "Senin, 5 Oktober 2026",
        "date_iso": "2026-10-05",
        "relative": "Besok",
        "hour": "17:00",
        "rain_probability": 0,
        "risk_score": 96,
        "risk_class": "danger",
        "risk_label": "Berpotensi signifikan",
        "condition": "Cerah Berawan",
        "temp_c": 31.8,
        "humidity_pct": 46.0,
        "heat_index_c": 33.57,
        "wind_kmh": 10.8,
        "wind_dir": 0.0,
        "cloud_pct": 45.0
      }
    },
    {
      "type": "Feature",
      "geometry": {
        "type": "Point",
        "coordinates": [
          104.509577778,
          -4.839133333
        ]
      },
      "properties": {
        "location_name": "Headpond Besai Kemu",
        "slug": "pltm_besai_kemu_headpond",
        "date": "Senin, 5 Oktober 2026",
        "date_iso": "2026-10-05",
        "relative": "Besok",
        "hour": "18:00",
        "rain_probability": 0,
        "risk_score": 89,
        "risk_class": "danger",
        "risk_label": "Berpotensi signifikan",
        "condition": "Cerah Berawan",
        "temp_c": 29.5,
        "humidity_pct": 53.0,
        "heat_index_c": 31.99,
        "wind_kmh": 10.7,
        "wind_dir": 0.0,
        "cloud_pct": 45.0
      }
    },
    {
      "type": "Feature",
      "geometry": {
        "type": "Point",
        "coordinates": [
          104.509577778,
          -4.839133333
        ]
      },
      "properties": {
        "location_name": "Headpond Besai Kemu",
        "slug": "pltm_besai_kemu_headpond",
        "date": "Senin, 5 Oktober 2026",
        "date_iso": "2026-10-05",
        "relative": "Besok",
        "hour": "19:00",
        "rain_probability": 0,
        "risk_score": 81,
        "risk_class": "danger",
        "risk_label": "Berpotensi signifikan",
        "condition": "Cerah Berawan",
        "temp_c": 28.4,
        "humidity_pct": 68.0,
        "heat_index_c": 30.9,
        "wind_kmh": 10.1,
        "wind_dir": 0.0,
        "cloud_pct": 45.0
      }
    },
    {
      "type": "Feature",
      "geometry": {
        "type": "Point",
        "coordinates": [
          104.509577778,
          -4.839133333
        ]
      },
      "properties": {
        "location_name": "Headpond Besai Kemu",
        "slug": "pltm_besai_kemu_headpond",
        "date": "Senin, 5 Oktober 2026",
        "date_iso": "2026-10-05",
        "relative": "Besok",
        "hour": "20:00",
        "rain_probability": 0,
        "risk_score": 63,
        "risk_class": "rain",
        "risk_label": "Waspada",
        "condition": "Cerah Berawan",
        "temp_c": 27.4,
        "humidity_pct": 69.0,
        "heat_index_c": 29.4,
        "wind_kmh": 9.0,
        "wind_dir": 0.0,
        "cloud_pct": 45.0
      }
    },
    {
      "type": "Feature",
      "geometry": {
        "type": "Point",
        "coordinates": [
          104.509577778,
          -4.839133333
        ]
      },
      "properties": {
        "location_name": "Headpond Besai Kemu",
        "slug": "pltm_besai_kemu_headpond",
        "date": "Senin, 5 Oktober 2026",
        "date_iso": "2026-10-05",
        "relative": "Besok",
        "hour": "21:00",
        "rain_probability": 0,
        "risk_score": 52,
        "risk_class": "watch",
        "risk_label": "Perlu diperhatikan",
        "condition": "Cerah Berawan",
        "temp_c": 25.6,
        "humidity_pct": 75.0,
        "heat_index_c": 25.6,
        "wind_kmh": 6.5,
        "wind_dir": 0.0,
        "cloud_pct": 45.0
      }
    },
    {
      "type": "Feature",
      "geometry": {
        "type": "Point",
        "coordinates": [
          104.509577778,
          -4.839133333
        ]
      },
      "properties": {
        "location_name": "Headpond Besai Kemu",
        "slug": "pltm_besai_kemu_headpond",
        "date": "Senin, 5 Oktober 2026",
        "date_iso": "2026-10-05",
        "relative": "Besok",
        "hour": "22:00",
        "rain_probability": 0,
        "risk_score": 52,
        "risk_class": "watch",
        "risk_label": "Perlu diperhatikan",
        "condition": "Berawan",
        "temp_c": 24.8,
        "humidity_pct": 83.0,
        "heat_index_c": 24.8,
        "wind_kmh": 4.2,
        "wind_dir": 0.0,
        "cloud_pct": 45.0
      }
    },
    {
      "type": "Feature",
      "geometry": {
        "type": "Point",
        "coordinates": [
          104.509577778,
          -4.839133333
        ]
      },
      "properties": {
        "location_name": "Headpond Besai Kemu",
        "slug": "pltm_besai_kemu_headpond",
        "date": "Senin, 5 Oktober 2026",
        "date_iso": "2026-10-05",
        "relative": "Besok",
        "hour": "23:00",
        "rain_probability": 0,
        "risk_score": 50,
        "risk_class": "watch",
        "risk_label": "Perlu diperhatikan",
        "condition": "Cerah Berawan",
        "temp_c": 24.4,
        "humidity_pct": 85.0,
        "heat_index_c": 24.4,
        "wind_kmh": 5.0,
        "wind_dir": 0.0,
        "cloud_pct": 45.0
      }
    },
    {
      "type": "Feature",
      "geometry": {
        "type": "Point",
        "coordinates": [
          104.509577778,
          -4.839133333
        ]
      },
      "properties": {
        "location_name": "Headpond Besai Kemu",
        "slug": "pltm_besai_kemu_headpond",
        "date": "Selasa, 6 Oktober 2026",
        "date_iso": "2026-10-06",
        "relative": "Lusa",
        "hour": "00:00",
        "rain_probability": 0,
        "risk_score": 51,
        "risk_class": "watch",
        "risk_label": "Perlu diperhatikan",
        "condition": "Cerah Berawan",
        "temp_c": 24.2,
        "humidity_pct": 87.0,
        "heat_index_c": 24.2,
        "wind_kmh": 4.7,
        "wind_dir": 0.0,
        "cloud_pct": 45.0
      }
    },
    {
      "type": "Feature",
      "geometry": {
        "type": "Point",
        "coordinates": [
          104.509577778,
          -4.839133333
        ]
      },
      "properties": {
        "location_name": "Headpond Besai Kemu",
        "slug": "pltm_besai_kemu_headpond",
        "date": "Selasa, 6 Oktober 2026",
        "date_iso": "2026-10-06",
        "relative": "Lusa",
        "hour": "01:00",
        "rain_probability": 0,
        "risk_score": 47,
        "risk_class": "watch",
        "risk_label": "Perlu diperhatikan",
        "condition": "Cerah Berawan",
        "temp_c": 24.0,
        "humidity_pct": 86.0,
        "heat_index_c": 24.0,
        "wind_kmh": 4.1,
        "wind_dir": 0.0,
        "cloud_pct": 45.0
      }
    },
    {
      "type": "Feature",
      "geometry": {
        "type": "Point",
        "coordinates": [
          104.509577778,
          -4.839133333
        ]
      },
      "properties": {
        "location_name": "Headpond Besai Kemu",
        "slug": "pltm_besai_kemu_headpond",
        "date": "Selasa, 6 Oktober 2026",
        "date_iso": "2026-10-06",
        "relative": "Lusa",
        "hour": "02:00",
        "rain_probability": 0,
        "risk_score": 45,
        "risk_class": "watch",
        "risk_label": "Perlu diperhatikan",
        "condition": "Cerah Berawan",
        "temp_c": 23.5,
        "humidity_pct": 87.0,
        "heat_index_c": 23.5,
        "wind_kmh": 4.7,
        "wind_dir": 0.0,
        "cloud_pct": 45.0
      }
    },
    {
      "type": "Feature",
      "geometry": {
        "type": "Point",
        "coordinates": [
          104.509577778,
          -4.839133333
        ]
      },
      "properties": {
        "location_name": "Headpond Besai Kemu",
        "slug": "pltm_besai_kemu_headpond",
        "date": "Selasa, 6 Oktober 2026",
        "date_iso": "2026-10-06",
        "relative": "Lusa",
        "hour": "03:00",
        "rain_probability": 0,
        "risk_score": 45,
        "risk_class": "watch",
        "risk_label": "Perlu diperhatikan",
        "condition": "Berawan",
        "temp_c": 22.9,
        "humidity_pct": 91.0,
        "heat_index_c": 22.9,
        "wind_kmh": 4.5,
        "wind_dir": 0.0,
        "cloud_pct": 75.0
      }
    },
    {
      "type": "Feature",
      "geometry": {
        "type": "Point",
        "coordinates": [
          104.509577778,
          -4.839133333
        ]
      },
      "properties": {
        "location_name": "Headpond Besai Kemu",
        "slug": "pltm_besai_kemu_headpond",
        "date": "Selasa, 6 Oktober 2026",
        "date_iso": "2026-10-06",
        "relative": "Lusa",
        "hour": "04:00",
        "rain_probability": 0,
        "risk_score": 42,
        "risk_class": "watch",
        "risk_label": "Perlu diperhatikan",
        "condition": "Berawan",
        "temp_c": 22.8,
        "humidity_pct": 91.0,
        "heat_index_c": 22.8,
        "wind_kmh": 4.3,
        "wind_dir": 0.0,
        "cloud_pct": 75.0
      }
    },
    {
      "type": "Feature",
      "geometry": {
        "type": "Point",
        "coordinates": [
          104.509577778,
          -4.839133333
        ]
      },
      "properties": {
        "location_name": "Headpond Besai Kemu",
        "slug": "pltm_besai_kemu_headpond",
        "date": "Selasa, 6 Oktober 2026",
        "date_iso": "2026-10-06",
        "relative": "Lusa",
        "hour": "05:00",
        "rain_probability": 0,
        "risk_score": 35,
        "risk_class": "watch",
        "risk_label": "Perlu diperhatikan",
        "condition": "Berawan",
        "temp_c": 23.2,
        "humidity_pct": 88.0,
        "heat_index_c": 23.2,
        "wind_kmh": 4.0,
        "wind_dir": 0.0,
        "cloud_pct": 75.0
      }
    },
    {
      "type": "Feature",
      "geometry": {
        "type": "Point",
        "coordinates": [
          104.509577778,
          -4.839133333
        ]
      },
      "properties": {
        "location_name": "Headpond Besai Kemu",
        "slug": "pltm_besai_kemu_headpond",
        "date": "Selasa, 6 Oktober 2026",
        "date_iso": "2026-10-06",
        "relative": "Lusa",
        "hour": "06:00",
        "rain_probability": 0,
        "risk_score": 28,
        "risk_class": "watch",
        "risk_label": "Perlu diperhatikan",
        "condition": "Berawan",
        "temp_c": 23.6,
        "humidity_pct": 84.0,
        "heat_index_c": 23.6,
        "wind_kmh": 5.4,
        "wind_dir": 0.0,
        "cloud_pct": 75.0
      }
    },
    {
      "type": "Feature",
      "geometry": {
        "type": "Point",
        "coordinates": [
          104.509577778,
          -4.839133333
        ]
      },
      "properties": {
        "location_name": "Headpond Besai Kemu",
        "slug": "pltm_besai_kemu_headpond",
        "date": "Selasa, 6 Oktober 2026",
        "date_iso": "2026-10-06",
        "relative": "Lusa",
        "hour": "07:00",
        "rain_probability": 0,
        "risk_score": 31,
        "risk_class": "watch",
        "risk_label": "Perlu diperhatikan",
        "condition": "Berawan",
        "temp_c": 25.3,
        "humidity_pct": 79.0,
        "heat_index_c": 25.3,
        "wind_kmh": 5.1,
        "wind_dir": 0.0,
        "cloud_pct": 75.0
      }
    },
    {
      "type": "Feature",
      "geometry": {
        "type": "Point",
        "coordinates": [
          104.509577778,
          -4.839133333
        ]
      },
      "properties": {
        "location_name": "Headpond Besai Kemu",
        "slug": "pltm_besai_kemu_headpond",
        "date": "Selasa, 6 Oktober 2026",
        "date_iso": "2026-10-06",
        "relative": "Lusa",
        "hour": "08:00",
        "rain_probability": 0,
        "risk_score": 45,
        "risk_class": "watch",
        "risk_label": "Perlu diperhatikan",
        "condition": "Berawan",
        "temp_c": 26.8,
        "humidity_pct": 71.0,
        "heat_index_c": 28.82,
        "wind_kmh": 3.7,
        "wind_dir": 0.0,
        "cloud_pct": 75.0
      }
    },
    {
      "type": "Feature",
      "geometry": {
        "type": "Point",
        "coordinates": [
          104.509577778,
          -4.839133333
        ]
      },
      "properties": {
        "location_name": "Headpond Besai Kemu",
        "slug": "pltm_besai_kemu_headpond",
        "date": "Selasa, 6 Oktober 2026",
        "date_iso": "2026-10-06",
        "relative": "Lusa",
        "hour": "09:00",
        "rain_probability": 0,
        "risk_score": 75,
        "risk_class": "rain",
        "risk_label": "Waspada",
        "condition": "Berawan",
        "temp_c": 30.0,
        "humidity_pct": 62.0,
        "heat_index_c": 33.03,
        "wind_kmh": 6.1,
        "wind_dir": 0.0,
        "cloud_pct": 75.0
      }
    },
    {
      "type": "Feature",
      "geometry": {
        "type": "Point",
        "coordinates": [
          104.509577778,
          -4.839133333
        ]
      },
      "properties": {
        "location_name": "Headpond Besai Kemu",
        "slug": "pltm_besai_kemu_headpond",
        "date": "Selasa, 6 Oktober 2026",
        "date_iso": "2026-10-06",
        "relative": "Lusa",
        "hour": "10:00",
        "rain_probability": 0,
        "risk_score": 95,
        "risk_class": "danger",
        "risk_label": "Berpotensi signifikan",
        "condition": "Cerah Berawan",
        "temp_c": 30.7,
        "humidity_pct": 57.0,
        "heat_index_c": 33.54,
        "wind_kmh": 7.6,
        "wind_dir": 0.0,
        "cloud_pct": 45.0
      }
    },
    {
      "type": "Feature",
      "geometry": {
        "type": "Point",
        "coordinates": [
          104.509577778,
          -4.839133333
        ]
      },
      "properties": {
        "location_name": "Headpond Besai Kemu",
        "slug": "pltm_besai_kemu_headpond",
        "date": "Selasa, 6 Oktober 2026",
        "date_iso": "2026-10-06",
        "relative": "Lusa",
        "hour": "11:00",
        "rain_probability": 0,
        "risk_score": 100,
        "risk_class": "danger",
        "risk_label": "Berpotensi signifikan",
        "condition": "Cerah Berawan",
        "temp_c": 32.3,
        "humidity_pct": 51.0,
        "heat_index_c": 35.16,
        "wind_kmh": 8.6,
        "wind_dir": 0.0,
        "cloud_pct": 45.0
      }
    },
    {
      "type": "Feature",
      "geometry": {
        "type": "Point",
        "coordinates": [
          104.509577778,
          -4.839133333
        ]
      },
      "properties": {
        "location_name": "Headpond Besai Kemu",
        "slug": "pltm_besai_kemu_headpond",
        "date": "Selasa, 6 Oktober 2026",
        "date_iso": "2026-10-06",
        "relative": "Lusa",
        "hour": "12:00",
        "rain_probability": 0,
        "risk_score": 100,
        "risk_class": "danger",
        "risk_label": "Berpotensi signifikan",
        "condition": "Cerah Berawan",
        "temp_c": 33.7,
        "humidity_pct": 45.0,
        "heat_index_c": 35.11,
        "wind_kmh": 9.1,
        "wind_dir": 0.0,
        "cloud_pct": 45.0
      }
    },
    {
      "type": "Feature",
      "geometry": {
        "type": "Point",
        "coordinates": [
          104.509577778,
          -4.839133333
        ]
      },
      "properties": {
        "location_name": "Headpond Besai Kemu",
        "slug": "pltm_besai_kemu_headpond",
        "date": "Selasa, 6 Oktober 2026",
        "date_iso": "2026-10-06",
        "relative": "Lusa",
        "hour": "13:00",
        "rain_probability": 0,
        "risk_score": 100,
        "risk_class": "danger",
        "risk_label": "Berpotensi signifikan",
        "condition": "Berawan",
        "temp_c": 34.7,
        "humidity_pct": 41.0,
        "heat_index_c": 35.5,
        "wind_kmh": 10.4,
        "wind_dir": 0.0,
        "cloud_pct": 75.0
      }
    },
    {
      "type": "Feature",
      "geometry": {
        "type": "Point",
        "coordinates": [
          104.509577778,
          -4.839133333
        ]
      },
      "properties": {
        "location_name": "Headpond Besai Kemu",
        "slug": "pltm_besai_kemu_headpond",
        "date": "Selasa, 6 Oktober 2026",
        "date_iso": "2026-10-06",
        "relative": "Lusa",
        "hour": "14:00",
        "rain_probability": 0,
        "risk_score": 100,
        "risk_class": "danger",
        "risk_label": "Berpotensi signifikan",
        "condition": "Cerah Berawan",
        "temp_c": 35.1,
        "humidity_pct": 39.0,
        "heat_index_c": 35.42,
        "wind_kmh": 10.4,
        "wind_dir": 0.0,
        "cloud_pct": 45.0
      }
    },
    {
      "type": "Feature",
      "geometry": {
        "type": "Point",
        "coordinates": [
          104.509577778,
          -4.839133333
        ]
      },
      "properties": {
        "location_name": "Headpond Besai Kemu",
        "slug": "pltm_besai_kemu_headpond",
        "date": "Selasa, 6 Oktober 2026",
        "date_iso": "2026-10-06",
        "relative": "Lusa",
        "hour": "15:00",
        "rain_probability": 0,
        "risk_score": 100,
        "risk_class": "danger",
        "risk_label": "Berpotensi signifikan",
        "condition": "Cerah Berawan",
        "temp_c": 35.0,
        "humidity_pct": 39.0,
        "heat_index_c": 35.35,
        "wind_kmh": 10.7,
        "wind_dir": 0.0,
        "cloud_pct": 45.0
      }
    },
    {
      "type": "Feature",
      "geometry": {
        "type": "Point",
        "coordinates": [
          104.509577778,
          -4.839133333
        ]
      },
      "properties": {
        "location_name": "Headpond Besai Kemu",
        "slug": "pltm_besai_kemu_headpond",
        "date": "Selasa, 6 Oktober 2026",
        "date_iso": "2026-10-06",
        "relative": "Lusa",
        "hour": "16:00",
        "rain_probability": 0,
        "risk_score": 100,
        "risk_class": "danger",
        "risk_label": "Berpotensi signifikan",
        "condition": "Cerah Berawan",
        "temp_c": 33.3,
        "humidity_pct": 43.0,
        "heat_index_c": 35.11,
        "wind_kmh": 10.8,
        "wind_dir": 0.0,
        "cloud_pct": 45.0
      }
    },
    {
      "type": "Feature",
      "geometry": {
        "type": "Point",
        "coordinates": [
          104.509577778,
          -4.839133333
        ]
      },
      "properties": {
        "location_name": "Headpond Besai Kemu",
        "slug": "pltm_besai_kemu_headpond",
        "date": "Selasa, 6 Oktober 2026",
        "date_iso": "2026-10-06",
        "relative": "Lusa",
        "hour": "17:00",
        "rain_probability": 14.4,
        "risk_score": 100,
        "risk_class": "danger",
        "risk_label": "Berpotensi signifikan",
        "condition": "Cerah Berawan",
        "temp_c": 32.1,
        "humidity_pct": 50.0,
        "heat_index_c": 35.05,
        "wind_kmh": 11.9,
        "wind_dir": 0.0,
        "cloud_pct": 45.0
      }
    },
    {
      "type": "Feature",
      "geometry": {
        "type": "Point",
        "coordinates": [
          104.509577778,
          -4.839133333
        ]
      },
      "properties": {
        "location_name": "Headpond Besai Kemu",
        "slug": "pltm_besai_kemu_headpond",
        "date": "Selasa, 6 Oktober 2026",
        "date_iso": "2026-10-06",
        "relative": "Lusa",
        "hour": "18:00",
        "rain_probability": 14.4,
        "risk_score": 100,
        "risk_class": "danger",
        "risk_label": "Berpotensi signifikan",
        "condition": "Berawan",
        "temp_c": 30.3,
        "humidity_pct": 62.0,
        "heat_index_c": 33.43,
        "wind_kmh": 11.8,
        "wind_dir": 0.0,
        "cloud_pct": 75.0
      }
    },
    {
      "type": "Feature",
      "geometry": {
        "type": "Point",
        "coordinates": [
          104.509577778,
          -4.839133333
        ]
      },
      "properties": {
        "location_name": "Headpond Besai Kemu",
        "slug": "pltm_besai_kemu_headpond",
        "date": "Selasa, 6 Oktober 2026",
        "date_iso": "2026-10-06",
        "relative": "Lusa",
        "hour": "19:00",
        "rain_probability": 13.8,
        "risk_score": 92,
        "risk_class": "danger",
        "risk_label": "Berpotensi signifikan",
        "condition": "Berawan",
        "temp_c": 28.6,
        "humidity_pct": 71.0,
        "heat_index_c": 31.73,
        "wind_kmh": 12.2,
        "wind_dir": 0.0,
        "cloud_pct": 75.0
      }
    },
    {
      "type": "Feature",
      "geometry": {
        "type": "Point",
        "coordinates": [
          104.509577778,
          -4.839133333
        ]
      },
      "properties": {
        "location_name": "Headpond Besai Kemu",
        "slug": "pltm_besai_kemu_headpond",
        "date": "Selasa, 6 Oktober 2026",
        "date_iso": "2026-10-06",
        "relative": "Lusa",
        "hour": "20:00",
        "rain_probability": 14.4,
        "risk_score": 85,
        "risk_class": "danger",
        "risk_label": "Berpotensi signifikan",
        "condition": "Berawan",
        "temp_c": 27.1,
        "humidity_pct": 78.0,
        "heat_index_c": 30.27,
        "wind_kmh": 10.4,
        "wind_dir": 0.0,
        "cloud_pct": 75.0
      }
    },
    {
      "type": "Feature",
      "geometry": {
        "type": "Point",
        "coordinates": [
          104.509577778,
          -4.839133333
        ]
      },
      "properties": {
        "location_name": "Headpond Besai Kemu",
        "slug": "pltm_besai_kemu_headpond",
        "date": "Selasa, 6 Oktober 2026",
        "date_iso": "2026-10-06",
        "relative": "Lusa",
        "hour": "21:00",
        "rain_probability": 14.4,
        "risk_score": 80,
        "risk_class": "danger",
        "risk_label": "Berpotensi signifikan",
        "condition": "Berawan",
        "temp_c": 26.4,
        "humidity_pct": 83.0,
        "heat_index_c": 26.4,
        "wind_kmh": 5.7,
        "wind_dir": 0.0,
        "cloud_pct": 75.0
      }
    },
    {
      "type": "Feature",
      "geometry": {
        "type": "Point",
        "coordinates": [
          104.509577778,
          -4.839133333
        ]
      },
      "properties": {
        "location_name": "Headpond Besai Kemu",
        "slug": "pltm_besai_kemu_headpond",
        "date": "Selasa, 6 Oktober 2026",
        "date_iso": "2026-10-06",
        "relative": "Lusa",
        "hour": "22:00",
        "rain_probability": 13.8,
        "risk_score": 75,
        "risk_class": "rain",
        "risk_label": "Waspada",
        "condition": "Berawan",
        "temp_c": 25.8,
        "humidity_pct": 86.0,
        "heat_index_c": 25.8,
        "wind_kmh": 5.8,
        "wind_dir": 0.0,
        "cloud_pct": 75.0
      }
    },
    {
      "type": "Feature",
      "geometry": {
        "type": "Point",
        "coordinates": [
          104.509577778,
          -4.839133333
        ]
      },
      "properties": {
        "location_name": "Headpond Besai Kemu",
        "slug": "pltm_besai_kemu_headpond",
        "date": "Selasa, 6 Oktober 2026",
        "date_iso": "2026-10-06",
        "relative": "Lusa",
        "hour": "23:00",
        "rain_probability": 14.4,
        "risk_score": 76,
        "risk_class": "rain",
        "risk_label": "Waspada",
        "condition": "Cerah Berawan",
        "temp_c": 25.1,
        "humidity_pct": 90.0,
        "heat_index_c": 25.1,
        "wind_kmh": 4.7,
        "wind_dir": 0.0,
        "cloud_pct": 75.0
      }
    }
  ]
}