{
  "type": "FeatureCollection",
  "features": [
    {
      "type": "Feature",
      "geometry": {
        "type": "Point",
        "coordinates": [
          96.977344,
          4.748139
        ]
      },
      "properties": {
        "location_name": "PLTA Redelong",
        "slug": "plta_redelong",
        "date": "Jumat, 28 Agustus 2026",
        "date_iso": "2026-08-28",
        "relative": "Hari ini",
        "hour": "00:00",
        "rain_probability": 0,
        "risk_score": 23,
        "risk_class": "safe",
        "risk_label": "Aman",
        "condition": "Cerah Berawan",
        "temp_c": 18.3,
        "humidity_pct": 92.0,
        "heat_index_c": 18.3,
        "wind_kmh": 6.3,
        "wind_dir": 0.0,
        "cloud_pct": 45.0
      }
    },
    {
      "type": "Feature",
      "geometry": {
        "type": "Point",
        "coordinates": [
          96.977344,
          4.748139
        ]
      },
      "properties": {
        "location_name": "PLTA Redelong",
        "slug": "plta_redelong",
        "date": "Jumat, 28 Agustus 2026",
        "date_iso": "2026-08-28",
        "relative": "Hari ini",
        "hour": "01:00",
        "rain_probability": 0,
        "risk_score": 23,
        "risk_class": "safe",
        "risk_label": "Aman",
        "condition": "Cerah Berawan",
        "temp_c": 18.0,
        "humidity_pct": 92.0,
        "heat_index_c": 18.0,
        "wind_kmh": 6.3,
        "wind_dir": 0.0,
        "cloud_pct": 45.0
      }
    },
    {
      "type": "Feature",
      "geometry": {
        "type": "Point",
        "coordinates": [
          96.977344,
          4.748139
        ]
      },
      "properties": {
        "location_name": "PLTA Redelong",
        "slug": "plta_redelong",
        "date": "Jumat, 28 Agustus 2026",
        "date_iso": "2026-08-28",
        "relative": "Hari ini",
        "hour": "02:00",
        "rain_probability": 0,
        "risk_score": 22,
        "risk_class": "safe",
        "risk_label": "Aman",
        "condition": "Berawan",
        "temp_c": 17.7,
        "humidity_pct": 89.0,
        "heat_index_c": 17.7,
        "wind_kmh": 6.6,
        "wind_dir": 0.0,
        "cloud_pct": 45.0
      }
    },
    {
      "type": "Feature",
      "geometry": {
        "type": "Point",
        "coordinates": [
          96.977344,
          4.748139
        ]
      },
      "properties": {
        "location_name": "PLTA Redelong",
        "slug": "plta_redelong",
        "date": "Jumat, 28 Agustus 2026",
        "date_iso": "2026-08-28",
        "relative": "Hari ini",
        "hour": "03:00",
        "rain_probability": 0,
        "risk_score": 22,
        "risk_class": "safe",
        "risk_label": "Aman",
        "condition": "Cerah Berawan",
        "temp_c": 17.5,
        "humidity_pct": 84.0,
        "heat_index_c": 17.5,
        "wind_kmh": 7.2,
        "wind_dir": 0.0,
        "cloud_pct": 45.0
      }
    },
    {
      "type": "Feature",
      "geometry": {
        "type": "Point",
        "coordinates": [
          96.977344,
          4.748139
        ]
      },
      "properties": {
        "location_name": "PLTA Redelong",
        "slug": "plta_redelong",
        "date": "Jumat, 28 Agustus 2026",
        "date_iso": "2026-08-28",
        "relative": "Hari ini",
        "hour": "04:00",
        "rain_probability": 0,
        "risk_score": 21,
        "risk_class": "safe",
        "risk_label": "Aman",
        "condition": "Cerah Berawan",
        "temp_c": 17.5,
        "humidity_pct": 81.0,
        "heat_index_c": 17.5,
        "wind_kmh": 7.5,
        "wind_dir": 0.0,
        "cloud_pct": 45.0
      }
    },
    {
      "type": "Feature",
      "geometry": {
        "type": "Point",
        "coordinates": [
          96.977344,
          4.748139
        ]
      },
      "properties": {
        "location_name": "PLTA Redelong",
        "slug": "plta_redelong",
        "date": "Jumat, 28 Agustus 2026",
        "date_iso": "2026-08-28",
        "relative": "Hari ini",
        "hour": "05:00",
        "rain_probability": 0,
        "risk_score": 22,
        "risk_class": "safe",
        "risk_label": "Aman",
        "condition": "Cerah Berawan",
        "temp_c": 17.5,
        "humidity_pct": 80.0,
        "heat_index_c": 17.5,
        "wind_kmh": 7.6,
        "wind_dir": 0.0,
        "cloud_pct": 45.0
      }
    },
    {
      "type": "Feature",
      "geometry": {
        "type": "Point",
        "coordinates": [
          96.977344,
          4.748139
        ]
      },
      "properties": {
        "location_name": "PLTA Redelong",
        "slug": "plta_redelong",
        "date": "Jumat, 28 Agustus 2026",
        "date_iso": "2026-08-28",
        "relative": "Hari ini",
        "hour": "06:00",
        "rain_probability": 0,
        "risk_score": 22,
        "risk_class": "safe",
        "risk_label": "Aman",
        "condition": "Cerah",
        "temp_c": 17.3,
        "humidity_pct": 81.0,
        "heat_index_c": 17.3,
        "wind_kmh": 7.6,
        "wind_dir": 0.0,
        "cloud_pct": 45.0
      }
    },
    {
      "type": "Feature",
      "geometry": {
        "type": "Point",
        "coordinates": [
          96.977344,
          4.748139
        ]
      },
      "properties": {
        "location_name": "PLTA Redelong",
        "slug": "plta_redelong",
        "date": "Jumat, 28 Agustus 2026",
        "date_iso": "2026-08-28",
        "relative": "Hari ini",
        "hour": "07:00",
        "rain_probability": 0,
        "risk_score": 22,
        "risk_class": "safe",
        "risk_label": "Aman",
        "condition": "Cerah",
        "temp_c": 18.0,
        "humidity_pct": 78.0,
        "heat_index_c": 18.0,
        "wind_kmh": 7.3,
        "wind_dir": 0.0,
        "cloud_pct": 45.0
      }
    },
    {
      "type": "Feature",
      "geometry": {
        "type": "Point",
        "coordinates": [
          96.977344,
          4.748139
        ]
      },
      "properties": {
        "location_name": "PLTA Redelong",
        "slug": "plta_redelong",
        "date": "Jumat, 28 Agustus 2026",
        "date_iso": "2026-08-28",
        "relative": "Hari ini",
        "hour": "08:00",
        "rain_probability": 0,
        "risk_score": 19,
        "risk_class": "safe",
        "risk_label": "Aman",
        "condition": "Cerah",
        "temp_c": 20.2,
        "humidity_pct": 73.0,
        "heat_index_c": 20.2,
        "wind_kmh": 5.7,
        "wind_dir": 0.0,
        "cloud_pct": 45.0
      }
    },
    {
      "type": "Feature",
      "geometry": {
        "type": "Point",
        "coordinates": [
          96.977344,
          4.748139
        ]
      },
      "properties": {
        "location_name": "PLTA Redelong",
        "slug": "plta_redelong",
        "date": "Jumat, 28 Agustus 2026",
        "date_iso": "2026-08-28",
        "relative": "Hari ini",
        "hour": "09:00",
        "rain_probability": 0,
        "risk_score": 16,
        "risk_class": "safe",
        "risk_label": "Aman",
        "condition": "Cerah",
        "temp_c": 23.8,
        "humidity_pct": 59.0,
        "heat_index_c": 23.8,
        "wind_kmh": 2.9,
        "wind_dir": 0.0,
        "cloud_pct": 45.0
      }
    },
    {
      "type": "Feature",
      "geometry": {
        "type": "Point",
        "coordinates": [
          96.977344,
          4.748139
        ]
      },
      "properties": {
        "location_name": "PLTA Redelong",
        "slug": "plta_redelong",
        "date": "Jumat, 28 Agustus 2026",
        "date_iso": "2026-08-28",
        "relative": "Hari ini",
        "hour": "10:00",
        "rain_probability": 0,
        "risk_score": 14,
        "risk_class": "safe",
        "risk_label": "Aman",
        "condition": "Cerah",
        "temp_c": 25.4,
        "humidity_pct": 57.0,
        "heat_index_c": 25.4,
        "wind_kmh": 3.4,
        "wind_dir": 0.0,
        "cloud_pct": 15.0
      }
    },
    {
      "type": "Feature",
      "geometry": {
        "type": "Point",
        "coordinates": [
          96.977344,
          4.748139
        ]
      },
      "properties": {
        "location_name": "PLTA Redelong",
        "slug": "plta_redelong",
        "date": "Jumat, 28 Agustus 2026",
        "date_iso": "2026-08-28",
        "relative": "Hari ini",
        "hour": "11:00",
        "rain_probability": 15.0,
        "risk_score": 33,
        "risk_class": "watch",
        "risk_label": "Perlu diperhatikan",
        "condition": "Berawan",
        "temp_c": 26.6,
        "humidity_pct": 55.0,
        "heat_index_c": 26.6,
        "wind_kmh": 4.8,
        "wind_dir": 0.0,
        "cloud_pct": 75.0
      }
    },
    {
      "type": "Feature",
      "geometry": {
        "type": "Point",
        "coordinates": [
          96.977344,
          4.748139
        ]
      },
      "properties": {
        "location_name": "PLTA Redelong",
        "slug": "plta_redelong",
        "date": "Jumat, 28 Agustus 2026",
        "date_iso": "2026-08-28",
        "relative": "Hari ini",
        "hour": "12:00",
        "rain_probability": 0,
        "risk_score": 54,
        "risk_class": "watch",
        "risk_label": "Perlu diperhatikan",
        "condition": "Cerah Berawan",
        "temp_c": 27.5,
        "humidity_pct": 52.0,
        "heat_index_c": 28.07,
        "wind_kmh": 7.0,
        "wind_dir": 0.0,
        "cloud_pct": 45.0
      }
    },
    {
      "type": "Feature",
      "geometry": {
        "type": "Point",
        "coordinates": [
          96.977344,
          4.748139
        ]
      },
      "properties": {
        "location_name": "PLTA Redelong",
        "slug": "plta_redelong",
        "date": "Jumat, 28 Agustus 2026",
        "date_iso": "2026-08-28",
        "relative": "Hari ini",
        "hour": "13:00",
        "rain_probability": 0,
        "risk_score": 64,
        "risk_class": "rain",
        "risk_label": "Waspada",
        "condition": "Cerah Berawan",
        "temp_c": 28.0,
        "humidity_pct": 52.0,
        "heat_index_c": 28.73,
        "wind_kmh": 8.6,
        "wind_dir": 0.0,
        "cloud_pct": 45.0
      }
    },
    {
      "type": "Feature",
      "geometry": {
        "type": "Point",
        "coordinates": [
          96.977344,
          4.748139
        ]
      },
      "properties": {
        "location_name": "PLTA Redelong",
        "slug": "plta_redelong",
        "date": "Jumat, 28 Agustus 2026",
        "date_iso": "2026-08-28",
        "relative": "Hari ini",
        "hour": "14:00",
        "rain_probability": 27.6,
        "risk_score": 60,
        "risk_class": "rain",
        "risk_label": "Waspada",
        "condition": "Berawan",
        "temp_c": 28.1,
        "humidity_pct": 52.0,
        "heat_index_c": 28.49,
        "wind_kmh": 6.9,
        "wind_dir": 0.0,
        "cloud_pct": 75.0
      }
    },
    {
      "type": "Feature",
      "geometry": {
        "type": "Point",
        "coordinates": [
          96.977344,
          4.748139
        ]
      },
      "properties": {
        "location_name": "PLTA Redelong",
        "slug": "plta_redelong",
        "date": "Jumat, 28 Agustus 2026",
        "date_iso": "2026-08-28",
        "relative": "Hari ini",
        "hour": "15:00",
        "rain_probability": 43.2,
        "risk_score": 58,
        "risk_class": "rain",
        "risk_label": "Waspada",
        "condition": "Hujan Ringan",
        "temp_c": 27.2,
        "humidity_pct": 56.0,
        "heat_index_c": 27.74,
        "wind_kmh": 8.4,
        "wind_dir": 0.0,
        "cloud_pct": 75.0
      }
    },
    {
      "type": "Feature",
      "geometry": {
        "type": "Point",
        "coordinates": [
          96.977344,
          4.748139
        ]
      },
      "properties": {
        "location_name": "PLTA Redelong",
        "slug": "plta_redelong",
        "date": "Jumat, 28 Agustus 2026",
        "date_iso": "2026-08-28",
        "relative": "Hari ini",
        "hour": "16:00",
        "rain_probability": 57.7,
        "risk_score": 58,
        "risk_class": "rain",
        "risk_label": "Waspada",
        "condition": "Hujan Ringan",
        "temp_c": 25.9,
        "humidity_pct": 64.0,
        "heat_index_c": 25.9,
        "wind_kmh": 7.2,
        "wind_dir": 0.0,
        "cloud_pct": 88.0
      }
    },
    {
      "type": "Feature",
      "geometry": {
        "type": "Point",
        "coordinates": [
          96.977344,
          4.748139
        ]
      },
      "properties": {
        "location_name": "PLTA Redelong",
        "slug": "plta_redelong",
        "date": "Jumat, 28 Agustus 2026",
        "date_iso": "2026-08-28",
        "relative": "Hari ini",
        "hour": "17:00",
        "rain_probability": 41.4,
        "risk_score": 41,
        "risk_class": "watch",
        "risk_label": "Perlu diperhatikan",
        "condition": "Hujan Ringan",
        "temp_c": 23.8,
        "humidity_pct": 74.0,
        "heat_index_c": 23.8,
        "wind_kmh": 7.1,
        "wind_dir": 0.0,
        "cloud_pct": 75.0
      }
    },
    {
      "type": "Feature",
      "geometry": {
        "type": "Point",
        "coordinates": [
          96.977344,
          4.748139
        ]
      },
      "properties": {
        "location_name": "PLTA Redelong",
        "slug": "plta_redelong",
        "date": "Jumat, 28 Agustus 2026",
        "date_iso": "2026-08-28",
        "relative": "Hari ini",
        "hour": "18:00",
        "rain_probability": 28.8,
        "risk_score": 36,
        "risk_class": "watch",
        "risk_label": "Perlu diperhatikan",
        "condition": "Cerah Berawan",
        "temp_c": 22.6,
        "humidity_pct": 83.0,
        "heat_index_c": 22.6,
        "wind_kmh": 4.3,
        "wind_dir": 0.0,
        "cloud_pct": 75.0
      }
    },
    {
      "type": "Feature",
      "geometry": {
        "type": "Point",
        "coordinates": [
          96.977344,
          4.748139
        ]
      },
      "properties": {
        "location_name": "PLTA Redelong",
        "slug": "plta_redelong",
        "date": "Jumat, 28 Agustus 2026",
        "date_iso": "2026-08-28",
        "relative": "Hari ini",
        "hour": "19:00",
        "rain_probability": 28.8,
        "risk_score": 37,
        "risk_class": "watch",
        "risk_label": "Perlu diperhatikan",
        "condition": "Berawan",
        "temp_c": 21.4,
        "humidity_pct": 90.0,
        "heat_index_c": 21.4,
        "wind_kmh": 3.7,
        "wind_dir": 0.0,
        "cloud_pct": 75.0
      }
    },
    {
      "type": "Feature",
      "geometry": {
        "type": "Point",
        "coordinates": [
          96.977344,
          4.748139
        ]
      },
      "properties": {
        "location_name": "PLTA Redelong",
        "slug": "plta_redelong",
        "date": "Jumat, 28 Agustus 2026",
        "date_iso": "2026-08-28",
        "relative": "Hari ini",
        "hour": "20:00",
        "rain_probability": 0,
        "risk_score": 24,
        "risk_class": "safe",
        "risk_label": "Aman",
        "condition": "Berawan",
        "temp_c": 20.5,
        "humidity_pct": 95.0,
        "heat_index_c": 20.5,
        "wind_kmh": 3.7,
        "wind_dir": 0.0,
        "cloud_pct": 45.0
      }
    },
    {
      "type": "Feature",
      "geometry": {
        "type": "Point",
        "coordinates": [
          96.977344,
          4.748139
        ]
      },
      "properties": {
        "location_name": "PLTA Redelong",
        "slug": "plta_redelong",
        "date": "Jumat, 28 Agustus 2026",
        "date_iso": "2026-08-28",
        "relative": "Hari ini",
        "hour": "21:00",
        "rain_probability": 0,
        "risk_score": 23,
        "risk_class": "safe",
        "risk_label": "Aman",
        "condition": "Berawan",
        "temp_c": 19.9,
        "humidity_pct": 92.0,
        "heat_index_c": 19.9,
        "wind_kmh": 3.4,
        "wind_dir": 0.0,
        "cloud_pct": 45.0
      }
    },
    {
      "type": "Feature",
      "geometry": {
        "type": "Point",
        "coordinates": [
          96.977344,
          4.748139
        ]
      },
      "properties": {
        "location_name": "PLTA Redelong",
        "slug": "plta_redelong",
        "date": "Jumat, 28 Agustus 2026",
        "date_iso": "2026-08-28",
        "relative": "Hari ini",
        "hour": "22:00",
        "rain_probability": 0,
        "risk_score": 25,
        "risk_class": "watch",
        "risk_label": "Perlu diperhatikan",
        "condition": "Berawan",
        "temp_c": 19.4,
        "humidity_pct": 89.0,
        "heat_index_c": 19.4,
        "wind_kmh": 3.6,
        "wind_dir": 0.0,
        "cloud_pct": 75.0
      }
    },
    {
      "type": "Feature",
      "geometry": {
        "type": "Point",
        "coordinates": [
          96.977344,
          4.748139
        ]
      },
      "properties": {
        "location_name": "PLTA Redelong",
        "slug": "plta_redelong",
        "date": "Jumat, 28 Agustus 2026",
        "date_iso": "2026-08-28",
        "relative": "Hari ini",
        "hour": "23:00",
        "rain_probability": 0,
        "risk_score": 25,
        "risk_class": "safe",
        "risk_label": "Aman",
        "condition": "Berawan",
        "temp_c": 19.0,
        "humidity_pct": 87.0,
        "heat_index_c": 19.0,
        "wind_kmh": 4.3,
        "wind_dir": 0.0,
        "cloud_pct": 75.0
      }
    },
    {
      "type": "Feature",
      "geometry": {
        "type": "Point",
        "coordinates": [
          96.977344,
          4.748139
        ]
      },
      "properties": {
        "location_name": "PLTA Redelong",
        "slug": "plta_redelong",
        "date": "Sabtu, 29 Agustus 2026",
        "date_iso": "2026-08-29",
        "relative": "Besok",
        "hour": "00:00",
        "rain_probability": 0,
        "risk_score": 24,
        "risk_class": "safe",
        "risk_label": "Aman",
        "condition": "Berawan",
        "temp_c": 18.9,
        "humidity_pct": 85.0,
        "heat_index_c": 18.9,
        "wind_kmh": 6.2,
        "wind_dir": 0.0,
        "cloud_pct": 75.0
      }
    },
    {
      "type": "Feature",
      "geometry": {
        "type": "Point",
        "coordinates": [
          96.977344,
          4.748139
        ]
      },
      "properties": {
        "location_name": "PLTA Redelong",
        "slug": "plta_redelong",
        "date": "Sabtu, 29 Agustus 2026",
        "date_iso": "2026-08-29",
        "relative": "Besok",
        "hour": "01:00",
        "rain_probability": 0,
        "risk_score": 24,
        "risk_class": "safe",
        "risk_label": "Aman",
        "condition": "Berawan",
        "temp_c": 18.6,
        "humidity_pct": 81.0,
        "heat_index_c": 18.6,
        "wind_kmh": 6.4,
        "wind_dir": 0.0,
        "cloud_pct": 75.0
      }
    },
    {
      "type": "Feature",
      "geometry": {
        "type": "Point",
        "coordinates": [
          96.977344,
          4.748139
        ]
      },
      "properties": {
        "location_name": "PLTA Redelong",
        "slug": "plta_redelong",
        "date": "Sabtu, 29 Agustus 2026",
        "date_iso": "2026-08-29",
        "relative": "Besok",
        "hour": "02:00",
        "rain_probability": 0,
        "risk_score": 23,
        "risk_class": "safe",
        "risk_label": "Aman",
        "condition": "Berawan",
        "temp_c": 18.2,
        "humidity_pct": 78.0,
        "heat_index_c": 18.2,
        "wind_kmh": 7.4,
        "wind_dir": 0.0,
        "cloud_pct": 75.0
      }
    },
    {
      "type": "Feature",
      "geometry": {
        "type": "Point",
        "coordinates": [
          96.977344,
          4.748139
        ]
      },
      "properties": {
        "location_name": "PLTA Redelong",
        "slug": "plta_redelong",
        "date": "Sabtu, 29 Agustus 2026",
        "date_iso": "2026-08-29",
        "relative": "Besok",
        "hour": "03:00",
        "rain_probability": 0,
        "risk_score": 23,
        "risk_class": "safe",
        "risk_label": "Aman",
        "condition": "Berawan",
        "temp_c": 17.9,
        "humidity_pct": 77.0,
        "heat_index_c": 17.9,
        "wind_kmh": 7.6,
        "wind_dir": 0.0,
        "cloud_pct": 75.0
      }
    },
    {
      "type": "Feature",
      "geometry": {
        "type": "Point",
        "coordinates": [
          96.977344,
          4.748139
        ]
      },
      "properties": {
        "location_name": "PLTA Redelong",
        "slug": "plta_redelong",
        "date": "Sabtu, 29 Agustus 2026",
        "date_iso": "2026-08-29",
        "relative": "Besok",
        "hour": "04:00",
        "rain_probability": 0,
        "risk_score": 23,
        "risk_class": "safe",
        "risk_label": "Aman",
        "condition": "Berawan",
        "temp_c": 17.8,
        "humidity_pct": 76.0,
        "heat_index_c": 17.8,
        "wind_kmh": 7.6,
        "wind_dir": 0.0,
        "cloud_pct": 75.0
      }
    },
    {
      "type": "Feature",
      "geometry": {
        "type": "Point",
        "coordinates": [
          96.977344,
          4.748139
        ]
      },
      "properties": {
        "location_name": "PLTA Redelong",
        "slug": "plta_redelong",
        "date": "Sabtu, 29 Agustus 2026",
        "date_iso": "2026-08-29",
        "relative": "Besok",
        "hour": "05:00",
        "rain_probability": 0,
        "risk_score": 23,
        "risk_class": "safe",
        "risk_label": "Aman",
        "condition": "Berawan",
        "temp_c": 17.9,
        "humidity_pct": 76.0,
        "heat_index_c": 17.9,
        "wind_kmh": 7.1,
        "wind_dir": 0.0,
        "cloud_pct": 75.0
      }
    },
    {
      "type": "Feature",
      "geometry": {
        "type": "Point",
        "coordinates": [
          96.977344,
          4.748139
        ]
      },
      "properties": {
        "location_name": "PLTA Redelong",
        "slug": "plta_redelong",
        "date": "Sabtu, 29 Agustus 2026",
        "date_iso": "2026-08-29",
        "relative": "Besok",
        "hour": "06:00",
        "rain_probability": 0,
        "risk_score": 23,
        "risk_class": "safe",
        "risk_label": "Aman",
        "condition": "Berawan",
        "temp_c": 17.8,
        "humidity_pct": 76.0,
        "heat_index_c": 17.8,
        "wind_kmh": 7.3,
        "wind_dir": 0.0,
        "cloud_pct": 75.0
      }
    },
    {
      "type": "Feature",
      "geometry": {
        "type": "Point",
        "coordinates": [
          96.977344,
          4.748139
        ]
      },
      "properties": {
        "location_name": "PLTA Redelong",
        "slug": "plta_redelong",
        "date": "Sabtu, 29 Agustus 2026",
        "date_iso": "2026-08-29",
        "relative": "Besok",
        "hour": "07:00",
        "rain_probability": 0,
        "risk_score": 23,
        "risk_class": "safe",
        "risk_label": "Aman",
        "condition": "Berawan",
        "temp_c": 18.3,
        "humidity_pct": 78.0,
        "heat_index_c": 18.3,
        "wind_kmh": 7.6,
        "wind_dir": 0.0,
        "cloud_pct": 75.0
      }
    },
    {
      "type": "Feature",
      "geometry": {
        "type": "Point",
        "coordinates": [
          96.977344,
          4.748139
        ]
      },
      "properties": {
        "location_name": "PLTA Redelong",
        "slug": "plta_redelong",
        "date": "Sabtu, 29 Agustus 2026",
        "date_iso": "2026-08-29",
        "relative": "Besok",
        "hour": "08:00",
        "rain_probability": 0,
        "risk_score": 23,
        "risk_class": "safe",
        "risk_label": "Aman",
        "condition": "Berawan",
        "temp_c": 20.6,
        "humidity_pct": 77.0,
        "heat_index_c": 20.6,
        "wind_kmh": 4.9,
        "wind_dir": 0.0,
        "cloud_pct": 75.0
      }
    },
    {
      "type": "Feature",
      "geometry": {
        "type": "Point",
        "coordinates": [
          96.977344,
          4.748139
        ]
      },
      "properties": {
        "location_name": "PLTA Redelong",
        "slug": "plta_redelong",
        "date": "Sabtu, 29 Agustus 2026",
        "date_iso": "2026-08-29",
        "relative": "Besok",
        "hour": "09:00",
        "rain_probability": 0,
        "risk_score": 19,
        "risk_class": "safe",
        "risk_label": "Aman",
        "condition": "Berawan",
        "temp_c": 23.1,
        "humidity_pct": 59.0,
        "heat_index_c": 23.1,
        "wind_kmh": 2.9,
        "wind_dir": 0.0,
        "cloud_pct": 75.0
      }
    },
    {
      "type": "Feature",
      "geometry": {
        "type": "Point",
        "coordinates": [
          96.977344,
          4.748139
        ]
      },
      "properties": {
        "location_name": "PLTA Redelong",
        "slug": "plta_redelong",
        "date": "Sabtu, 29 Agustus 2026",
        "date_iso": "2026-08-29",
        "relative": "Besok",
        "hour": "10:00",
        "rain_probability": 0,
        "risk_score": 37,
        "risk_class": "watch",
        "risk_label": "Perlu diperhatikan",
        "condition": "Berawan",
        "temp_c": 25.5,
        "humidity_pct": 53.0,
        "heat_index_c": 25.5,
        "wind_kmh": 4.0,
        "wind_dir": 0.0,
        "cloud_pct": 75.0
      }
    },
    {
      "type": "Feature",
      "geometry": {
        "type": "Point",
        "coordinates": [
          96.977344,
          4.748139
        ]
      },
      "properties": {
        "location_name": "PLTA Redelong",
        "slug": "plta_redelong",
        "date": "Sabtu, 29 Agustus 2026",
        "date_iso": "2026-08-29",
        "relative": "Besok",
        "hour": "11:00",
        "rain_probability": 0,
        "risk_score": 37,
        "risk_class": "watch",
        "risk_label": "Perlu diperhatikan",
        "condition": "Berawan",
        "temp_c": 26.6,
        "humidity_pct": 51.0,
        "heat_index_c": 26.6,
        "wind_kmh": 5.4,
        "wind_dir": 0.0,
        "cloud_pct": 75.0
      }
    },
    {
      "type": "Feature",
      "geometry": {
        "type": "Point",
        "coordinates": [
          96.977344,
          4.748139
        ]
      },
      "properties": {
        "location_name": "PLTA Redelong",
        "slug": "plta_redelong",
        "date": "Sabtu, 29 Agustus 2026",
        "date_iso": "2026-08-29",
        "relative": "Besok",
        "hour": "12:00",
        "rain_probability": 0,
        "risk_score": 53,
        "risk_class": "watch",
        "risk_label": "Perlu diperhatikan",
        "condition": "Berawan",
        "temp_c": 27.5,
        "humidity_pct": 49.0,
        "heat_index_c": 27.74,
        "wind_kmh": 5.8,
        "wind_dir": 0.0,
        "cloud_pct": 75.0
      }
    },
    {
      "type": "Feature",
      "geometry": {
        "type": "Point",
        "coordinates": [
          96.977344,
          4.748139
        ]
      },
      "properties": {
        "location_name": "PLTA Redelong",
        "slug": "plta_redelong",
        "date": "Sabtu, 29 Agustus 2026",
        "date_iso": "2026-08-29",
        "relative": "Besok",
        "hour": "13:00",
        "rain_probability": 28.9,
        "risk_score": 56,
        "risk_class": "rain",
        "risk_label": "Waspada",
        "condition": "Berawan",
        "temp_c": 27.7,
        "humidity_pct": 52.0,
        "heat_index_c": 27.9,
        "wind_kmh": 6.9,
        "wind_dir": 0.0,
        "cloud_pct": 75.0
      }
    },
    {
      "type": "Feature",
      "geometry": {
        "type": "Point",
        "coordinates": [
          96.977344,
          4.748139
        ]
      },
      "properties": {
        "location_name": "PLTA Redelong",
        "slug": "plta_redelong",
        "date": "Sabtu, 29 Agustus 2026",
        "date_iso": "2026-08-29",
        "relative": "Besok",
        "hour": "14:00",
        "rain_probability": 55.4,
        "risk_score": 55,
        "risk_class": "rain",
        "risk_label": "Waspada",
        "condition": "Hujan Ringan",
        "temp_c": 27.5,
        "humidity_pct": 52.0,
        "heat_index_c": 27.6,
        "wind_kmh": 7.4,
        "wind_dir": 0.0,
        "cloud_pct": 88.0
      }
    },
    {
      "type": "Feature",
      "geometry": {
        "type": "Point",
        "coordinates": [
          96.977344,
          4.748139
        ]
      },
      "properties": {
        "location_name": "PLTA Redelong",
        "slug": "plta_redelong",
        "date": "Sabtu, 29 Agustus 2026",
        "date_iso": "2026-08-29",
        "relative": "Besok",
        "hour": "15:00",
        "rain_probability": 57.9,
        "risk_score": 58,
        "risk_class": "rain",
        "risk_label": "Waspada",
        "condition": "Hujan Ringan",
        "temp_c": 25.7,
        "humidity_pct": 57.0,
        "heat_index_c": 25.7,
        "wind_kmh": 7.1,
        "wind_dir": 0.0,
        "cloud_pct": 88.0
      }
    },
    {
      "type": "Feature",
      "geometry": {
        "type": "Point",
        "coordinates": [
          96.977344,
          4.748139
        ]
      },
      "properties": {
        "location_name": "PLTA Redelong",
        "slug": "plta_redelong",
        "date": "Sabtu, 29 Agustus 2026",
        "date_iso": "2026-08-29",
        "relative": "Besok",
        "hour": "16:00",
        "rain_probability": 57.9,
        "risk_score": 58,
        "risk_class": "rain",
        "risk_label": "Waspada",
        "condition": "Hujan Ringan",
        "temp_c": 25.2,
        "humidity_pct": 74.0,
        "heat_index_c": 25.2,
        "wind_kmh": 5.6,
        "wind_dir": 0.0,
        "cloud_pct": 88.0
      }
    },
    {
      "type": "Feature",
      "geometry": {
        "type": "Point",
        "coordinates": [
          96.977344,
          4.748139
        ]
      },
      "properties": {
        "location_name": "PLTA Redelong",
        "slug": "plta_redelong",
        "date": "Sabtu, 29 Agustus 2026",
        "date_iso": "2026-08-29",
        "relative": "Besok",
        "hour": "17:00",
        "rain_probability": 69.3,
        "risk_score": 69,
        "risk_class": "rain",
        "risk_label": "Waspada",
        "condition": "Hujan Ringan",
        "temp_c": 24.2,
        "humidity_pct": 74.0,
        "heat_index_c": 24.2,
        "wind_kmh": 5.2,
        "wind_dir": 0.0,
        "cloud_pct": 88.0
      }
    },
    {
      "type": "Feature",
      "geometry": {
        "type": "Point",
        "coordinates": [
          96.977344,
          4.748139
        ]
      },
      "properties": {
        "location_name": "PLTA Redelong",
        "slug": "plta_redelong",
        "date": "Sabtu, 29 Agustus 2026",
        "date_iso": "2026-08-29",
        "relative": "Besok",
        "hour": "18:00",
        "rain_probability": 72.3,
        "risk_score": 72,
        "risk_class": "rain",
        "risk_label": "Waspada",
        "condition": "Hujan Ringan",
        "temp_c": 22.3,
        "humidity_pct": 86.0,
        "heat_index_c": 22.3,
        "wind_kmh": 3.6,
        "wind_dir": 0.0,
        "cloud_pct": 88.0
      }
    },
    {
      "type": "Feature",
      "geometry": {
        "type": "Point",
        "coordinates": [
          96.977344,
          4.748139
        ]
      },
      "properties": {
        "location_name": "PLTA Redelong",
        "slug": "plta_redelong",
        "date": "Sabtu, 29 Agustus 2026",
        "date_iso": "2026-08-29",
        "relative": "Besok",
        "hour": "19:00",
        "rain_probability": 57.9,
        "risk_score": 58,
        "risk_class": "rain",
        "risk_label": "Waspada",
        "condition": "Hujan Ringan",
        "temp_c": 21.2,
        "humidity_pct": 90.0,
        "heat_index_c": 21.2,
        "wind_kmh": 3.2,
        "wind_dir": 0.0,
        "cloud_pct": 88.0
      }
    },
    {
      "type": "Feature",
      "geometry": {
        "type": "Point",
        "coordinates": [
          96.977344,
          4.748139
        ]
      },
      "properties": {
        "location_name": "PLTA Redelong",
        "slug": "plta_redelong",
        "date": "Sabtu, 29 Agustus 2026",
        "date_iso": "2026-08-29",
        "relative": "Besok",
        "hour": "20:00",
        "rain_probability": 13.9,
        "risk_score": 27,
        "risk_class": "watch",
        "risk_label": "Perlu diperhatikan",
        "condition": "Berawan",
        "temp_c": 20.4,
        "humidity_pct": 92.0,
        "heat_index_c": 20.4,
        "wind_kmh": 3.2,
        "wind_dir": 0.0,
        "cloud_pct": 75.0
      }
    },
    {
      "type": "Feature",
      "geometry": {
        "type": "Point",
        "coordinates": [
          96.977344,
          4.748139
        ]
      },
      "properties": {
        "location_name": "PLTA Redelong",
        "slug": "plta_redelong",
        "date": "Sabtu, 29 Agustus 2026",
        "date_iso": "2026-08-29",
        "relative": "Besok",
        "hour": "21:00",
        "rain_probability": 0,
        "risk_score": 26,
        "risk_class": "watch",
        "risk_label": "Perlu diperhatikan",
        "condition": "Berawan",
        "temp_c": 20.0,
        "humidity_pct": 93.0,
        "heat_index_c": 20.0,
        "wind_kmh": 5.0,
        "wind_dir": 0.0,
        "cloud_pct": 75.0
      }
    },
    {
      "type": "Feature",
      "geometry": {
        "type": "Point",
        "coordinates": [
          96.977344,
          4.748139
        ]
      },
      "properties": {
        "location_name": "PLTA Redelong",
        "slug": "plta_redelong",
        "date": "Sabtu, 29 Agustus 2026",
        "date_iso": "2026-08-29",
        "relative": "Besok",
        "hour": "22:00",
        "rain_probability": 0,
        "risk_score": 26,
        "risk_class": "watch",
        "risk_label": "Perlu diperhatikan",
        "condition": "Berawan",
        "temp_c": 19.5,
        "humidity_pct": 93.0,
        "heat_index_c": 19.5,
        "wind_kmh": 5.0,
        "wind_dir": 0.0,
        "cloud_pct": 75.0
      }
    },
    {
      "type": "Feature",
      "geometry": {
        "type": "Point",
        "coordinates": [
          96.977344,
          4.748139
        ]
      },
      "properties": {
        "location_name": "PLTA Redelong",
        "slug": "plta_redelong",
        "date": "Sabtu, 29 Agustus 2026",
        "date_iso": "2026-08-29",
        "relative": "Besok",
        "hour": "23:00",
        "rain_probability": 0,
        "risk_score": 26,
        "risk_class": "watch",
        "risk_label": "Perlu diperhatikan",
        "condition": "Berawan",
        "temp_c": 19.0,
        "humidity_pct": 91.0,
        "heat_index_c": 19.0,
        "wind_kmh": 5.4,
        "wind_dir": 0.0,
        "cloud_pct": 75.0
      }
    },
    {
      "type": "Feature",
      "geometry": {
        "type": "Point",
        "coordinates": [
          96.977344,
          4.748139
        ]
      },
      "properties": {
        "location_name": "PLTA Redelong",
        "slug": "plta_redelong",
        "date": "Minggu, 30 Agustus 2026",
        "date_iso": "2026-08-30",
        "relative": "Lusa",
        "hour": "00:00",
        "rain_probability": 0,
        "risk_score": 25,
        "risk_class": "watch",
        "risk_label": "Perlu diperhatikan",
        "condition": "Berawan",
        "temp_c": 18.8,
        "humidity_pct": 89.0,
        "heat_index_c": 18.8,
        "wind_kmh": 6.2,
        "wind_dir": 0.0,
        "cloud_pct": 75.0
      }
    },
    {
      "type": "Feature",
      "geometry": {
        "type": "Point",
        "coordinates": [
          96.977344,
          4.748139
        ]
      },
      "properties": {
        "location_name": "PLTA Redelong",
        "slug": "plta_redelong",
        "date": "Minggu, 30 Agustus 2026",
        "date_iso": "2026-08-30",
        "relative": "Lusa",
        "hour": "01:00",
        "rain_probability": 0,
        "risk_score": 25,
        "risk_class": "safe",
        "risk_label": "Aman",
        "condition": "Berawan",
        "temp_c": 18.5,
        "humidity_pct": 87.0,
        "heat_index_c": 18.5,
        "wind_kmh": 7.0,
        "wind_dir": 0.0,
        "cloud_pct": 75.0
      }
    },
    {
      "type": "Feature",
      "geometry": {
        "type": "Point",
        "coordinates": [
          96.977344,
          4.748139
        ]
      },
      "properties": {
        "location_name": "PLTA Redelong",
        "slug": "plta_redelong",
        "date": "Minggu, 30 Agustus 2026",
        "date_iso": "2026-08-30",
        "relative": "Lusa",
        "hour": "02:00",
        "rain_probability": 0,
        "risk_score": 24,
        "risk_class": "safe",
        "risk_label": "Aman",
        "condition": "Berawan",
        "temp_c": 17.9,
        "humidity_pct": 85.0,
        "heat_index_c": 17.9,
        "wind_kmh": 7.7,
        "wind_dir": 0.0,
        "cloud_pct": 75.0
      }
    },
    {
      "type": "Feature",
      "geometry": {
        "type": "Point",
        "coordinates": [
          96.977344,
          4.748139
        ]
      },
      "properties": {
        "location_name": "PLTA Redelong",
        "slug": "plta_redelong",
        "date": "Minggu, 30 Agustus 2026",
        "date_iso": "2026-08-30",
        "relative": "Lusa",
        "hour": "03:00",
        "rain_probability": 0,
        "risk_score": 24,
        "risk_class": "safe",
        "risk_label": "Aman",
        "condition": "Berawan",
        "temp_c": 17.7,
        "humidity_pct": 82.0,
        "heat_index_c": 17.7,
        "wind_kmh": 7.7,
        "wind_dir": 0.0,
        "cloud_pct": 75.0
      }
    },
    {
      "type": "Feature",
      "geometry": {
        "type": "Point",
        "coordinates": [
          96.977344,
          4.748139
        ]
      },
      "properties": {
        "location_name": "PLTA Redelong",
        "slug": "plta_redelong",
        "date": "Minggu, 30 Agustus 2026",
        "date_iso": "2026-08-30",
        "relative": "Lusa",
        "hour": "04:00",
        "rain_probability": 0,
        "risk_score": 24,
        "risk_class": "safe",
        "risk_label": "Aman",
        "condition": "Berawan",
        "temp_c": 17.6,
        "humidity_pct": 80.0,
        "heat_index_c": 17.6,
        "wind_kmh": 7.6,
        "wind_dir": 0.0,
        "cloud_pct": 75.0
      }
    },
    {
      "type": "Feature",
      "geometry": {
        "type": "Point",
        "coordinates": [
          96.977344,
          4.748139
        ]
      },
      "properties": {
        "location_name": "PLTA Redelong",
        "slug": "plta_redelong",
        "date": "Minggu, 30 Agustus 2026",
        "date_iso": "2026-08-30",
        "relative": "Lusa",
        "hour": "05:00",
        "rain_probability": 0,
        "risk_score": 24,
        "risk_class": "safe",
        "risk_label": "Aman",
        "condition": "Berawan",
        "temp_c": 17.4,
        "humidity_pct": 80.0,
        "heat_index_c": 17.4,
        "wind_kmh": 8.2,
        "wind_dir": 0.0,
        "cloud_pct": 75.0
      }
    },
    {
      "type": "Feature",
      "geometry": {
        "type": "Point",
        "coordinates": [
          96.977344,
          4.748139
        ]
      },
      "properties": {
        "location_name": "PLTA Redelong",
        "slug": "plta_redelong",
        "date": "Minggu, 30 Agustus 2026",
        "date_iso": "2026-08-30",
        "relative": "Lusa",
        "hour": "06:00",
        "rain_probability": 0,
        "risk_score": 24,
        "risk_class": "safe",
        "risk_label": "Aman",
        "condition": "Berawan",
        "temp_c": 17.2,
        "humidity_pct": 80.0,
        "heat_index_c": 17.2,
        "wind_kmh": 7.6,
        "wind_dir": 0.0,
        "cloud_pct": 75.0
      }
    },
    {
      "type": "Feature",
      "geometry": {
        "type": "Point",
        "coordinates": [
          96.977344,
          4.748139
        ]
      },
      "properties": {
        "location_name": "PLTA Redelong",
        "slug": "plta_redelong",
        "date": "Minggu, 30 Agustus 2026",
        "date_iso": "2026-08-30",
        "relative": "Lusa",
        "hour": "07:00",
        "rain_probability": 0,
        "risk_score": 23,
        "risk_class": "safe",
        "risk_label": "Aman",
        "condition": "Berawan",
        "temp_c": 17.9,
        "humidity_pct": 77.0,
        "heat_index_c": 17.9,
        "wind_kmh": 7.3,
        "wind_dir": 0.0,
        "cloud_pct": 75.0
      }
    },
    {
      "type": "Feature",
      "geometry": {
        "type": "Point",
        "coordinates": [
          96.977344,
          4.748139
        ]
      },
      "properties": {
        "location_name": "PLTA Redelong",
        "slug": "plta_redelong",
        "date": "Minggu, 30 Agustus 2026",
        "date_iso": "2026-08-30",
        "relative": "Lusa",
        "hour": "08:00",
        "rain_probability": 0,
        "risk_score": 22,
        "risk_class": "safe",
        "risk_label": "Aman",
        "condition": "Berawan",
        "temp_c": 20.1,
        "humidity_pct": 72.0,
        "heat_index_c": 20.1,
        "wind_kmh": 6.0,
        "wind_dir": 0.0,
        "cloud_pct": 75.0
      }
    },
    {
      "type": "Feature",
      "geometry": {
        "type": "Point",
        "coordinates": [
          96.977344,
          4.748139
        ]
      },
      "properties": {
        "location_name": "PLTA Redelong",
        "slug": "plta_redelong",
        "date": "Minggu, 30 Agustus 2026",
        "date_iso": "2026-08-30",
        "relative": "Lusa",
        "hour": "09:00",
        "rain_probability": 0,
        "risk_score": 20,
        "risk_class": "safe",
        "risk_label": "Aman",
        "condition": "Berawan",
        "temp_c": 23.9,
        "humidity_pct": 62.0,
        "heat_index_c": 23.9,
        "wind_kmh": 3.9,
        "wind_dir": 0.0,
        "cloud_pct": 75.0
      }
    },
    {
      "type": "Feature",
      "geometry": {
        "type": "Point",
        "coordinates": [
          96.977344,
          4.748139
        ]
      },
      "properties": {
        "location_name": "PLTA Redelong",
        "slug": "plta_redelong",
        "date": "Minggu, 30 Agustus 2026",
        "date_iso": "2026-08-30",
        "relative": "Lusa",
        "hour": "10:00",
        "rain_probability": 0,
        "risk_score": 32,
        "risk_class": "watch",
        "risk_label": "Perlu diperhatikan",
        "condition": "Berawan",
        "temp_c": 25.5,
        "humidity_pct": 56.0,
        "heat_index_c": 25.5,
        "wind_kmh": 3.0,
        "wind_dir": 0.0,
        "cloud_pct": 75.0
      }
    },
    {
      "type": "Feature",
      "geometry": {
        "type": "Point",
        "coordinates": [
          96.977344,
          4.748139
        ]
      },
      "properties": {
        "location_name": "PLTA Redelong",
        "slug": "plta_redelong",
        "date": "Minggu, 30 Agustus 2026",
        "date_iso": "2026-08-30",
        "relative": "Lusa",
        "hour": "11:00",
        "rain_probability": 13.8,
        "risk_score": 36,
        "risk_class": "watch",
        "risk_label": "Perlu diperhatikan",
        "condition": "Berawan",
        "temp_c": 27.0,
        "humidity_pct": 53.0,
        "heat_index_c": 27.4,
        "wind_kmh": 5.1,
        "wind_dir": 0.0,
        "cloud_pct": 75.0
      }
    },
    {
      "type": "Feature",
      "geometry": {
        "type": "Point",
        "coordinates": [
          96.977344,
          4.748139
        ]
      },
      "properties": {
        "location_name": "PLTA Redelong",
        "slug": "plta_redelong",
        "date": "Minggu, 30 Agustus 2026",
        "date_iso": "2026-08-30",
        "relative": "Lusa",
        "hour": "12:00",
        "rain_probability": 14.4,
        "risk_score": 53,
        "risk_class": "watch",
        "risk_label": "Perlu diperhatikan",
        "condition": "Berawan",
        "temp_c": 28.0,
        "humidity_pct": 52.0,
        "heat_index_c": 28.27,
        "wind_kmh": 6.1,
        "wind_dir": 0.0,
        "cloud_pct": 75.0
      }
    },
    {
      "type": "Feature",
      "geometry": {
        "type": "Point",
        "coordinates": [
          96.977344,
          4.748139
        ]
      },
      "properties": {
        "location_name": "PLTA Redelong",
        "slug": "plta_redelong",
        "date": "Minggu, 30 Agustus 2026",
        "date_iso": "2026-08-30",
        "relative": "Lusa",
        "hour": "13:00",
        "rain_probability": 14.4,
        "risk_score": 63,
        "risk_class": "rain",
        "risk_label": "Waspada",
        "condition": "Berawan",
        "temp_c": 28.2,
        "humidity_pct": 51.0,
        "heat_index_c": 28.2,
        "wind_kmh": 7.4,
        "wind_dir": 0.0,
        "cloud_pct": 75.0
      }
    },
    {
      "type": "Feature",
      "geometry": {
        "type": "Point",
        "coordinates": [
          96.977344,
          4.748139
        ]
      },
      "properties": {
        "location_name": "PLTA Redelong",
        "slug": "plta_redelong",
        "date": "Minggu, 30 Agustus 2026",
        "date_iso": "2026-08-30",
        "relative": "Lusa",
        "hour": "14:00",
        "rain_probability": 41.5,
        "risk_score": 66,
        "risk_class": "rain",
        "risk_label": "Waspada",
        "condition": "Berawan",
        "temp_c": 26.7,
        "humidity_pct": 51.0,
        "heat_index_c": 27.31,
        "wind_kmh": 7.1,
        "wind_dir": 0.0,
        "cloud_pct": 75.0
      }
    },
    {
      "type": "Feature",
      "geometry": {
        "type": "Point",
        "coordinates": [
          96.977344,
          4.748139
        ]
      },
      "properties": {
        "location_name": "PLTA Redelong",
        "slug": "plta_redelong",
        "date": "Minggu, 30 Agustus 2026",
        "date_iso": "2026-08-30",
        "relative": "Lusa",
        "hour": "15:00",
        "rain_probability": 43.3,
        "risk_score": 53,
        "risk_class": "watch",
        "risk_label": "Perlu diperhatikan",
        "condition": "Berawan",
        "temp_c": 25.8,
        "humidity_pct": 55.0,
        "heat_index_c": 25.8,
        "wind_kmh": 6.8,
        "wind_dir": 0.0,
        "cloud_pct": 75.0
      }
    },
    {
      "type": "Feature",
      "geometry": {
        "type": "Point",
        "coordinates": [
          96.977344,
          4.748139
        ]
      },
      "properties": {
        "location_name": "PLTA Redelong",
        "slug": "plta_redelong",
        "date": "Minggu, 30 Agustus 2026",
        "date_iso": "2026-08-30",
        "relative": "Lusa",
        "hour": "16:00",
        "rain_probability": 57.8,
        "risk_score": 58,
        "risk_class": "rain",
        "risk_label": "Waspada",
        "condition": "Hujan Ringan",
        "temp_c": 24.8,
        "humidity_pct": 71.0,
        "heat_index_c": 24.8,
        "wind_kmh": 5.4,
        "wind_dir": 0.0,
        "cloud_pct": 88.0
      }
    },
    {
      "type": "Feature",
      "geometry": {
        "type": "Point",
        "coordinates": [
          96.977344,
          4.748139
        ]
      },
      "properties": {
        "location_name": "PLTA Redelong",
        "slug": "plta_redelong",
        "date": "Minggu, 30 Agustus 2026",
        "date_iso": "2026-08-30",
        "relative": "Lusa",
        "hour": "17:00",
        "rain_probability": 41.5,
        "risk_score": 42,
        "risk_class": "watch",
        "risk_label": "Perlu diperhatikan",
        "condition": "Hujan Ringan",
        "temp_c": 23.7,
        "humidity_pct": 71.0,
        "heat_index_c": 23.7,
        "wind_kmh": 4.7,
        "wind_dir": 0.0,
        "cloud_pct": 75.0
      }
    },
    {
      "type": "Feature",
      "geometry": {
        "type": "Point",
        "coordinates": [
          96.977344,
          4.748139
        ]
      },
      "properties": {
        "location_name": "PLTA Redelong",
        "slug": "plta_redelong",
        "date": "Minggu, 30 Agustus 2026",
        "date_iso": "2026-08-30",
        "relative": "Lusa",
        "hour": "18:00",
        "rain_probability": 43.3,
        "risk_score": 44,
        "risk_class": "watch",
        "risk_label": "Perlu diperhatikan",
        "condition": "Hujan Ringan",
        "temp_c": 22.2,
        "humidity_pct": 79.0,
        "heat_index_c": 22.2,
        "wind_kmh": 3.2,
        "wind_dir": 0.0,
        "cloud_pct": 75.0
      }
    },
    {
      "type": "Feature",
      "geometry": {
        "type": "Point",
        "coordinates": [
          96.977344,
          4.748139
        ]
      },
      "properties": {
        "location_name": "PLTA Redelong",
        "slug": "plta_redelong",
        "date": "Minggu, 30 Agustus 2026",
        "date_iso": "2026-08-30",
        "relative": "Lusa",
        "hour": "19:00",
        "rain_probability": 43.3,
        "risk_score": 45,
        "risk_class": "watch",
        "risk_label": "Perlu diperhatikan",
        "condition": "Berawan",
        "temp_c": 21.3,
        "humidity_pct": 91.0,
        "heat_index_c": 21.3,
        "wind_kmh": 1.8,
        "wind_dir": 0.0,
        "cloud_pct": 75.0
      }
    },
    {
      "type": "Feature",
      "geometry": {
        "type": "Point",
        "coordinates": [
          96.977344,
          4.748139
        ]
      },
      "properties": {
        "location_name": "PLTA Redelong",
        "slug": "plta_redelong",
        "date": "Minggu, 30 Agustus 2026",
        "date_iso": "2026-08-30",
        "relative": "Lusa",
        "hour": "20:00",
        "rain_probability": 13.8,
        "risk_score": 27,
        "risk_class": "watch",
        "risk_label": "Perlu diperhatikan",
        "condition": "Berawan",
        "temp_c": 20.5,
        "humidity_pct": 92.0,
        "heat_index_c": 20.5,
        "wind_kmh": 2.7,
        "wind_dir": 0.0,
        "cloud_pct": 75.0
      }
    },
    {
      "type": "Feature",
      "geometry": {
        "type": "Point",
        "coordinates": [
          96.977344,
          4.748139
        ]
      },
      "properties": {
        "location_name": "PLTA Redelong",
        "slug": "plta_redelong",
        "date": "Minggu, 30 Agustus 2026",
        "date_iso": "2026-08-30",
        "relative": "Lusa",
        "hour": "21:00",
        "rain_probability": 14.4,
        "risk_score": 26,
        "risk_class": "watch",
        "risk_label": "Perlu diperhatikan",
        "condition": "Berawan",
        "temp_c": 19.9,
        "humidity_pct": 90.0,
        "heat_index_c": 19.9,
        "wind_kmh": 4.5,
        "wind_dir": 0.0,
        "cloud_pct": 75.0
      }
    },
    {
      "type": "Feature",
      "geometry": {
        "type": "Point",
        "coordinates": [
          96.977344,
          4.748139
        ]
      },
      "properties": {
        "location_name": "PLTA Redelong",
        "slug": "plta_redelong",
        "date": "Minggu, 30 Agustus 2026",
        "date_iso": "2026-08-30",
        "relative": "Lusa",
        "hour": "22:00",
        "rain_probability": 0,
        "risk_score": 26,
        "risk_class": "watch",
        "risk_label": "Perlu diperhatikan",
        "condition": "Berawan",
        "temp_c": 19.2,
        "humidity_pct": 90.0,
        "heat_index_c": 19.2,
        "wind_kmh": 4.5,
        "wind_dir": 0.0,
        "cloud_pct": 75.0
      }
    },
    {
      "type": "Feature",
      "geometry": {
        "type": "Point",
        "coordinates": [
          96.977344,
          4.748139
        ]
      },
      "properties": {
        "location_name": "PLTA Redelong",
        "slug": "plta_redelong",
        "date": "Minggu, 30 Agustus 2026",
        "date_iso": "2026-08-30",
        "relative": "Lusa",
        "hour": "23:00",
        "rain_probability": 0,
        "risk_score": 26,
        "risk_class": "watch",
        "risk_label": "Perlu diperhatikan",
        "condition": "Berawan",
        "temp_c": 18.8,
        "humidity_pct": 90.0,
        "heat_index_c": 18.8,
        "wind_kmh": 6.1,
        "wind_dir": 0.0,
        "cloud_pct": 75.0
      }
    }
  ]
}