{
  "type": "FeatureCollection",
  "features": [
    {
      "type": "Feature",
      "geometry": {
        "type": "Point",
        "coordinates": [
          104.483483333,
          -5.009188889
        ]
      },
      "properties": {
        "location_name": "Stasiun Hujan Sumberjaya",
        "slug": "pltm_besai_kemu_sumberjaya",
        "date": "Minggu, 2 Agustus 2026",
        "date_iso": "2026-08-02",
        "relative": "Hari ini",
        "hour": "00:00",
        "rain_probability": 0,
        "risk_score": 24,
        "risk_class": "safe",
        "risk_label": "Aman",
        "condition": "Cerah",
        "temp_c": 20.4,
        "humidity_pct": 96.0,
        "heat_index_c": 20.4,
        "wind_kmh": 3.3,
        "wind_dir": 0.0,
        "cloud_pct": 45.0
      }
    },
    {
      "type": "Feature",
      "geometry": {
        "type": "Point",
        "coordinates": [
          104.483483333,
          -5.009188889
        ]
      },
      "properties": {
        "location_name": "Stasiun Hujan Sumberjaya",
        "slug": "pltm_besai_kemu_sumberjaya",
        "date": "Minggu, 2 Agustus 2026",
        "date_iso": "2026-08-02",
        "relative": "Hari ini",
        "hour": "01:00",
        "rain_probability": 0,
        "risk_score": 24,
        "risk_class": "safe",
        "risk_label": "Aman",
        "condition": "Cerah Berawan",
        "temp_c": 19.9,
        "humidity_pct": 95.0,
        "heat_index_c": 19.9,
        "wind_kmh": 3.3,
        "wind_dir": 0.0,
        "cloud_pct": 45.0
      }
    },
    {
      "type": "Feature",
      "geometry": {
        "type": "Point",
        "coordinates": [
          104.483483333,
          -5.009188889
        ]
      },
      "properties": {
        "location_name": "Stasiun Hujan Sumberjaya",
        "slug": "pltm_besai_kemu_sumberjaya",
        "date": "Minggu, 2 Agustus 2026",
        "date_iso": "2026-08-02",
        "relative": "Hari ini",
        "hour": "02:00",
        "rain_probability": 0,
        "risk_score": 24,
        "risk_class": "safe",
        "risk_label": "Aman",
        "condition": "Cerah Berawan",
        "temp_c": 19.7,
        "humidity_pct": 95.0,
        "heat_index_c": 19.7,
        "wind_kmh": 2.9,
        "wind_dir": 0.0,
        "cloud_pct": 45.0
      }
    },
    {
      "type": "Feature",
      "geometry": {
        "type": "Point",
        "coordinates": [
          104.483483333,
          -5.009188889
        ]
      },
      "properties": {
        "location_name": "Stasiun Hujan Sumberjaya",
        "slug": "pltm_besai_kemu_sumberjaya",
        "date": "Minggu, 2 Agustus 2026",
        "date_iso": "2026-08-02",
        "relative": "Hari ini",
        "hour": "03:00",
        "rain_probability": 0,
        "risk_score": 24,
        "risk_class": "safe",
        "risk_label": "Aman",
        "condition": "Cerah",
        "temp_c": 19.5,
        "humidity_pct": 95.0,
        "heat_index_c": 19.5,
        "wind_kmh": 2.9,
        "wind_dir": 0.0,
        "cloud_pct": 45.0
      }
    },
    {
      "type": "Feature",
      "geometry": {
        "type": "Point",
        "coordinates": [
          104.483483333,
          -5.009188889
        ]
      },
      "properties": {
        "location_name": "Stasiun Hujan Sumberjaya",
        "slug": "pltm_besai_kemu_sumberjaya",
        "date": "Minggu, 2 Agustus 2026",
        "date_iso": "2026-08-02",
        "relative": "Hari ini",
        "hour": "04:00",
        "rain_probability": 0,
        "risk_score": 24,
        "risk_class": "safe",
        "risk_label": "Aman",
        "condition": "Cerah Berawan",
        "temp_c": 19.5,
        "humidity_pct": 95.0,
        "heat_index_c": 19.5,
        "wind_kmh": 2.9,
        "wind_dir": 0.0,
        "cloud_pct": 45.0
      }
    },
    {
      "type": "Feature",
      "geometry": {
        "type": "Point",
        "coordinates": [
          104.483483333,
          -5.009188889
        ]
      },
      "properties": {
        "location_name": "Stasiun Hujan Sumberjaya",
        "slug": "pltm_besai_kemu_sumberjaya",
        "date": "Minggu, 2 Agustus 2026",
        "date_iso": "2026-08-02",
        "relative": "Hari ini",
        "hour": "05:00",
        "rain_probability": 0,
        "risk_score": 24,
        "risk_class": "safe",
        "risk_label": "Aman",
        "condition": "Berawan",
        "temp_c": 19.8,
        "humidity_pct": 95.0,
        "heat_index_c": 19.8,
        "wind_kmh": 2.9,
        "wind_dir": 0.0,
        "cloud_pct": 45.0
      }
    },
    {
      "type": "Feature",
      "geometry": {
        "type": "Point",
        "coordinates": [
          104.483483333,
          -5.009188889
        ]
      },
      "properties": {
        "location_name": "Stasiun Hujan Sumberjaya",
        "slug": "pltm_besai_kemu_sumberjaya",
        "date": "Minggu, 2 Agustus 2026",
        "date_iso": "2026-08-02",
        "relative": "Hari ini",
        "hour": "06:00",
        "rain_probability": 0,
        "risk_score": 24,
        "risk_class": "safe",
        "risk_label": "Aman",
        "condition": "Cerah Berawan",
        "temp_c": 19.5,
        "humidity_pct": 95.0,
        "heat_index_c": 19.5,
        "wind_kmh": 3.4,
        "wind_dir": 0.0,
        "cloud_pct": 45.0
      }
    },
    {
      "type": "Feature",
      "geometry": {
        "type": "Point",
        "coordinates": [
          104.483483333,
          -5.009188889
        ]
      },
      "properties": {
        "location_name": "Stasiun Hujan Sumberjaya",
        "slug": "pltm_besai_kemu_sumberjaya",
        "date": "Minggu, 2 Agustus 2026",
        "date_iso": "2026-08-02",
        "relative": "Hari ini",
        "hour": "07:00",
        "rain_probability": 0,
        "risk_score": 21,
        "risk_class": "safe",
        "risk_label": "Aman",
        "condition": "Cerah",
        "temp_c": 20.3,
        "humidity_pct": 94.0,
        "heat_index_c": 20.3,
        "wind_kmh": 3.3,
        "wind_dir": 0.0,
        "cloud_pct": 15.0
      }
    },
    {
      "type": "Feature",
      "geometry": {
        "type": "Point",
        "coordinates": [
          104.483483333,
          -5.009188889
        ]
      },
      "properties": {
        "location_name": "Stasiun Hujan Sumberjaya",
        "slug": "pltm_besai_kemu_sumberjaya",
        "date": "Minggu, 2 Agustus 2026",
        "date_iso": "2026-08-02",
        "relative": "Hari ini",
        "hour": "08:00",
        "rain_probability": 0,
        "risk_score": 55,
        "risk_class": "watch",
        "risk_label": "Perlu diperhatikan",
        "condition": "Cerah",
        "temp_c": 22.5,
        "humidity_pct": 85.0,
        "heat_index_c": 22.5,
        "wind_kmh": 5.5,
        "wind_dir": 0.0,
        "cloud_pct": 15.0
      }
    },
    {
      "type": "Feature",
      "geometry": {
        "type": "Point",
        "coordinates": [
          104.483483333,
          -5.009188889
        ]
      },
      "properties": {
        "location_name": "Stasiun Hujan Sumberjaya",
        "slug": "pltm_besai_kemu_sumberjaya",
        "date": "Minggu, 2 Agustus 2026",
        "date_iso": "2026-08-02",
        "relative": "Hari ini",
        "hour": "09:00",
        "rain_probability": 0,
        "risk_score": 49,
        "risk_class": "watch",
        "risk_label": "Perlu diperhatikan",
        "condition": "Cerah",
        "temp_c": 24.2,
        "humidity_pct": 79.0,
        "heat_index_c": 24.2,
        "wind_kmh": 8.6,
        "wind_dir": 0.0,
        "cloud_pct": 15.0
      }
    },
    {
      "type": "Feature",
      "geometry": {
        "type": "Point",
        "coordinates": [
          104.483483333,
          -5.009188889
        ]
      },
      "properties": {
        "location_name": "Stasiun Hujan Sumberjaya",
        "slug": "pltm_besai_kemu_sumberjaya",
        "date": "Minggu, 2 Agustus 2026",
        "date_iso": "2026-08-02",
        "relative": "Hari ini",
        "hour": "10:00",
        "rain_probability": 0,
        "risk_score": 45,
        "risk_class": "watch",
        "risk_label": "Perlu diperhatikan",
        "condition": "Cerah Berawan",
        "temp_c": 25.4,
        "humidity_pct": 70.0,
        "heat_index_c": 25.4,
        "wind_kmh": 9.4,
        "wind_dir": 0.0,
        "cloud_pct": 45.0
      }
    },
    {
      "type": "Feature",
      "geometry": {
        "type": "Point",
        "coordinates": [
          104.483483333,
          -5.009188889
        ]
      },
      "properties": {
        "location_name": "Stasiun Hujan Sumberjaya",
        "slug": "pltm_besai_kemu_sumberjaya",
        "date": "Minggu, 2 Agustus 2026",
        "date_iso": "2026-08-02",
        "relative": "Hari ini",
        "hour": "11:00",
        "rain_probability": 0,
        "risk_score": 45,
        "risk_class": "watch",
        "risk_label": "Perlu diperhatikan",
        "condition": "Cerah",
        "temp_c": 26.4,
        "humidity_pct": 65.0,
        "heat_index_c": 26.4,
        "wind_kmh": 10.4,
        "wind_dir": 0.0,
        "cloud_pct": 15.0
      }
    },
    {
      "type": "Feature",
      "geometry": {
        "type": "Point",
        "coordinates": [
          104.483483333,
          -5.009188889
        ]
      },
      "properties": {
        "location_name": "Stasiun Hujan Sumberjaya",
        "slug": "pltm_besai_kemu_sumberjaya",
        "date": "Minggu, 2 Agustus 2026",
        "date_iso": "2026-08-02",
        "relative": "Hari ini",
        "hour": "12:00",
        "rain_probability": 0,
        "risk_score": 45,
        "risk_class": "watch",
        "risk_label": "Perlu diperhatikan",
        "condition": "Cerah",
        "temp_c": 27.3,
        "humidity_pct": 63.0,
        "heat_index_c": 28.39,
        "wind_kmh": 10.9,
        "wind_dir": 0.0,
        "cloud_pct": 15.0
      }
    },
    {
      "type": "Feature",
      "geometry": {
        "type": "Point",
        "coordinates": [
          104.483483333,
          -5.009188889
        ]
      },
      "properties": {
        "location_name": "Stasiun Hujan Sumberjaya",
        "slug": "pltm_besai_kemu_sumberjaya",
        "date": "Minggu, 2 Agustus 2026",
        "date_iso": "2026-08-02",
        "relative": "Hari ini",
        "hour": "13:00",
        "rain_probability": 0,
        "risk_score": 65,
        "risk_class": "rain",
        "risk_label": "Waspada",
        "condition": "Cerah Berawan",
        "temp_c": 27.9,
        "humidity_pct": 60.0,
        "heat_index_c": 28.89,
        "wind_kmh": 11.1,
        "wind_dir": 0.0,
        "cloud_pct": 45.0
      }
    },
    {
      "type": "Feature",
      "geometry": {
        "type": "Point",
        "coordinates": [
          104.483483333,
          -5.009188889
        ]
      },
      "properties": {
        "location_name": "Stasiun Hujan Sumberjaya",
        "slug": "pltm_besai_kemu_sumberjaya",
        "date": "Minggu, 2 Agustus 2026",
        "date_iso": "2026-08-02",
        "relative": "Hari ini",
        "hour": "14:00",
        "rain_probability": 0,
        "risk_score": 65,
        "risk_class": "rain",
        "risk_label": "Waspada",
        "condition": "Cerah Berawan",
        "temp_c": 28.3,
        "humidity_pct": 60.0,
        "heat_index_c": 29.32,
        "wind_kmh": 10.7,
        "wind_dir": 0.0,
        "cloud_pct": 45.0
      }
    },
    {
      "type": "Feature",
      "geometry": {
        "type": "Point",
        "coordinates": [
          104.483483333,
          -5.009188889
        ]
      },
      "properties": {
        "location_name": "Stasiun Hujan Sumberjaya",
        "slug": "pltm_besai_kemu_sumberjaya",
        "date": "Minggu, 2 Agustus 2026",
        "date_iso": "2026-08-02",
        "relative": "Hari ini",
        "hour": "15:00",
        "rain_probability": 0,
        "risk_score": 65,
        "risk_class": "rain",
        "risk_label": "Waspada",
        "condition": "Cerah Berawan",
        "temp_c": 28.4,
        "humidity_pct": 60.0,
        "heat_index_c": 29.57,
        "wind_kmh": 10.0,
        "wind_dir": 0.0,
        "cloud_pct": 45.0
      }
    },
    {
      "type": "Feature",
      "geometry": {
        "type": "Point",
        "coordinates": [
          104.483483333,
          -5.009188889
        ]
      },
      "properties": {
        "location_name": "Stasiun Hujan Sumberjaya",
        "slug": "pltm_besai_kemu_sumberjaya",
        "date": "Minggu, 2 Agustus 2026",
        "date_iso": "2026-08-02",
        "relative": "Hari ini",
        "hour": "16:00",
        "rain_probability": 14.4,
        "risk_score": 43,
        "risk_class": "watch",
        "risk_label": "Perlu diperhatikan",
        "condition": "Cerah Berawan",
        "temp_c": 27.0,
        "humidity_pct": 70.0,
        "heat_index_c": 28.89,
        "wind_kmh": 8.7,
        "wind_dir": 0.0,
        "cloud_pct": 45.0
      }
    },
    {
      "type": "Feature",
      "geometry": {
        "type": "Point",
        "coordinates": [
          104.483483333,
          -5.009188889
        ]
      },
      "properties": {
        "location_name": "Stasiun Hujan Sumberjaya",
        "slug": "pltm_besai_kemu_sumberjaya",
        "date": "Minggu, 2 Agustus 2026",
        "date_iso": "2026-08-02",
        "relative": "Hari ini",
        "hour": "17:00",
        "rain_probability": 13.8,
        "risk_score": 36,
        "risk_class": "watch",
        "risk_label": "Perlu diperhatikan",
        "condition": "Cerah Berawan",
        "temp_c": 25.2,
        "humidity_pct": 75.0,
        "heat_index_c": 25.2,
        "wind_kmh": 7.7,
        "wind_dir": 0.0,
        "cloud_pct": 45.0
      }
    },
    {
      "type": "Feature",
      "geometry": {
        "type": "Point",
        "coordinates": [
          104.483483333,
          -5.009188889
        ]
      },
      "properties": {
        "location_name": "Stasiun Hujan Sumberjaya",
        "slug": "pltm_besai_kemu_sumberjaya",
        "date": "Minggu, 2 Agustus 2026",
        "date_iso": "2026-08-02",
        "relative": "Hari ini",
        "hour": "18:00",
        "rain_probability": 0,
        "risk_score": 29,
        "risk_class": "watch",
        "risk_label": "Perlu diperhatikan",
        "condition": "Cerah Berawan",
        "temp_c": 23.4,
        "humidity_pct": 76.0,
        "heat_index_c": 23.4,
        "wind_kmh": 5.9,
        "wind_dir": 0.0,
        "cloud_pct": 45.0
      }
    },
    {
      "type": "Feature",
      "geometry": {
        "type": "Point",
        "coordinates": [
          104.483483333,
          -5.009188889
        ]
      },
      "properties": {
        "location_name": "Stasiun Hujan Sumberjaya",
        "slug": "pltm_besai_kemu_sumberjaya",
        "date": "Minggu, 2 Agustus 2026",
        "date_iso": "2026-08-02",
        "relative": "Hari ini",
        "hour": "19:00",
        "rain_probability": 0,
        "risk_score": 30,
        "risk_class": "watch",
        "risk_label": "Perlu diperhatikan",
        "condition": "Cerah Berawan",
        "temp_c": 22.7,
        "humidity_pct": 87.0,
        "heat_index_c": 22.7,
        "wind_kmh": 4.7,
        "wind_dir": 0.0,
        "cloud_pct": 45.0
      }
    },
    {
      "type": "Feature",
      "geometry": {
        "type": "Point",
        "coordinates": [
          104.483483333,
          -5.009188889
        ]
      },
      "properties": {
        "location_name": "Stasiun Hujan Sumberjaya",
        "slug": "pltm_besai_kemu_sumberjaya",
        "date": "Minggu, 2 Agustus 2026",
        "date_iso": "2026-08-02",
        "relative": "Hari ini",
        "hour": "20:00",
        "rain_probability": 13.8,
        "risk_score": 27,
        "risk_class": "watch",
        "risk_label": "Perlu diperhatikan",
        "condition": "Cerah Berawan",
        "temp_c": 21.6,
        "humidity_pct": 91.0,
        "heat_index_c": 21.6,
        "wind_kmh": 4.4,
        "wind_dir": 0.0,
        "cloud_pct": 45.0
      }
    },
    {
      "type": "Feature",
      "geometry": {
        "type": "Point",
        "coordinates": [
          104.483483333,
          -5.009188889
        ]
      },
      "properties": {
        "location_name": "Stasiun Hujan Sumberjaya",
        "slug": "pltm_besai_kemu_sumberjaya",
        "date": "Minggu, 2 Agustus 2026",
        "date_iso": "2026-08-02",
        "relative": "Hari ini",
        "hour": "21:00",
        "rain_probability": 0,
        "risk_score": 23,
        "risk_class": "safe",
        "risk_label": "Aman",
        "condition": "Cerah Berawan",
        "temp_c": 21.5,
        "humidity_pct": 94.0,
        "heat_index_c": 21.5,
        "wind_kmh": 3.7,
        "wind_dir": 0.0,
        "cloud_pct": 45.0
      }
    },
    {
      "type": "Feature",
      "geometry": {
        "type": "Point",
        "coordinates": [
          104.483483333,
          -5.009188889
        ]
      },
      "properties": {
        "location_name": "Stasiun Hujan Sumberjaya",
        "slug": "pltm_besai_kemu_sumberjaya",
        "date": "Minggu, 2 Agustus 2026",
        "date_iso": "2026-08-02",
        "relative": "Hari ini",
        "hour": "22:00",
        "rain_probability": 0,
        "risk_score": 24,
        "risk_class": "safe",
        "risk_label": "Aman",
        "condition": "Berawan",
        "temp_c": 21.6,
        "humidity_pct": 96.0,
        "heat_index_c": 21.6,
        "wind_kmh": 4.0,
        "wind_dir": 0.0,
        "cloud_pct": 45.0
      }
    },
    {
      "type": "Feature",
      "geometry": {
        "type": "Point",
        "coordinates": [
          104.483483333,
          -5.009188889
        ]
      },
      "properties": {
        "location_name": "Stasiun Hujan Sumberjaya",
        "slug": "pltm_besai_kemu_sumberjaya",
        "date": "Minggu, 2 Agustus 2026",
        "date_iso": "2026-08-02",
        "relative": "Hari ini",
        "hour": "23:00",
        "rain_probability": 0,
        "risk_score": 27,
        "risk_class": "watch",
        "risk_label": "Perlu diperhatikan",
        "condition": "Berawan",
        "temp_c": 21.4,
        "humidity_pct": 97.0,
        "heat_index_c": 21.4,
        "wind_kmh": 3.8,
        "wind_dir": 0.0,
        "cloud_pct": 75.0
      }
    },
    {
      "type": "Feature",
      "geometry": {
        "type": "Point",
        "coordinates": [
          104.483483333,
          -5.009188889
        ]
      },
      "properties": {
        "location_name": "Stasiun Hujan Sumberjaya",
        "slug": "pltm_besai_kemu_sumberjaya",
        "date": "Senin, 3 Agustus 2026",
        "date_iso": "2026-08-03",
        "relative": "Besok",
        "hour": "00:00",
        "rain_probability": 0,
        "risk_score": 27,
        "risk_class": "watch",
        "risk_label": "Perlu diperhatikan",
        "condition": "Berawan",
        "temp_c": 21.1,
        "humidity_pct": 98.0,
        "heat_index_c": 21.1,
        "wind_kmh": 3.7,
        "wind_dir": 0.0,
        "cloud_pct": 75.0
      }
    },
    {
      "type": "Feature",
      "geometry": {
        "type": "Point",
        "coordinates": [
          104.483483333,
          -5.009188889
        ]
      },
      "properties": {
        "location_name": "Stasiun Hujan Sumberjaya",
        "slug": "pltm_besai_kemu_sumberjaya",
        "date": "Senin, 3 Agustus 2026",
        "date_iso": "2026-08-03",
        "relative": "Besok",
        "hour": "01:00",
        "rain_probability": 0,
        "risk_score": 27,
        "risk_class": "watch",
        "risk_label": "Perlu diperhatikan",
        "condition": "Berawan",
        "temp_c": 20.7,
        "humidity_pct": 97.0,
        "heat_index_c": 20.7,
        "wind_kmh": 3.8,
        "wind_dir": 0.0,
        "cloud_pct": 75.0
      }
    },
    {
      "type": "Feature",
      "geometry": {
        "type": "Point",
        "coordinates": [
          104.483483333,
          -5.009188889
        ]
      },
      "properties": {
        "location_name": "Stasiun Hujan Sumberjaya",
        "slug": "pltm_besai_kemu_sumberjaya",
        "date": "Senin, 3 Agustus 2026",
        "date_iso": "2026-08-03",
        "relative": "Besok",
        "hour": "02:00",
        "rain_probability": 0,
        "risk_score": 24,
        "risk_class": "safe",
        "risk_label": "Aman",
        "condition": "Berawan",
        "temp_c": 20.1,
        "humidity_pct": 96.0,
        "heat_index_c": 20.1,
        "wind_kmh": 3.6,
        "wind_dir": 0.0,
        "cloud_pct": 45.0
      }
    },
    {
      "type": "Feature",
      "geometry": {
        "type": "Point",
        "coordinates": [
          104.483483333,
          -5.009188889
        ]
      },
      "properties": {
        "location_name": "Stasiun Hujan Sumberjaya",
        "slug": "pltm_besai_kemu_sumberjaya",
        "date": "Senin, 3 Agustus 2026",
        "date_iso": "2026-08-03",
        "relative": "Besok",
        "hour": "03:00",
        "rain_probability": 0,
        "risk_score": 24,
        "risk_class": "safe",
        "risk_label": "Aman",
        "condition": "Cerah Berawan",
        "temp_c": 19.6,
        "humidity_pct": 95.0,
        "heat_index_c": 19.6,
        "wind_kmh": 3.3,
        "wind_dir": 0.0,
        "cloud_pct": 45.0
      }
    },
    {
      "type": "Feature",
      "geometry": {
        "type": "Point",
        "coordinates": [
          104.483483333,
          -5.009188889
        ]
      },
      "properties": {
        "location_name": "Stasiun Hujan Sumberjaya",
        "slug": "pltm_besai_kemu_sumberjaya",
        "date": "Senin, 3 Agustus 2026",
        "date_iso": "2026-08-03",
        "relative": "Besok",
        "hour": "04:00",
        "rain_probability": 0,
        "risk_score": 24,
        "risk_class": "safe",
        "risk_label": "Aman",
        "condition": "Cerah Berawan",
        "temp_c": 19.4,
        "humidity_pct": 95.0,
        "heat_index_c": 19.4,
        "wind_kmh": 3.4,
        "wind_dir": 0.0,
        "cloud_pct": 45.0
      }
    },
    {
      "type": "Feature",
      "geometry": {
        "type": "Point",
        "coordinates": [
          104.483483333,
          -5.009188889
        ]
      },
      "properties": {
        "location_name": "Stasiun Hujan Sumberjaya",
        "slug": "pltm_besai_kemu_sumberjaya",
        "date": "Senin, 3 Agustus 2026",
        "date_iso": "2026-08-03",
        "relative": "Besok",
        "hour": "05:00",
        "rain_probability": 0,
        "risk_score": 24,
        "risk_class": "safe",
        "risk_label": "Aman",
        "condition": "Berawan",
        "temp_c": 19.3,
        "humidity_pct": 95.0,
        "heat_index_c": 19.3,
        "wind_kmh": 3.7,
        "wind_dir": 0.0,
        "cloud_pct": 45.0
      }
    },
    {
      "type": "Feature",
      "geometry": {
        "type": "Point",
        "coordinates": [
          104.483483333,
          -5.009188889
        ]
      },
      "properties": {
        "location_name": "Stasiun Hujan Sumberjaya",
        "slug": "pltm_besai_kemu_sumberjaya",
        "date": "Senin, 3 Agustus 2026",
        "date_iso": "2026-08-03",
        "relative": "Besok",
        "hour": "06:00",
        "rain_probability": 0,
        "risk_score": 24,
        "risk_class": "safe",
        "risk_label": "Aman",
        "condition": "Cerah Berawan",
        "temp_c": 19.3,
        "humidity_pct": 97.0,
        "heat_index_c": 19.3,
        "wind_kmh": 3.7,
        "wind_dir": 0.0,
        "cloud_pct": 45.0
      }
    },
    {
      "type": "Feature",
      "geometry": {
        "type": "Point",
        "coordinates": [
          104.483483333,
          -5.009188889
        ]
      },
      "properties": {
        "location_name": "Stasiun Hujan Sumberjaya",
        "slug": "pltm_besai_kemu_sumberjaya",
        "date": "Senin, 3 Agustus 2026",
        "date_iso": "2026-08-03",
        "relative": "Besok",
        "hour": "07:00",
        "rain_probability": 0,
        "risk_score": 24,
        "risk_class": "safe",
        "risk_label": "Aman",
        "condition": "Berawan",
        "temp_c": 20.0,
        "humidity_pct": 95.0,
        "heat_index_c": 20.0,
        "wind_kmh": 3.7,
        "wind_dir": 0.0,
        "cloud_pct": 45.0
      }
    },
    {
      "type": "Feature",
      "geometry": {
        "type": "Point",
        "coordinates": [
          104.483483333,
          -5.009188889
        ]
      },
      "properties": {
        "location_name": "Stasiun Hujan Sumberjaya",
        "slug": "pltm_besai_kemu_sumberjaya",
        "date": "Senin, 3 Agustus 2026",
        "date_iso": "2026-08-03",
        "relative": "Besok",
        "hour": "08:00",
        "rain_probability": 0,
        "risk_score": 18,
        "risk_class": "safe",
        "risk_label": "Aman",
        "condition": "Cerah",
        "temp_c": 22.6,
        "humidity_pct": 83.0,
        "heat_index_c": 22.6,
        "wind_kmh": 4.3,
        "wind_dir": 0.0,
        "cloud_pct": 15.0
      }
    },
    {
      "type": "Feature",
      "geometry": {
        "type": "Point",
        "coordinates": [
          104.483483333,
          -5.009188889
        ]
      },
      "properties": {
        "location_name": "Stasiun Hujan Sumberjaya",
        "slug": "pltm_besai_kemu_sumberjaya",
        "date": "Senin, 3 Agustus 2026",
        "date_iso": "2026-08-03",
        "relative": "Besok",
        "hour": "09:00",
        "rain_probability": 0,
        "risk_score": 19,
        "risk_class": "safe",
        "risk_label": "Aman",
        "condition": "Cerah Berawan",
        "temp_c": 24.7,
        "humidity_pct": 73.0,
        "heat_index_c": 24.7,
        "wind_kmh": 5.8,
        "wind_dir": 0.0,
        "cloud_pct": 45.0
      }
    },
    {
      "type": "Feature",
      "geometry": {
        "type": "Point",
        "coordinates": [
          104.483483333,
          -5.009188889
        ]
      },
      "properties": {
        "location_name": "Stasiun Hujan Sumberjaya",
        "slug": "pltm_besai_kemu_sumberjaya",
        "date": "Senin, 3 Agustus 2026",
        "date_iso": "2026-08-03",
        "relative": "Besok",
        "hour": "10:00",
        "rain_probability": 0,
        "risk_score": 48,
        "risk_class": "watch",
        "risk_label": "Perlu diperhatikan",
        "condition": "Cerah Berawan",
        "temp_c": 26.0,
        "humidity_pct": 66.0,
        "heat_index_c": 26.0,
        "wind_kmh": 7.2,
        "wind_dir": 0.0,
        "cloud_pct": 45.0
      }
    },
    {
      "type": "Feature",
      "geometry": {
        "type": "Point",
        "coordinates": [
          104.483483333,
          -5.009188889
        ]
      },
      "properties": {
        "location_name": "Stasiun Hujan Sumberjaya",
        "slug": "pltm_besai_kemu_sumberjaya",
        "date": "Senin, 3 Agustus 2026",
        "date_iso": "2026-08-03",
        "relative": "Besok",
        "hour": "11:00",
        "rain_probability": 13.8,
        "risk_score": 48,
        "risk_class": "watch",
        "risk_label": "Perlu diperhatikan",
        "condition": "Cerah Berawan",
        "temp_c": 26.9,
        "humidity_pct": 62.0,
        "heat_index_c": 28.03,
        "wind_kmh": 8.0,
        "wind_dir": 0.0,
        "cloud_pct": 45.0
      }
    },
    {
      "type": "Feature",
      "geometry": {
        "type": "Point",
        "coordinates": [
          104.483483333,
          -5.009188889
        ]
      },
      "properties": {
        "location_name": "Stasiun Hujan Sumberjaya",
        "slug": "pltm_besai_kemu_sumberjaya",
        "date": "Senin, 3 Agustus 2026",
        "date_iso": "2026-08-03",
        "relative": "Besok",
        "hour": "12:00",
        "rain_probability": 14.5,
        "risk_score": 48,
        "risk_class": "watch",
        "risk_label": "Perlu diperhatikan",
        "condition": "Cerah Berawan",
        "temp_c": 27.7,
        "humidity_pct": 60.0,
        "heat_index_c": 28.74,
        "wind_kmh": 8.8,
        "wind_dir": 0.0,
        "cloud_pct": 45.0
      }
    },
    {
      "type": "Feature",
      "geometry": {
        "type": "Point",
        "coordinates": [
          104.483483333,
          -5.009188889
        ]
      },
      "properties": {
        "location_name": "Stasiun Hujan Sumberjaya",
        "slug": "pltm_besai_kemu_sumberjaya",
        "date": "Senin, 3 Agustus 2026",
        "date_iso": "2026-08-03",
        "relative": "Besok",
        "hour": "13:00",
        "rain_probability": 28.9,
        "risk_score": 54,
        "risk_class": "watch",
        "risk_label": "Perlu diperhatikan",
        "condition": "Cerah Berawan",
        "temp_c": 28.6,
        "humidity_pct": 59.0,
        "heat_index_c": 29.49,
        "wind_kmh": 8.3,
        "wind_dir": 0.0,
        "cloud_pct": 45.0
      }
    },
    {
      "type": "Feature",
      "geometry": {
        "type": "Point",
        "coordinates": [
          104.483483333,
          -5.009188889
        ]
      },
      "properties": {
        "location_name": "Stasiun Hujan Sumberjaya",
        "slug": "pltm_besai_kemu_sumberjaya",
        "date": "Senin, 3 Agustus 2026",
        "date_iso": "2026-08-03",
        "relative": "Besok",
        "hour": "14:00",
        "rain_probability": 27.7,
        "risk_score": 54,
        "risk_class": "watch",
        "risk_label": "Perlu diperhatikan",
        "condition": "Cerah Berawan",
        "temp_c": 27.7,
        "humidity_pct": 61.0,
        "heat_index_c": 28.97,
        "wind_kmh": 8.4,
        "wind_dir": 0.0,
        "cloud_pct": 45.0
      }
    },
    {
      "type": "Feature",
      "geometry": {
        "type": "Point",
        "coordinates": [
          104.483483333,
          -5.009188889
        ]
      },
      "properties": {
        "location_name": "Stasiun Hujan Sumberjaya",
        "slug": "pltm_besai_kemu_sumberjaya",
        "date": "Senin, 3 Agustus 2026",
        "date_iso": "2026-08-03",
        "relative": "Besok",
        "hour": "15:00",
        "rain_probability": 28.9,
        "risk_score": 54,
        "risk_class": "watch",
        "risk_label": "Perlu diperhatikan",
        "condition": "Cerah Berawan",
        "temp_c": 27.1,
        "humidity_pct": 65.0,
        "heat_index_c": 28.38,
        "wind_kmh": 6.3,
        "wind_dir": 0.0,
        "cloud_pct": 45.0
      }
    },
    {
      "type": "Feature",
      "geometry": {
        "type": "Point",
        "coordinates": [
          104.483483333,
          -5.009188889
        ]
      },
      "properties": {
        "location_name": "Stasiun Hujan Sumberjaya",
        "slug": "pltm_besai_kemu_sumberjaya",
        "date": "Senin, 3 Agustus 2026",
        "date_iso": "2026-08-03",
        "relative": "Besok",
        "hour": "16:00",
        "rain_probability": 57.8,
        "risk_score": 58,
        "risk_class": "rain",
        "risk_label": "Waspada",
        "condition": "Hujan Ringan",
        "temp_c": 26.0,
        "humidity_pct": 72.0,
        "heat_index_c": 26.0,
        "wind_kmh": 4.4,
        "wind_dir": 0.0,
        "cloud_pct": 88.0
      }
    },
    {
      "type": "Feature",
      "geometry": {
        "type": "Point",
        "coordinates": [
          104.483483333,
          -5.009188889
        ]
      },
      "properties": {
        "location_name": "Stasiun Hujan Sumberjaya",
        "slug": "pltm_besai_kemu_sumberjaya",
        "date": "Senin, 3 Agustus 2026",
        "date_iso": "2026-08-03",
        "relative": "Besok",
        "hour": "17:00",
        "rain_probability": 55.3,
        "risk_score": 55,
        "risk_class": "rain",
        "risk_label": "Waspada",
        "condition": "Hujan Ringan",
        "temp_c": 25.0,
        "humidity_pct": 80.0,
        "heat_index_c": 25.0,
        "wind_kmh": 3.3,
        "wind_dir": 0.0,
        "cloud_pct": 88.0
      }
    },
    {
      "type": "Feature",
      "geometry": {
        "type": "Point",
        "coordinates": [
          104.483483333,
          -5.009188889
        ]
      },
      "properties": {
        "location_name": "Stasiun Hujan Sumberjaya",
        "slug": "pltm_besai_kemu_sumberjaya",
        "date": "Senin, 3 Agustus 2026",
        "date_iso": "2026-08-03",
        "relative": "Besok",
        "hour": "18:00",
        "rain_probability": 57.8,
        "risk_score": 58,
        "risk_class": "rain",
        "risk_label": "Waspada",
        "condition": "Hujan Ringan",
        "temp_c": 23.7,
        "humidity_pct": 87.0,
        "heat_index_c": 23.7,
        "wind_kmh": 3.4,
        "wind_dir": 0.0,
        "cloud_pct": 88.0
      }
    },
    {
      "type": "Feature",
      "geometry": {
        "type": "Point",
        "coordinates": [
          104.483483333,
          -5.009188889
        ]
      },
      "properties": {
        "location_name": "Stasiun Hujan Sumberjaya",
        "slug": "pltm_besai_kemu_sumberjaya",
        "date": "Senin, 3 Agustus 2026",
        "date_iso": "2026-08-03",
        "relative": "Besok",
        "hour": "19:00",
        "rain_probability": 57.8,
        "risk_score": 58,
        "risk_class": "rain",
        "risk_label": "Waspada",
        "condition": "Hujan Ringan",
        "temp_c": 22.3,
        "humidity_pct": 94.0,
        "heat_index_c": 22.3,
        "wind_kmh": 4.1,
        "wind_dir": 0.0,
        "cloud_pct": 88.0
      }
    },
    {
      "type": "Feature",
      "geometry": {
        "type": "Point",
        "coordinates": [
          104.483483333,
          -5.009188889
        ]
      },
      "properties": {
        "location_name": "Stasiun Hujan Sumberjaya",
        "slug": "pltm_besai_kemu_sumberjaya",
        "date": "Senin, 3 Agustus 2026",
        "date_iso": "2026-08-03",
        "relative": "Besok",
        "hour": "20:00",
        "rain_probability": 13.8,
        "risk_score": 32,
        "risk_class": "watch",
        "risk_label": "Perlu diperhatikan",
        "condition": "Cerah Berawan",
        "temp_c": 22.0,
        "humidity_pct": 94.0,
        "heat_index_c": 22.0,
        "wind_kmh": 3.6,
        "wind_dir": 0.0,
        "cloud_pct": 45.0
      }
    },
    {
      "type": "Feature",
      "geometry": {
        "type": "Point",
        "coordinates": [
          104.483483333,
          -5.009188889
        ]
      },
      "properties": {
        "location_name": "Stasiun Hujan Sumberjaya",
        "slug": "pltm_besai_kemu_sumberjaya",
        "date": "Senin, 3 Agustus 2026",
        "date_iso": "2026-08-03",
        "relative": "Besok",
        "hour": "21:00",
        "rain_probability": 14.5,
        "risk_score": 33,
        "risk_class": "watch",
        "risk_label": "Perlu diperhatikan",
        "condition": "Cerah",
        "temp_c": 21.2,
        "humidity_pct": 94.0,
        "heat_index_c": 21.2,
        "wind_kmh": 3.3,
        "wind_dir": 0.0,
        "cloud_pct": 15.0
      }
    },
    {
      "type": "Feature",
      "geometry": {
        "type": "Point",
        "coordinates": [
          104.483483333,
          -5.009188889
        ]
      },
      "properties": {
        "location_name": "Stasiun Hujan Sumberjaya",
        "slug": "pltm_besai_kemu_sumberjaya",
        "date": "Senin, 3 Agustus 2026",
        "date_iso": "2026-08-03",
        "relative": "Besok",
        "hour": "22:00",
        "rain_probability": 28.9,
        "risk_score": 42,
        "risk_class": "watch",
        "risk_label": "Perlu diperhatikan",
        "condition": "Cerah Berawan",
        "temp_c": 21.0,
        "humidity_pct": 95.0,
        "heat_index_c": 21.0,
        "wind_kmh": 3.0,
        "wind_dir": 0.0,
        "cloud_pct": 45.0
      }
    },
    {
      "type": "Feature",
      "geometry": {
        "type": "Point",
        "coordinates": [
          104.483483333,
          -5.009188889
        ]
      },
      "properties": {
        "location_name": "Stasiun Hujan Sumberjaya",
        "slug": "pltm_besai_kemu_sumberjaya",
        "date": "Senin, 3 Agustus 2026",
        "date_iso": "2026-08-03",
        "relative": "Besok",
        "hour": "23:00",
        "rain_probability": 27.7,
        "risk_score": 39,
        "risk_class": "watch",
        "risk_label": "Perlu diperhatikan",
        "condition": "Berawan",
        "temp_c": 20.5,
        "humidity_pct": 96.0,
        "heat_index_c": 20.5,
        "wind_kmh": 4.0,
        "wind_dir": 0.0,
        "cloud_pct": 75.0
      }
    },
    {
      "type": "Feature",
      "geometry": {
        "type": "Point",
        "coordinates": [
          104.483483333,
          -5.009188889
        ]
      },
      "properties": {
        "location_name": "Stasiun Hujan Sumberjaya",
        "slug": "pltm_besai_kemu_sumberjaya",
        "date": "Selasa, 4 Agustus 2026",
        "date_iso": "2026-08-04",
        "relative": "Lusa",
        "hour": "00:00",
        "rain_probability": 15.0,
        "risk_score": 29,
        "risk_class": "watch",
        "risk_label": "Perlu diperhatikan",
        "condition": "Cerah Berawan",
        "temp_c": 20.1,
        "humidity_pct": 96.0,
        "heat_index_c": 20.1,
        "wind_kmh": 2.9,
        "wind_dir": 0.0,
        "cloud_pct": 45.0
      }
    },
    {
      "type": "Feature",
      "geometry": {
        "type": "Point",
        "coordinates": [
          104.483483333,
          -5.009188889
        ]
      },
      "properties": {
        "location_name": "Stasiun Hujan Sumberjaya",
        "slug": "pltm_besai_kemu_sumberjaya",
        "date": "Selasa, 4 Agustus 2026",
        "date_iso": "2026-08-04",
        "relative": "Lusa",
        "hour": "01:00",
        "rain_probability": 0,
        "risk_score": 27,
        "risk_class": "watch",
        "risk_label": "Perlu diperhatikan",
        "condition": "Berawan",
        "temp_c": 20.3,
        "humidity_pct": 98.0,
        "heat_index_c": 20.3,
        "wind_kmh": 3.4,
        "wind_dir": 0.0,
        "cloud_pct": 75.0
      }
    },
    {
      "type": "Feature",
      "geometry": {
        "type": "Point",
        "coordinates": [
          104.483483333,
          -5.009188889
        ]
      },
      "properties": {
        "location_name": "Stasiun Hujan Sumberjaya",
        "slug": "pltm_besai_kemu_sumberjaya",
        "date": "Selasa, 4 Agustus 2026",
        "date_iso": "2026-08-04",
        "relative": "Lusa",
        "hour": "02:00",
        "rain_probability": 0,
        "risk_score": 27,
        "risk_class": "watch",
        "risk_label": "Perlu diperhatikan",
        "condition": "Berawan",
        "temp_c": 20.2,
        "humidity_pct": 98.0,
        "heat_index_c": 20.2,
        "wind_kmh": 3.4,
        "wind_dir": 0.0,
        "cloud_pct": 75.0
      }
    },
    {
      "type": "Feature",
      "geometry": {
        "type": "Point",
        "coordinates": [
          104.483483333,
          -5.009188889
        ]
      },
      "properties": {
        "location_name": "Stasiun Hujan Sumberjaya",
        "slug": "pltm_besai_kemu_sumberjaya",
        "date": "Selasa, 4 Agustus 2026",
        "date_iso": "2026-08-04",
        "relative": "Lusa",
        "hour": "03:00",
        "rain_probability": 0,
        "risk_score": 27,
        "risk_class": "watch",
        "risk_label": "Perlu diperhatikan",
        "condition": "Berawan",
        "temp_c": 19.8,
        "humidity_pct": 97.0,
        "heat_index_c": 19.8,
        "wind_kmh": 3.3,
        "wind_dir": 0.0,
        "cloud_pct": 75.0
      }
    },
    {
      "type": "Feature",
      "geometry": {
        "type": "Point",
        "coordinates": [
          104.483483333,
          -5.009188889
        ]
      },
      "properties": {
        "location_name": "Stasiun Hujan Sumberjaya",
        "slug": "pltm_besai_kemu_sumberjaya",
        "date": "Selasa, 4 Agustus 2026",
        "date_iso": "2026-08-04",
        "relative": "Lusa",
        "hour": "04:00",
        "rain_probability": 0,
        "risk_score": 27,
        "risk_class": "watch",
        "risk_label": "Perlu diperhatikan",
        "condition": "Berawan",
        "temp_c": 19.2,
        "humidity_pct": 97.0,
        "heat_index_c": 19.2,
        "wind_kmh": 3.3,
        "wind_dir": 0.0,
        "cloud_pct": 75.0
      }
    },
    {
      "type": "Feature",
      "geometry": {
        "type": "Point",
        "coordinates": [
          104.483483333,
          -5.009188889
        ]
      },
      "properties": {
        "location_name": "Stasiun Hujan Sumberjaya",
        "slug": "pltm_besai_kemu_sumberjaya",
        "date": "Selasa, 4 Agustus 2026",
        "date_iso": "2026-08-04",
        "relative": "Lusa",
        "hour": "05:00",
        "rain_probability": 0,
        "risk_score": 27,
        "risk_class": "watch",
        "risk_label": "Perlu diperhatikan",
        "condition": "Berawan",
        "temp_c": 19.3,
        "humidity_pct": 98.0,
        "heat_index_c": 19.3,
        "wind_kmh": 3.4,
        "wind_dir": 0.0,
        "cloud_pct": 75.0
      }
    },
    {
      "type": "Feature",
      "geometry": {
        "type": "Point",
        "coordinates": [
          104.483483333,
          -5.009188889
        ]
      },
      "properties": {
        "location_name": "Stasiun Hujan Sumberjaya",
        "slug": "pltm_besai_kemu_sumberjaya",
        "date": "Selasa, 4 Agustus 2026",
        "date_iso": "2026-08-04",
        "relative": "Lusa",
        "hour": "06:00",
        "rain_probability": 0,
        "risk_score": 27,
        "risk_class": "watch",
        "risk_label": "Perlu diperhatikan",
        "condition": "Berawan",
        "temp_c": 19.5,
        "humidity_pct": 98.0,
        "heat_index_c": 19.5,
        "wind_kmh": 3.3,
        "wind_dir": 0.0,
        "cloud_pct": 75.0
      }
    },
    {
      "type": "Feature",
      "geometry": {
        "type": "Point",
        "coordinates": [
          104.483483333,
          -5.009188889
        ]
      },
      "properties": {
        "location_name": "Stasiun Hujan Sumberjaya",
        "slug": "pltm_besai_kemu_sumberjaya",
        "date": "Selasa, 4 Agustus 2026",
        "date_iso": "2026-08-04",
        "relative": "Lusa",
        "hour": "07:00",
        "rain_probability": 0,
        "risk_score": 27,
        "risk_class": "watch",
        "risk_label": "Perlu diperhatikan",
        "condition": "Berawan",
        "temp_c": 20.5,
        "humidity_pct": 96.0,
        "heat_index_c": 20.5,
        "wind_kmh": 3.2,
        "wind_dir": 0.0,
        "cloud_pct": 75.0
      }
    },
    {
      "type": "Feature",
      "geometry": {
        "type": "Point",
        "coordinates": [
          104.483483333,
          -5.009188889
        ]
      },
      "properties": {
        "location_name": "Stasiun Hujan Sumberjaya",
        "slug": "pltm_besai_kemu_sumberjaya",
        "date": "Selasa, 4 Agustus 2026",
        "date_iso": "2026-08-04",
        "relative": "Lusa",
        "hour": "08:00",
        "rain_probability": 13.8,
        "risk_score": 28,
        "risk_class": "watch",
        "risk_label": "Perlu diperhatikan",
        "condition": "Berawan",
        "temp_c": 22.4,
        "humidity_pct": 90.0,
        "heat_index_c": 22.4,
        "wind_kmh": 2.5,
        "wind_dir": 0.0,
        "cloud_pct": 45.0
      }
    },
    {
      "type": "Feature",
      "geometry": {
        "type": "Point",
        "coordinates": [
          104.483483333,
          -5.009188889
        ]
      },
      "properties": {
        "location_name": "Stasiun Hujan Sumberjaya",
        "slug": "pltm_besai_kemu_sumberjaya",
        "date": "Selasa, 4 Agustus 2026",
        "date_iso": "2026-08-04",
        "relative": "Lusa",
        "hour": "09:00",
        "rain_probability": 14.4,
        "risk_score": 26,
        "risk_class": "watch",
        "risk_label": "Perlu diperhatikan",
        "condition": "Berawan",
        "temp_c": 24.2,
        "humidity_pct": 81.0,
        "heat_index_c": 24.2,
        "wind_kmh": 3.7,
        "wind_dir": 0.0,
        "cloud_pct": 75.0
      }
    },
    {
      "type": "Feature",
      "geometry": {
        "type": "Point",
        "coordinates": [
          104.483483333,
          -5.009188889
        ]
      },
      "properties": {
        "location_name": "Stasiun Hujan Sumberjaya",
        "slug": "pltm_besai_kemu_sumberjaya",
        "date": "Selasa, 4 Agustus 2026",
        "date_iso": "2026-08-04",
        "relative": "Lusa",
        "hour": "10:00",
        "rain_probability": 14.4,
        "risk_score": 38,
        "risk_class": "watch",
        "risk_label": "Perlu diperhatikan",
        "condition": "Cerah",
        "temp_c": 25.5,
        "humidity_pct": 73.0,
        "heat_index_c": 25.5,
        "wind_kmh": 5.3,
        "wind_dir": 0.0,
        "cloud_pct": 45.0
      }
    },
    {
      "type": "Feature",
      "geometry": {
        "type": "Point",
        "coordinates": [
          104.483483333,
          -5.009188889
        ]
      },
      "properties": {
        "location_name": "Stasiun Hujan Sumberjaya",
        "slug": "pltm_besai_kemu_sumberjaya",
        "date": "Selasa, 4 Agustus 2026",
        "date_iso": "2026-08-04",
        "relative": "Lusa",
        "hour": "11:00",
        "rain_probability": 13.8,
        "risk_score": 38,
        "risk_class": "watch",
        "risk_label": "Perlu diperhatikan",
        "condition": "Cerah Berawan",
        "temp_c": 26.7,
        "humidity_pct": 68.0,
        "heat_index_c": 28.73,
        "wind_kmh": 6.5,
        "wind_dir": 0.0,
        "cloud_pct": 45.0
      }
    },
    {
      "type": "Feature",
      "geometry": {
        "type": "Point",
        "coordinates": [
          104.483483333,
          -5.009188889
        ]
      },
      "properties": {
        "location_name": "Stasiun Hujan Sumberjaya",
        "slug": "pltm_besai_kemu_sumberjaya",
        "date": "Selasa, 4 Agustus 2026",
        "date_iso": "2026-08-04",
        "relative": "Lusa",
        "hour": "12:00",
        "rain_probability": 14.4,
        "risk_score": 39,
        "risk_class": "watch",
        "risk_label": "Perlu diperhatikan",
        "condition": "Cerah Berawan",
        "temp_c": 27.7,
        "humidity_pct": 68.0,
        "heat_index_c": 29.38,
        "wind_kmh": 6.8,
        "wind_dir": 0.0,
        "cloud_pct": 45.0
      }
    },
    {
      "type": "Feature",
      "geometry": {
        "type": "Point",
        "coordinates": [
          104.483483333,
          -5.009188889
        ]
      },
      "properties": {
        "location_name": "Stasiun Hujan Sumberjaya",
        "slug": "pltm_besai_kemu_sumberjaya",
        "date": "Selasa, 4 Agustus 2026",
        "date_iso": "2026-08-04",
        "relative": "Lusa",
        "hour": "13:00",
        "rain_probability": 14.4,
        "risk_score": 45,
        "risk_class": "watch",
        "risk_label": "Perlu diperhatikan",
        "condition": "Cerah Berawan",
        "temp_c": 27.7,
        "humidity_pct": 67.0,
        "heat_index_c": 29.28,
        "wind_kmh": 6.5,
        "wind_dir": 0.0,
        "cloud_pct": 45.0
      }
    },
    {
      "type": "Feature",
      "geometry": {
        "type": "Point",
        "coordinates": [
          104.483483333,
          -5.009188889
        ]
      },
      "properties": {
        "location_name": "Stasiun Hujan Sumberjaya",
        "slug": "pltm_besai_kemu_sumberjaya",
        "date": "Selasa, 4 Agustus 2026",
        "date_iso": "2026-08-04",
        "relative": "Lusa",
        "hour": "14:00",
        "rain_probability": 41.5,
        "risk_score": 46,
        "risk_class": "watch",
        "risk_label": "Perlu diperhatikan",
        "condition": "Cerah Berawan",
        "temp_c": 27.0,
        "humidity_pct": 69.0,
        "heat_index_c": 29.28,
        "wind_kmh": 5.4,
        "wind_dir": 0.0,
        "cloud_pct": 45.0
      }
    },
    {
      "type": "Feature",
      "geometry": {
        "type": "Point",
        "coordinates": [
          104.483483333,
          -5.009188889
        ]
      },
      "properties": {
        "location_name": "Stasiun Hujan Sumberjaya",
        "slug": "pltm_besai_kemu_sumberjaya",
        "date": "Selasa, 4 Agustus 2026",
        "date_iso": "2026-08-04",
        "relative": "Lusa",
        "hour": "15:00",
        "rain_probability": 43.3,
        "risk_score": 44,
        "risk_class": "watch",
        "risk_label": "Perlu diperhatikan",
        "condition": "Hujan Ringan",
        "temp_c": 27.0,
        "humidity_pct": 70.0,
        "heat_index_c": 29.28,
        "wind_kmh": 5.8,
        "wind_dir": 0.0,
        "cloud_pct": 75.0
      }
    },
    {
      "type": "Feature",
      "geometry": {
        "type": "Point",
        "coordinates": [
          104.483483333,
          -5.009188889
        ]
      },
      "properties": {
        "location_name": "Stasiun Hujan Sumberjaya",
        "slug": "pltm_besai_kemu_sumberjaya",
        "date": "Selasa, 4 Agustus 2026",
        "date_iso": "2026-08-04",
        "relative": "Lusa",
        "hour": "16:00",
        "rain_probability": 57.8,
        "risk_score": 58,
        "risk_class": "rain",
        "risk_label": "Waspada",
        "condition": "Hujan Ringan",
        "temp_c": 25.0,
        "humidity_pct": 76.0,
        "heat_index_c": 25.0,
        "wind_kmh": 5.2,
        "wind_dir": 0.0,
        "cloud_pct": 88.0
      }
    },
    {
      "type": "Feature",
      "geometry": {
        "type": "Point",
        "coordinates": [
          104.483483333,
          -5.009188889
        ]
      },
      "properties": {
        "location_name": "Stasiun Hujan Sumberjaya",
        "slug": "pltm_besai_kemu_sumberjaya",
        "date": "Selasa, 4 Agustus 2026",
        "date_iso": "2026-08-04",
        "relative": "Lusa",
        "hour": "17:00",
        "rain_probability": 69.1,
        "risk_score": 69,
        "risk_class": "rain",
        "risk_label": "Waspada",
        "condition": "Hujan Ringan",
        "temp_c": 25.0,
        "humidity_pct": 88.0,
        "heat_index_c": 25.0,
        "wind_kmh": 5.2,
        "wind_dir": 0.0,
        "cloud_pct": 88.0
      }
    },
    {
      "type": "Feature",
      "geometry": {
        "type": "Point",
        "coordinates": [
          104.483483333,
          -5.009188889
        ]
      },
      "properties": {
        "location_name": "Stasiun Hujan Sumberjaya",
        "slug": "pltm_besai_kemu_sumberjaya",
        "date": "Selasa, 4 Agustus 2026",
        "date_iso": "2026-08-04",
        "relative": "Lusa",
        "hour": "18:00",
        "rain_probability": 72.2,
        "risk_score": 72,
        "risk_class": "rain",
        "risk_label": "Waspada",
        "condition": "Hujan Ringan",
        "temp_c": 23.3,
        "humidity_pct": 88.0,
        "heat_index_c": 23.3,
        "wind_kmh": 5.1,
        "wind_dir": 0.0,
        "cloud_pct": 88.0
      }
    },
    {
      "type": "Feature",
      "geometry": {
        "type": "Point",
        "coordinates": [
          104.483483333,
          -5.009188889
        ]
      },
      "properties": {
        "location_name": "Stasiun Hujan Sumberjaya",
        "slug": "pltm_besai_kemu_sumberjaya",
        "date": "Selasa, 4 Agustus 2026",
        "date_iso": "2026-08-04",
        "relative": "Lusa",
        "hour": "19:00",
        "rain_probability": 72.2,
        "risk_score": 72,
        "risk_class": "rain",
        "risk_label": "Waspada",
        "condition": "Hujan Ringan",
        "temp_c": 21.9,
        "humidity_pct": 94.0,
        "heat_index_c": 21.9,
        "wind_kmh": 5.2,
        "wind_dir": 0.0,
        "cloud_pct": 88.0
      }
    },
    {
      "type": "Feature",
      "geometry": {
        "type": "Point",
        "coordinates": [
          104.483483333,
          -5.009188889
        ]
      },
      "properties": {
        "location_name": "Stasiun Hujan Sumberjaya",
        "slug": "pltm_besai_kemu_sumberjaya",
        "date": "Selasa, 4 Agustus 2026",
        "date_iso": "2026-08-04",
        "relative": "Lusa",
        "hour": "20:00",
        "rain_probability": 27.6,
        "risk_score": 36,
        "risk_class": "watch",
        "risk_label": "Perlu diperhatikan",
        "condition": "Cerah Berawan",
        "temp_c": 21.1,
        "humidity_pct": 95.0,
        "heat_index_c": 21.1,
        "wind_kmh": 4.7,
        "wind_dir": 0.0,
        "cloud_pct": 45.0
      }
    },
    {
      "type": "Feature",
      "geometry": {
        "type": "Point",
        "coordinates": [
          104.483483333,
          -5.009188889
        ]
      },
      "properties": {
        "location_name": "Stasiun Hujan Sumberjaya",
        "slug": "pltm_besai_kemu_sumberjaya",
        "date": "Selasa, 4 Agustus 2026",
        "date_iso": "2026-08-04",
        "relative": "Lusa",
        "hour": "21:00",
        "rain_probability": 14.4,
        "risk_score": 29,
        "risk_class": "watch",
        "risk_label": "Perlu diperhatikan",
        "condition": "Cerah Berawan",
        "temp_c": 20.6,
        "humidity_pct": 96.0,
        "heat_index_c": 20.6,
        "wind_kmh": 5.0,
        "wind_dir": 0.0,
        "cloud_pct": 45.0
      }
    },
    {
      "type": "Feature",
      "geometry": {
        "type": "Point",
        "coordinates": [
          104.483483333,
          -5.009188889
        ]
      },
      "properties": {
        "location_name": "Stasiun Hujan Sumberjaya",
        "slug": "pltm_besai_kemu_sumberjaya",
        "date": "Selasa, 4 Agustus 2026",
        "date_iso": "2026-08-04",
        "relative": "Lusa",
        "hour": "22:00",
        "rain_probability": 14.4,
        "risk_score": 30,
        "risk_class": "watch",
        "risk_label": "Perlu diperhatikan",
        "condition": "Cerah",
        "temp_c": 20.3,
        "humidity_pct": 96.0,
        "heat_index_c": 20.3,
        "wind_kmh": 4.9,
        "wind_dir": 0.0,
        "cloud_pct": 45.0
      }
    },
    {
      "type": "Feature",
      "geometry": {
        "type": "Point",
        "coordinates": [
          104.483483333,
          -5.009188889
        ]
      },
      "properties": {
        "location_name": "Stasiun Hujan Sumberjaya",
        "slug": "pltm_besai_kemu_sumberjaya",
        "date": "Selasa, 4 Agustus 2026",
        "date_iso": "2026-08-04",
        "relative": "Lusa",
        "hour": "23:00",
        "rain_probability": 13.8,
        "risk_score": 29,
        "risk_class": "watch",
        "risk_label": "Perlu diperhatikan",
        "condition": "Cerah Berawan",
        "temp_c": 20.1,
        "humidity_pct": 96.0,
        "heat_index_c": 20.1,
        "wind_kmh": 4.9,
        "wind_dir": 0.0,
        "cloud_pct": 45.0
      }
    }
  ]
}